; Generated by plotter-processor
; Page 1/1
; Motion profile: safe
; Draw feed: 1000.000 mm/min
; Travel feed: 3000.000 mm/min
; Z feed: 500.000 mm/min
; Pen Z: down=1.000 up=5.000
; Down settle: 100 ms
; Estimated ideal time: 42.266545 s
G21
G90
G0 Z5.000 F500.000
G0 X84.041 Y14.765 F3000.000
G1 Z1.000 F500.000
G4 P100
G1 X84.284 Y16.434 F1000.000
G1 X84.215 Y16.542
G1 X83.678 Y16.423
G0 Z5.000 F500.000
G0 X87.974 Y112.641 F3000.000
G1 Z1.000 F500.000
G4 P100
G1 X85.308 Y112.967 F1000.000
G1 X84.027 Y113.250
G1 X81.629 Y114.038
G1 X79.528 Y115.099
G1 X78.614 Y115.720
G1 X77.804 Y116.392
G1 X77.104 Y117.111
G1 X76.522 Y117.868
G1 X76.064 Y118.656
G1 X75.733 Y119.469
G1 X75.533 Y120.297
G1 X75.467 Y121.133
G1 X75.533 Y121.970
G1 X75.733 Y122.798
G1 X76.064 Y123.610
G1 X76.522 Y124.399
G1 X77.104 Y125.156
G1 X77.804 Y125.874
G1 X78.614 Y126.547
G1 X79.528 Y127.167
G1 X81.629 Y128.229
G1 X82.797 Y128.659
G1 X84.027 Y129.017
G1 X86.628 Y129.503
G1 X87.974 Y129.626
G1 X90.693 Y129.626
G1 X93.359 Y129.299
G1 X94.640 Y129.017
G1 X97.037 Y128.229
G1 X99.139 Y127.167
G1 X100.052 Y126.547
G1 X100.863 Y125.874
G1 X101.563 Y125.156
G1 X102.144 Y124.399
G1 X102.603 Y123.610
G1 X102.934 Y122.798
G1 X103.133 Y121.970
G1 X103.200 Y121.133
G1 X103.133 Y120.297
G1 X102.934 Y119.469
G1 X102.603 Y118.656
G1 X102.144 Y117.868
G1 X101.563 Y117.111
G1 X100.863 Y116.392
G1 X100.052 Y115.720
G1 X98.130 Y114.537
G1 X97.037 Y114.038
G1 X94.640 Y113.250
G1 X92.039 Y112.764
G1 X90.693 Y112.641
G1 X87.974 Y112.641
G0 Z5.000 F500.000
G0 X103.200 Y121.133 F3000.000
G1 Z1.000 F500.000
G4 P100
G1 X135.200 Y121.133 F1000.000
G0 Z5.000 F500.000
G0 X127.733 Y114.733 F3000.000
G1 Z1.000 F500.000
G4 P100
G1 X135.200 Y121.133 F1000.000
G1 X127.733 Y127.533
G0 Z5.000 F500.000
G0 X121.028 Y141.593 F3000.000
G1 Z1.000 F500.000
G4 P100
G1 X120.082 Y141.145 F1000.000
G1 X119.096 Y140.793
G1 X118.081 Y140.538
G1 X117.046 Y140.385
G1 X116.000 Y140.333
G1 X114.954 Y140.385
G1 X113.919 Y140.538
G1 X112.904 Y140.793
G1 X111.918 Y141.145
G1 X110.972 Y141.593
G1 X110.074 Y142.131
G1 X109.233 Y142.755
G1 X108.458 Y143.458
G1 X107.755 Y144.233
G1 X107.131 Y145.074
G1 X106.593 Y145.972
G1 X106.145 Y146.918
G1 X105.793 Y147.904
G1 X105.538 Y148.919
G1 X105.385 Y149.954
G1 X105.333 Y151.000
G1 X105.385 Y152.046
G1 X105.538 Y153.081
G1 X105.793 Y154.096
G1 X106.145 Y155.082
G1 X106.593 Y156.028
G1 X107.131 Y156.926
G1 X107.755 Y157.767
G1 X108.458 Y158.542
G1 X109.233 Y159.245
G1 X110.074 Y159.869
G1 X110.972 Y160.407
G1 X111.918 Y160.855
G1 X112.904 Y161.207
G1 X113.919 Y161.462
G1 X114.954 Y161.615
G1 X116.000 Y161.667
G1 X117.046 Y161.615
G1 X118.081 Y161.462
G1 X119.096 Y161.207
G1 X120.082 Y160.855
G1 X121.028 Y160.407
G1 X121.926 Y159.869
G1 X122.767 Y159.245
G1 X123.542 Y158.542
G1 X124.245 Y157.767
G1 X124.869 Y156.926
G1 X125.407 Y156.028
G1 X125.855 Y155.082
G1 X126.207 Y154.096
G1 X126.462 Y153.081
G1 X126.615 Y152.046
G1 X126.667 Y151.000
G1 X126.615 Y149.954
G1 X126.462 Y148.919
G1 X126.207 Y147.904
G1 X125.855 Y146.918
G1 X125.407 Y145.972
G1 X124.869 Y145.074
G1 X124.245 Y144.233
G1 X123.542 Y143.458
G1 X122.767 Y142.755
G1 X121.926 Y142.131
G1 X121.028 Y141.593
G0 Z5.000 F500.000
G0 X101.067 Y141.400 F3000.000
G1 Z1.000 F500.000
G4 P100
G1 X75.467 Y141.400 F1000.000
G1 X75.467 Y160.600
G1 X101.067 Y160.600
G1 X101.067 Y141.400
G0 Z5.000 F500.000
G0 X68.000 Y155.267 F3000.000
G1 Z1.000 F500.000
G4 P100
G1 X66.500 Y154.358 F1000.000
G1 X65.000 Y153.626
G1 X63.500 Y153.058
G1 X62.000 Y152.642
G1 X60.500 Y152.366
G1 X59.000 Y152.220
G1 X57.500 Y152.190
G1 X54.500 Y152.437
G1 X53.000 Y152.689
G1 X50.000 Y153.392
G1 X38.000 Y157.142
G1 X35.000 Y157.845
G1 X32.000 Y158.267
G1 X30.500 Y158.343
G1 X29.000 Y158.314
G1 X27.500 Y158.167
G1 X26.000 Y157.892
G1 X24.500 Y157.476
G1 X23.000 Y156.907
G1 X21.500 Y156.175
G1 X20.000 Y155.267
G0 Z5.000 F500.000
G0 X20.000 Y139.267 F3000.000
G1 Z1.000 F500.000
G4 P100
G1 X68.000 Y139.267 F1000.000
G0 Z5.000 F500.000
G0 X66.933 Y131.800 F3000.000
G1 Z1.000 F500.000
G4 P100
G1 X60.533 Y119.000 F1000.000
G1 X54.133 Y131.800
G1 X66.933 Y131.800
G0 Z5.000 F500.000
G0 X45.600 Y123.267 F3000.000
G1 Z1.000 F500.000
G4 P100
G1 X32.800 Y131.800 F1000.000
G1 X20.000 Y123.267
G0 Z5.000 F500.000
M400
M84
; End
