; Generated by plotter-processor
; Page 3/3
; Motion profile: safe
; Draw feed: 1000.000 mm/min
; Travel feed: 3000.000 mm/min
; Z feed: 500.000 mm/min
; Pen Z: down=1.000 up=5.000
; Down settle: 100 ms
; Estimated ideal time: 131.272328 s
G21
G90
G0 Z5.000 F500.000
G0 X109.298 Y10.073 F3000.000
G1 Z1.000 F500.000
G4 P100
G1 X109.468 Y9.778 F1000.000
G1 X109.918 Y9.673
G1 X110.374 Y9.782
G1 X110.586 Y10.082
G1 X110.455 Y10.397
G1 X110.146 Y10.624
G1 X109.897 Y10.610
G1 X110.146 Y10.624
G1 X110.539 Y10.993
G1 X110.630 Y11.261
G1 X110.530 Y11.497
G1 X110.235 Y11.630
G1 X109.834 Y11.614
G1 X109.555 Y11.460
G1 X109.425 Y11.210
G0 Z5.000 F500.000
G0 X35.227 Y262.173 F3000.000
G1 Z1.000 F500.000
G4 P100
G1 X35.408 Y261.991 F1000.000
G1 X35.590 Y261.991
G1 X37.223 Y262.900
G1 X37.404 Y262.900
G1 X37.767 Y263.264
G1 X42.304 Y265.446
G1 X42.667 Y265.810
G1 X46.841 Y267.811
G1 X47.023 Y267.993
G0 Z5.000 F500.000
G0 X47.023 Y268.175 F3000.000
G1 Z1.000 F500.000
G4 P100
G1 X46.841 Y268.356 F1000.000
G1 X46.841 Y268.720
G1 X46.660 Y268.902
G1 X46.660 Y269.084
G1 X46.297 Y269.630
G1 X46.297 Y269.993
G1 X45.934 Y270.539
G1 X45.752 Y271.812
G1 X45.571 Y271.994
G1 X45.571 Y275.268
G1 X45.752 Y275.450
G1 X45.752 Y276.177
G1 X45.934 Y276.359
G1 X46.115 Y277.268
G1 X46.660 Y278.178
G1 X46.841 Y278.724
G1 X47.748 Y279.815
G1 X47.748 Y279.997
G1 X48.474 Y280.724
G1 X48.474 Y280.906
G1 X50.652 Y282.725
G1 X50.834 Y282.725
G1 X51.559 Y283.270
G1 X51.741 Y283.270
G1 X52.104 Y283.634
G1 X52.285 Y283.634
G1 X52.467 Y283.816
G1 X52.830 Y283.816
G1 X53.374 Y284.180
G1 X53.737 Y284.180
G1 X53.919 Y284.362
G1 X54.826 Y284.544
G1 X55.007 Y284.726
G1 X55.552 Y284.726
G1 X55.733 Y284.907
G1 X56.641 Y284.907
G1 X56.822 Y285.089
G1 X60.815 Y285.089
G1 X60.996 Y284.907
G1 X61.903 Y284.907
G1 X62.085 Y284.726
G1 X62.629 Y284.726
G1 X62.811 Y284.544
G1 X63.174 Y284.544
G1 X63.355 Y284.362
G1 X64.263 Y284.180
G1 X64.807 Y283.816
G1 X65.170 Y283.816
G1 X65.896 Y283.270
G1 X66.440 Y283.089
G1 X67.529 Y282.179
G1 X67.711 Y282.179
G1 X69.525 Y280.360
G1 X69.525 Y280.179
G1 X69.707 Y279.997
G0 Z5.000 F500.000
G0 X69.707 Y279.815 F3000.000
G1 Z1.000 F500.000
G4 P100
G1 X67.348 Y278.542 F1000.000
G1 X66.077 Y277.996
G1 X65.714 Y277.632
G1 X61.540 Y275.632
G1 X61.178 Y275.268
G1 X56.641 Y273.085
G1 X56.278 Y272.722
G1 X52.104 Y270.721
G1 X51.741 Y270.357
G1 X47.930 Y268.538
G1 X47.386 Y267.993
G0 Z5.000 F500.000
G0 X47.386 Y267.993 F3000.000
G1 Z1.000 F500.000
G4 P100
G1 X47.748 Y267.447 F1000.000
G1 X47.748 Y267.265
G1 X49.926 Y265.083
G1 X50.108 Y265.083
G1 X50.652 Y264.537
G1 X51.196 Y264.355
G1 X51.559 Y263.991
G1 X52.104 Y263.809
G1 X52.285 Y263.628
G1 X52.648 Y263.628
G1 X53.556 Y263.082
G1 X54.463 Y262.900
G1 X54.644 Y262.718
G1 X55.370 Y262.718
G1 X55.552 Y262.536
G1 X56.096 Y262.536
G1 X56.278 Y262.354
G1 X57.367 Y262.354
G1 X57.548 Y262.173
G1 X60.089 Y262.173
G1 X60.270 Y262.354
G1 X61.359 Y262.354
G1 X61.540 Y262.536
G1 X62.085 Y262.536
G1 X62.266 Y262.718
G1 X62.992 Y262.718
G1 X63.174 Y262.900
G1 X64.081 Y263.082
G1 X64.988 Y263.628
G1 X65.351 Y263.628
G1 X65.896 Y263.991
G1 X66.077 Y263.991
G1 X66.440 Y264.355
G1 X66.985 Y264.537
G1 X67.529 Y265.083
G1 X67.711 Y265.083
G1 X69.888 Y267.265
G1 X69.888 Y267.447
G1 X70.614 Y268.356
G1 X70.977 Y269.266
G1 X71.159 Y269.448
G1 X71.159 Y269.811
G1 X71.521 Y270.357
G1 X71.703 Y271.630
G1 X71.884 Y271.812
G1 X71.884 Y272.540
G1 X72.066 Y272.722
G1 X72.066 Y274.540
G1 X71.884 Y274.722
G1 X71.703 Y276.359
G1 X71.521 Y276.541
G1 X71.521 Y276.905
G1 X71.340 Y277.087
G1 X71.340 Y277.450
G1 X70.614 Y278.724
G1 X70.614 Y278.905
G1 X70.251 Y279.269
G1 X70.251 Y279.633
G1 X70.070 Y279.815
G0 Z5.000 F500.000
G0 X70.070 Y279.815 F3000.000
G1 Z1.000 F500.000
G4 P100
G1 X70.977 Y280.542 F1000.000
G1 X75.151 Y282.543
G1 X75.514 Y282.907
G1 X80.051 Y285.089
G1 X80.414 Y285.453
G1 X81.684 Y285.999
G1 X81.865 Y286.181
G1 X82.047 Y286.181
G0 Z5.000 F500.000
G0 X82.047 Y286.181 F3000.000
G1 Z1.000 F500.000
G4 P100
G1 X82.228 Y286.362 F1000.000
G1 X82.228 Y286.544
G0 Z5.000 F500.000
G0 X82.047 Y286.181 F3000.000
G1 Z1.000 F500.000
G4 P100
G1 X82.228 Y285.999 F1000.000
G1 X82.591 Y285.999
G0 Z5.000 F500.000
G0 X32.868 Y288.909 F3000.000
G1 Z1.000 F500.000
G4 P100
G1 X84.588 Y288.909 F1000.000
G1 X84.769 Y288.727
G1 X84.769 Y258.717
G1 X84.588 Y258.535
G1 X32.868 Y258.535
G1 X32.686 Y258.717
G1 X32.686 Y288.727
G1 X32.868 Y288.909
G0 Z5.000 F500.000
G0 X93.625 Y253.027 F3000.000
G1 Z1.000 F500.000
G4 P100
G1 X93.542 Y250.277 F1000.000
G0 Z5.000 F500.000
G0 X94.542 Y253.027 F3000.000
G1 Z1.000 F500.000
G4 P100
G1 X94.458 Y252.860 F1000.000
G0 Z5.000 F500.000
G0 X90.250 Y252.985 F3000.000
G1 Z1.000 F500.000
G4 P100
G1 X90.167 Y250.277 F1000.000
G0 Z5.000 F500.000
G0 X106.417 Y252.194 F3000.000
G1 Z1.000 F500.000
G4 P100
G1 X106.542 Y252.277 F1000.000
G1 X106.667 Y252.652
G1 X107.000 Y252.944
G1 X107.500 Y252.985
G1 X107.917 Y252.777
G1 X108.125 Y252.277
G1 X108.042 Y251.902
G1 X107.750 Y251.569
G1 X106.958 Y251.110
G1 X106.625 Y250.777
G1 X106.500 Y250.277
G1 X108.125 Y250.277
G0 Z5.000 F500.000
G0 X117.708 Y252.194 F3000.000
G1 Z1.000 F500.000
G4 P100
G1 X117.833 Y252.277 F1000.000
G1 X117.958 Y252.652
G1 X118.292 Y252.944
G1 X118.792 Y252.985
G1 X119.208 Y252.777
G1 X119.417 Y252.277
G1 X119.333 Y251.902
G1 X119.042 Y251.569
G1 X118.250 Y251.110
G1 X117.917 Y250.777
G1 X117.792 Y250.277
G1 X119.417 Y250.277
G0 Z5.000 F500.000
G0 X128.292 Y252.194 F3000.000
G1 Z1.000 F500.000
G4 P100
G1 X128.417 Y252.277 F1000.000
G1 X128.542 Y252.652
G1 X128.875 Y252.944
G1 X129.375 Y252.985
G1 X129.792 Y252.777
G1 X130.000 Y252.277
G1 X129.917 Y251.902
G1 X129.625 Y251.569
G1 X128.833 Y251.110
G1 X128.500 Y250.777
G1 X128.375 Y250.277
G1 X130.000 Y250.277
G0 Z5.000 F500.000
G0 X104.417 Y251.527 F3000.000
G1 Z1.000 F500.000
G4 P100
G1 X104.583 Y251.610 F1000.000
G1 X104.958 Y252.610
G1 X105.167 Y252.819
G1 X105.375 Y252.652
G1 X105.750 Y251.652
G1 X105.917 Y251.527
G0 Z5.000 F500.000
G0 X115.708 Y251.527 F3000.000
G1 Z1.000 F500.000
G4 P100
G1 X115.875 Y251.610 F1000.000
G1 X116.250 Y252.610
G1 X116.458 Y252.819
G1 X116.667 Y252.652
G1 X117.042 Y251.652
G1 X117.208 Y251.527
G0 Z5.000 F500.000
G0 X126.250 Y251.527 F3000.000
G1 Z1.000 F500.000
G4 P100
G1 X126.417 Y251.610 F1000.000
G1 X126.792 Y252.610
G1 X127.000 Y252.819
G1 X127.208 Y252.652
G1 X127.583 Y251.652
G1 X127.750 Y251.527
G0 Z5.000 F500.000
G0 X104.000 Y252.277 F3000.000
G1 Z1.000 F500.000
G4 P100
G1 X103.750 Y252.194 F1000.000
G1 X103.292 Y251.485
G1 X103.083 Y251.360
G1 X102.917 Y251.485
G1 X102.583 Y252.027
G1 X102.250 Y252.277
G1 X102.583 Y252.027
G1 X102.917 Y251.485
G1 X103.083 Y251.360
G1 X103.083 Y251.069
G1 X102.833 Y250.860
G1 X102.458 Y250.277
G1 X102.250 Y250.152
G1 X102.458 Y250.277
G1 X102.833 Y250.860
G1 X103.125 Y251.069
G1 X103.333 Y250.902
G1 X103.625 Y250.402
G1 X103.833 Y250.194
G1 X104.042 Y250.110
G0 Z5.000 F500.000
G0 X113.500 Y252.277 F3000.000
G1 Z1.000 F500.000
G4 P100
G1 X113.708 Y252.110 F1000.000
G1 X114.167 Y250.652
G1 X114.375 Y250.485
G1 X114.333 Y249.944
G1 X114.125 Y249.485
G1 X113.917 Y249.360
G1 X113.708 Y249.360
G1 X113.625 Y249.485
G1 X113.708 Y249.360
G1 X113.917 Y249.360
G1 X114.208 Y249.610
G1 X114.333 Y249.944
G1 X114.375 Y250.485
G1 X114.583 Y250.652
G1 X115.083 Y252.069
G1 X115.292 Y252.277
G0 Z5.000 F500.000
G0 X91.208 Y250.277 F3000.000
G1 Z1.000 F500.000
G4 P100
G1 X91.208 Y252.110 F1000.000
G1 X91.250 Y252.152
G1 X91.208 Y251.944
G1 X91.292 Y251.860
G1 X91.583 Y251.985
G1 X91.750 Y252.152
G1 X92.125 Y252.235
G1 X92.417 Y252.152
G1 X92.625 Y251.902
G1 X92.625 Y250.277
G0 Z5.000 F500.000
G0 X95.458 Y250.277 F3000.000
G1 Z1.000 F500.000
G4 P100
G1 X95.458 Y252.110 F1000.000
G1 X95.500 Y252.152
G1 X95.458 Y251.944
G1 X95.542 Y251.860
G1 X95.833 Y251.985
G1 X96.000 Y252.152
G1 X96.375 Y252.235
G1 X96.667 Y252.152
G1 X96.875 Y251.902
G1 X96.875 Y250.277
G0 Z5.000 F500.000
G0 X97.750 Y251.235 F3000.000
G1 Z1.000 F500.000
G4 P100
G1 X97.792 Y251.735 F1000.000
G1 X98.125 Y252.110
G1 X98.542 Y252.235
G1 X98.750 Y252.194
G1 X98.958 Y252.110
G1 X99.167 Y251.902
G1 X99.292 Y251.652
G1 X99.333 Y251.319
G1 X99.250 Y251.235
G1 X97.708 Y251.235
G1 X97.792 Y250.610
G1 X98.250 Y250.194
G1 X98.792 Y250.194
G1 X99.000 Y250.277
G1 X99.417 Y250.735
G0 Z5.000 F500.000
G0 X125.875 Y252.194 F3000.000
G1 Z1.000 F500.000
G4 P100
G1 X125.167 Y251.860 F1000.000
G1 X125.083 Y251.944
G1 X125.125 Y252.152
G1 X125.083 Y252.110
G1 X125.083 Y250.277
G0 Z5.000 F500.000
G0 X94.542 Y252.152 F3000.000
G1 Z1.000 F500.000
G4 P100
G1 X94.458 Y250.235 F1000.000
G0 Z5.000 F500.000
G0 X100.417 Y252.110 F3000.000
G1 Z1.000 F500.000
G4 P100
G1 X100.292 Y252.069 F1000.000
G0 Z5.000 F500.000
G0 X110.958 Y251.985 F3000.000
G1 Z1.000 F500.000
G4 P100
G1 X110.875 Y250.194 F1000.000
G1 X110.917 Y251.069
G1 X110.000 Y251.069
G1 X111.833 Y251.110
G0 Z5.000 F500.000
G0 X123.125 Y251.485 F3000.000
G1 Z1.000 F500.000
G4 P100
G1 X121.292 Y251.444 F1000.000
G0 Z5.000 F500.000
G0 X123.083 Y250.735 F3000.000
G1 Z1.000 F500.000
G4 P100
G1 X121.417 Y250.735 F1000.000
G1 X121.250 Y250.652
G0 Z5.000 F500.000
G0 X100.417 Y250.360 F3000.000
G1 Z1.000 F500.000
G4 P100
G1 X100.333 Y250.319 F1000.000
G0 Z5.000 F500.000
G0 X90.812 Y239.621 F3000.000
G1 Z1.000 F500.000
G4 P100
G1 X90.562 Y239.329 F1000.000
G1 X90.188 Y238.454
G1 X90.062 Y237.996
G1 X90.021 Y236.996
G1 X90.062 Y236.579
G1 X90.354 Y235.662
G1 X90.646 Y235.121
G1 X90.812 Y235.037
G0 Z5.000 F500.000
G0 X110.896 Y239.579 F3000.000
G1 Z1.000 F500.000
G4 P100
G1 X111.229 Y239.162 F1000.000
G1 X111.438 Y238.662
G1 X111.688 Y237.579
G1 X111.688 Y237.037
G1 X111.521 Y236.162
G1 X111.104 Y235.204
G1 X110.938 Y235.037
G0 Z5.000 F500.000
G0 X73.812 Y239.454 F3000.000
G1 Z1.000 F500.000
G4 P100
G1 X73.771 Y239.287 F1000.000
G0 Z5.000 F500.000
G0 X88.938 Y239.454 F3000.000
G1 Z1.000 F500.000
G4 P100
G1 X88.854 Y236.204 F1000.000
G0 Z5.000 F500.000
G0 X97.146 Y239.454 F3000.000
G1 Z1.000 F500.000
G4 P100
G1 X97.104 Y239.287 F1000.000
G0 Z5.000 F500.000
G0 X101.562 Y239.454 F3000.000
G1 Z1.000 F500.000
G4 P100
G1 X101.229 Y239.371 F1000.000
G1 X101.104 Y239.204
G1 X101.062 Y238.454
G1 X101.604 Y238.454
G1 X100.646 Y238.412
G1 X101.062 Y238.454
G1 X101.021 Y236.204
G0 Z5.000 F500.000
G0 X102.354 Y239.454 F3000.000
G1 Z1.000 F500.000
G4 P100
G1 X102.312 Y239.287 F1000.000
G0 Z5.000 F500.000
G0 X106.188 Y239.454 F3000.000
G1 Z1.000 F500.000
G4 P100
G1 X106.146 Y239.287 F1000.000
G0 Z5.000 F500.000
G0 X135.271 Y238.121 F3000.000
G1 Z1.000 F500.000
G4 P100
G1 X135.271 Y236.496 F1000.000
G1 X135.354 Y236.412
G1 X135.312 Y236.204
G1 X135.354 Y236.246
G1 X135.354 Y236.412
G1 X135.271 Y236.496
G1 X134.688 Y236.162
G1 X134.479 Y236.121
G1 X134.146 Y236.121
G1 X133.854 Y236.246
G1 X133.562 Y236.579
G1 X133.438 Y236.996
G1 X133.438 Y237.579
G1 X133.521 Y237.912
G1 X133.896 Y238.371
G1 X134.312 Y238.496
G1 X134.729 Y238.412
G1 X135.271 Y238.121
G1 X135.312 Y239.454
G0 Z5.000 F500.000
G0 X92.229 Y239.371 F3000.000
G1 Z1.000 F500.000
G4 P100
G1 X92.729 Y239.371 F1000.000
G1 X93.146 Y239.037
G1 X93.312 Y238.662
G1 X93.396 Y238.037
G1 X93.354 Y237.037
G1 X93.229 Y236.621
G1 X92.854 Y236.162
G1 X92.479 Y236.079
G1 X92.104 Y236.162
G1 X91.812 Y236.454
G1 X91.562 Y237.246
G1 X91.562 Y238.246
G1 X91.688 Y238.829
G1 X91.896 Y239.162
G1 X92.229 Y239.371
G0 Z5.000 F500.000
G0 X118.771 Y238.496 F3000.000
G1 Z1.000 F500.000
G4 P100
G1 X118.896 Y238.579 F1000.000
G1 X118.979 Y238.954
G1 X119.104 Y239.121
G1 X119.479 Y239.371
G1 X120.146 Y239.371
G1 X120.604 Y238.996
G1 X120.688 Y238.787
G1 X120.688 Y238.287
G1 X120.562 Y238.037
G1 X120.271 Y237.746
G1 X119.521 Y237.329
G1 X119.062 Y236.954
G1 X118.896 Y236.662
G1 X118.854 Y236.246
G1 X118.646 Y236.121
G1 X118.812 Y236.246
G1 X120.729 Y236.246
G0 Z5.000 F500.000
G0 X144.271 Y238.496 F3000.000
G1 Z1.000 F500.000
G4 P100
G1 X144.396 Y238.579 F1000.000
G1 X144.479 Y238.954
G1 X144.604 Y239.121
G1 X144.979 Y239.371
G1 X145.646 Y239.371
G1 X146.104 Y238.996
G1 X146.188 Y238.787
G1 X146.188 Y238.287
G1 X146.062 Y238.037
G1 X145.771 Y237.746
G1 X144.646 Y237.037
G1 X144.396 Y236.662
G1 X144.354 Y236.246
G1 X144.146 Y236.121
G1 X144.312 Y236.246
G1 X146.229 Y236.246
G0 Z5.000 F500.000
G0 X116.354 Y237.704 F3000.000
G1 Z1.000 F500.000
G4 P100
G1 X116.521 Y237.787 F1000.000
G1 X116.979 Y238.996
G1 X117.229 Y239.246
G1 X117.521 Y238.871
G1 X117.938 Y237.787
G1 X118.104 Y237.704
G0 Z5.000 F500.000
G0 X125.562 Y237.704 F3000.000
G1 Z1.000 F500.000
G4 P100
G1 X125.729 Y237.787 F1000.000
G1 X126.188 Y238.996
G1 X126.438 Y239.246
G1 X126.729 Y238.871
G1 X127.146 Y237.787
G1 X127.312 Y237.704
G0 Z5.000 F500.000
G0 X77.771 Y239.121 F3000.000
G1 Z1.000 F500.000
G4 P100
G1 X77.729 Y238.454 F1000.000
G1 X78.229 Y238.454
G1 X77.312 Y238.412
G1 X77.729 Y238.454
G1 X77.729 Y236.412
G1 X77.896 Y236.121
G1 X78.229 Y236.121
G0 Z5.000 F500.000
G0 X107.396 Y239.121 F3000.000
G1 Z1.000 F500.000
G4 P100
G1 X107.354 Y238.454 F1000.000
G1 X107.854 Y238.454
G1 X106.938 Y238.412
G1 X107.354 Y238.454
G1 X107.354 Y236.412
G1 X107.521 Y236.121
G1 X107.854 Y236.121
G0 Z5.000 F500.000
G0 X85.479 Y238.579 F3000.000
G1 Z1.000 F500.000
G4 P100
G1 X85.354 Y238.412 F1000.000
G1 X85.146 Y238.371
G1 X84.854 Y238.121
G1 X84.562 Y237.996
G1 X84.521 Y238.412
G1 X84.562 Y238.454
G1 X84.479 Y236.204
G0 Z5.000 F500.000
G0 X108.271 Y238.579 F3000.000
G1 Z1.000 F500.000
G4 P100
G1 X108.521 Y238.371 F1000.000
G1 X109.062 Y236.662
G1 X109.312 Y236.454
G1 X109.271 Y235.912
G1 X109.062 Y235.371
G1 X108.771 Y235.162
G1 X108.562 Y235.204
G1 X108.896 Y235.204
G1 X109.104 Y235.454
G1 X109.271 Y235.912
G1 X109.312 Y236.454
G1 X109.562 Y236.662
G1 X110.146 Y238.371
G1 X110.479 Y238.579
G0 Z5.000 F500.000
G0 X113.771 Y238.579 F3000.000
G1 Z1.000 F500.000
G4 P100
G1 X114.062 Y238.496 F1000.000
G1 X114.604 Y237.662
G1 X114.896 Y237.496
G1 X115.521 Y238.371
G1 X115.896 Y238.579
G1 X115.521 Y238.371
G1 X115.104 Y237.704
G1 X114.854 Y237.496
G1 X114.854 Y237.162
G1 X115.104 Y236.954
G1 X115.562 Y236.246
G1 X115.938 Y236.037
G1 X115.562 Y236.246
G1 X115.104 Y236.954
G1 X114.812 Y237.162
G1 X114.562 Y236.954
G1 X114.104 Y236.246
G1 X113.771 Y236.037
G0 Z5.000 F500.000
G0 X129.396 Y238.579 F3000.000
G1 Z1.000 F500.000
G4 P100
G1 X129.688 Y238.496 F1000.000
G1 X130.229 Y237.662
G1 X130.521 Y237.496
G1 X131.146 Y238.371
G1 X131.521 Y238.579
G1 X131.146 Y238.371
G1 X130.729 Y237.704
G1 X130.479 Y237.496
G1 X130.479 Y237.162
G1 X130.729 Y236.954
G1 X131.188 Y236.246
G1 X131.562 Y236.037
G1 X131.188 Y236.246
G1 X130.729 Y236.954
G1 X130.438 Y237.162
G1 X130.188 Y236.954
G1 X129.729 Y236.246
G1 X129.396 Y236.037
G0 Z5.000 F500.000
G0 X135.979 Y238.579 F3000.000
G1 Z1.000 F500.000
G4 P100
G1 X136.271 Y238.496 F1000.000
G1 X136.812 Y237.662
G1 X137.104 Y237.496
G1 X137.729 Y238.371
G1 X138.104 Y238.579
G1 X137.729 Y238.371
G1 X137.312 Y237.704
G1 X137.062 Y237.496
G1 X137.062 Y237.162
G1 X137.312 Y236.954
G1 X137.771 Y236.246
G1 X138.146 Y236.037
G1 X137.771 Y236.246
G1 X137.312 Y236.954
G1 X137.021 Y237.162
G1 X136.771 Y236.954
G1 X136.312 Y236.246
G1 X135.979 Y236.037
G0 Z5.000 F500.000
G0 X74.854 Y236.204 F3000.000
G1 Z1.000 F500.000
G4 P100
G1 X74.896 Y238.371 F1000.000
G1 X74.938 Y238.412
G1 X74.896 Y238.162
G1 X74.979 Y238.079
G1 X75.604 Y238.454
G1 X76.104 Y238.496
G1 X76.312 Y238.412
G1 X76.562 Y238.079
G1 X76.521 Y236.204
G0 Z5.000 F500.000
G0 X78.938 Y237.371 F3000.000
G1 Z1.000 F500.000
G4 P100
G1 X78.979 Y237.871 F1000.000
G1 X79.271 Y238.287
G1 X79.562 Y238.454
G1 X80.062 Y238.496
G1 X80.354 Y238.371
G1 X80.646 Y238.079
G1 X80.771 Y237.787
G1 X80.771 Y237.412
G1 X78.938 Y237.371
G1 X78.896 Y237.121
G1 X78.979 Y236.704
G1 X79.396 Y236.204
G1 X80.062 Y236.121
G1 X80.354 Y236.204
G1 X80.771 Y236.704
G1 X80.896 Y236.746
G0 Z5.000 F500.000
G0 X83.354 Y236.496 F3000.000
G1 Z1.000 F500.000
G4 P100
G1 X83.354 Y238.079 F1000.000
G1 X83.438 Y238.162
G1 X83.479 Y238.454
G1 X83.438 Y238.162
G1 X83.354 Y238.079
G1 X82.646 Y238.496
G1 X82.229 Y238.454
G1 X81.854 Y238.162
G1 X81.688 Y237.829
G1 X81.688 Y236.746
G1 X81.812 Y236.496
G1 X82.104 Y236.204
G1 X82.354 Y236.121
G1 X82.771 Y236.162
G1 X83.354 Y236.496
G1 X83.396 Y235.871
G1 X83.271 Y235.496
G1 X83.062 Y235.246
G1 X82.562 Y235.121
G1 X81.979 Y235.246
G1 X81.604 Y235.662
G0 Z5.000 F500.000
G0 X87.729 Y237.454 F3000.000
G1 Z1.000 F500.000
G4 P100
G1 X87.771 Y236.246 F1000.000
G1 X87.896 Y236.121
G1 X88.146 Y236.079
G1 X87.896 Y236.121
G1 X87.729 Y236.412
G1 X87.354 Y236.329
G1 X87.021 Y236.121
G1 X86.438 Y236.121
G1 X86.188 Y236.287
G1 X86.062 Y236.496
G1 X86.062 Y236.871
G1 X86.146 Y237.037
G1 X86.438 Y237.246
G1 X87.729 Y237.454
G1 X87.729 Y238.079
G1 X87.688 Y238.204
G1 X87.396 Y238.454
G1 X86.729 Y238.496
G1 X86.354 Y238.329
G1 X86.188 Y238.037
G1 X86.021 Y237.954
G0 Z5.000 F500.000
G0 X98.188 Y236.204 F3000.000
G1 Z1.000 F500.000
G4 P100
G1 X98.229 Y238.371 F1000.000
G1 X98.271 Y238.412
G1 X98.229 Y238.162
G1 X98.312 Y238.079
G1 X98.938 Y238.454
G1 X99.438 Y238.496
G1 X99.646 Y238.412
G1 X99.896 Y238.079
G1 X99.854 Y236.204
G0 Z5.000 F500.000
G0 X103.396 Y236.204 F3000.000
G1 Z1.000 F500.000
G4 P100
G1 X103.438 Y238.371 F1000.000
G1 X103.479 Y238.412
G1 X103.438 Y238.162
G1 X103.521 Y238.079
G1 X104.146 Y238.454
G1 X104.646 Y238.496
G1 X104.854 Y238.412
G1 X105.104 Y238.079
G1 X105.062 Y236.204
G0 Z5.000 F500.000
G0 X122.979 Y237.371 F3000.000
G1 Z1.000 F500.000
G4 P100
G1 X123.021 Y237.871 F1000.000
G1 X123.312 Y238.287
G1 X123.604 Y238.454
G1 X124.104 Y238.496
G1 X124.396 Y238.371
G1 X124.688 Y238.079
G1 X124.812 Y237.787
G1 X124.812 Y237.412
G1 X122.979 Y237.371
G1 X122.938 Y237.121
G1 X123.021 Y236.704
G1 X123.438 Y236.204
G1 X124.104 Y236.121
G1 X124.396 Y236.204
G1 X124.812 Y236.704
G1 X124.938 Y236.746
G0 Z5.000 F500.000
G0 X73.854 Y238.412 F3000.000
G1 Z1.000 F500.000
G4 P100
G1 X73.771 Y236.204 F1000.000
G0 Z5.000 F500.000
G0 X97.188 Y238.412 F3000.000
G1 Z1.000 F500.000
G4 P100
G1 X97.104 Y236.204 F1000.000
G0 Z5.000 F500.000
G0 X102.396 Y238.412 F3000.000
G1 Z1.000 F500.000
G4 P100
G1 X102.312 Y236.204 F1000.000
G0 Z5.000 F500.000
G0 X106.229 Y238.412 F3000.000
G1 Z1.000 F500.000
G4 P100
G1 X106.146 Y236.204 F1000.000
G0 Z5.000 F500.000
G0 X142.146 Y237.621 F3000.000
G1 Z1.000 F500.000
G4 P100
G1 X140.062 Y237.579 F1000.000
G0 Z5.000 F500.000
G0 X127.979 Y237.412 F3000.000
G1 Z1.000 F500.000
G4 P100
G1 X128.854 Y237.412 F1000.000
G0 Z5.000 F500.000
G0 X142.146 Y236.787 F3000.000
G1 Z1.000 F500.000
G4 P100
G1 X140.062 Y236.746 F1000.000
G0 Z5.000 F500.000
G0 X94.479 Y236.246 F3000.000
G1 Z1.000 F500.000
G4 P100
G1 X94.562 Y236.287 F1000.000
G1 X94.688 Y236.162
G1 X94.688 Y235.704
G1 X94.604 Y235.496
G1 X94.354 Y235.371
G0 Z5.000 F500.000
M400
M84
; End
