; Generated by plotter-processor
; Page 12/20
; Motion profile: safe
; Draw feed: 1000.000 mm/min
; Travel feed: 3000.000 mm/min
; Z feed: 500.000 mm/min
; Pen Z: down=1.000 up=5.000
; Down settle: 100 ms
; Estimated ideal time: 490.770831 s
G21
G90
G0 Z5.000 F500.000
G0 X27.022 Y205.620 F3000.000
G1 Z1.000 F500.000
G4 P100
G1 X26.824 Y204.546 F1000.000
G1 X27.415 Y204.458
G1 X28.306 Y205.089
G1 X28.496 Y205.480
G1 X28.513 Y205.896
G1 X28.403 Y206.180
G1 X28.189 Y206.400
G1 X27.491 Y206.612
G1 X26.670 Y206.495
G1 X26.005 Y206.053
G1 X25.584 Y205.354
G1 X25.405 Y204.439
G1 X25.484 Y203.569
G1 X25.826 Y203.034
G1 X26.263 Y202.940
G1 X26.537 Y203.186
G1 X26.731 Y204.441
G1 X26.350 Y204.495
G1 X26.731 Y204.441
G1 X26.824 Y204.546
G1 X27.415 Y204.458
G1 X27.856 Y203.979
G1 X28.348 Y203.144
G1 X28.862 Y202.936
G1 X29.245 Y203.040
G1 X29.637 Y203.388
G1 X29.841 Y204.245
G1 X30.074 Y204.585
G1 X30.540 Y204.705
G1 X30.922 Y204.517
G1 X31.091 Y203.835
G1 X30.985 Y203.352
G1 X30.767 Y203.045
G1 X30.374 Y202.924
G1 X30.062 Y202.985
G1 X29.856 Y203.204
G1 X29.753 Y203.605
G0 Z5.000 F500.000
G0 X32.124 Y204.754 F3000.000
G1 Z1.000 F500.000
G4 P100
G1 X32.062 Y204.684 F1000.000
G1 X32.126 Y203.290
G1 X32.191 Y203.052
G1 X32.342 Y202.954
G1 X32.616 Y203.114
G1 X33.037 Y203.934
G1 X33.247 Y204.065
G1 X33.561 Y204.060
G1 X33.365 Y204.603
G1 X33.398 Y204.732
G1 X33.367 Y204.593
G1 X33.571 Y204.101
G1 X33.496 Y204.023
G1 X33.247 Y204.065
G1 X33.380 Y203.775
G1 X33.414 Y203.177
G1 X33.541 Y202.960
G1 X33.789 Y203.013
G1 X34.717 Y204.724
G0 Z5.000 F500.000
G0 X57.008 Y205.620 F3000.000
G1 Z1.000 F500.000
G4 P100
G1 X56.811 Y204.546 F1000.000
G1 X57.402 Y204.458
G1 X58.292 Y205.089
G1 X58.483 Y205.480
G1 X58.500 Y205.896
G1 X58.390 Y206.180
G1 X58.176 Y206.400
G1 X57.478 Y206.612
G1 X56.657 Y206.495
G1 X55.992 Y206.053
G1 X55.571 Y205.354
G1 X55.392 Y204.439
G1 X55.471 Y203.569
G1 X55.813 Y203.034
G1 X56.250 Y202.940
G1 X56.524 Y203.186
G1 X56.718 Y204.441
G1 X56.337 Y204.495
G1 X56.718 Y204.441
G1 X56.811 Y204.546
G1 X57.402 Y204.458
G1 X57.843 Y203.979
G1 X58.291 Y203.193
G1 X58.646 Y202.961
G1 X58.951 Y202.943
G1 X59.244 Y203.047
G1 X59.583 Y203.337
G1 X59.728 Y203.611
G0 Z5.000 F500.000
G0 X60.144 Y204.822 F3000.000
G1 Z1.000 F500.000
G4 P100
G1 X59.982 Y204.659 F1000.000
G1 X59.854 Y204.147
G1 X59.829 Y203.193
G1 X59.956 Y203.026
G1 X60.125 Y203.036
G1 X60.560 Y203.482
G1 X60.888 Y203.597
G1 X60.932 Y202.957
G1 X60.888 Y203.597
G1 X61.189 Y204.747
G1 X61.335 Y204.791
G1 X61.412 Y204.652
G1 X61.599 Y203.055
G1 X62.376 Y204.051
G1 X62.608 Y204.214
G1 X62.722 Y204.694
G1 X62.888 Y204.849
G1 X62.722 Y204.694
G1 X62.608 Y204.214
G1 X63.078 Y203.591
G1 X63.158 Y203.191
G1 X62.936 Y202.900
G1 X62.527 Y202.901
G0 Z5.000 F500.000
G0 X63.825 Y203.108 F3000.000
G1 Z1.000 F500.000
G4 P100
G1 X64.502 Y204.040 F1000.000
G1 X64.743 Y204.214
G1 X64.857 Y204.694
G1 X65.023 Y204.849
G1 X64.857 Y204.694
G1 X64.743 Y204.214
G1 X65.213 Y203.591
G1 X65.293 Y203.191
G1 X65.071 Y202.900
G1 X64.662 Y202.901
G0 Z5.000 F500.000
G0 X66.253 Y202.896 F3000.000
G1 Z1.000 F500.000
G4 P100
G1 X66.555 Y204.603 F1000.000
G1 X66.653 Y204.742
G0 Z5.000 F500.000
G0 X68.691 Y203.260 F3000.000
G1 Z1.000 F500.000
G4 P100
G1 X68.915 Y204.506 F1000.000
G1 X68.480 Y204.758
G1 X68.098 Y204.601
G1 X67.777 Y204.261
G1 X67.580 Y203.807
G1 X67.543 Y203.327
G1 X67.640 Y203.054
G1 X67.832 Y202.913
G1 X68.076 Y202.924
G1 X68.386 Y203.185
G1 X68.691 Y203.260
G1 X68.728 Y202.964
G0 Z5.000 F500.000
G0 X70.260 Y204.810 F3000.000
G1 Z1.000 F500.000
G4 P100
G1 X70.097 Y204.556 F1000.000
G1 X69.984 Y204.034
G1 X70.011 Y202.935
G1 X70.018 Y203.457
G1 X70.390 Y203.685
G1 X70.767 Y204.349
G1 X71.329 Y204.539
G1 X71.351 Y204.634
G1 X71.217 Y202.972
G0 Z5.000 F500.000
G0 X66.704 Y205.694 F3000.000
G1 Z1.000 F500.000
G4 P100
G1 X66.839 Y205.716 F1000.000
G0 Z5.000 F500.000
G0 X54.980 Y193.011 F3000.000
G1 Z1.000 F500.000
G4 P100
G1 X55.657 Y193.943 F1000.000
G1 X55.898 Y194.117
G1 X56.012 Y194.597
G1 X56.178 Y194.752
G1 X56.012 Y194.597
G1 X55.898 Y194.117
G1 X56.368 Y193.494
G1 X56.448 Y193.094
G1 X56.226 Y192.803
G1 X55.817 Y192.804
G0 Z5.000 F500.000
G0 X58.616 Y193.163 F3000.000
G1 Z1.000 F500.000
G4 P100
G1 X58.840 Y194.409 F1000.000
G1 X58.405 Y194.661
G1 X58.023 Y194.504
G1 X57.702 Y194.164
G1 X57.505 Y193.710
G1 X57.468 Y193.230
G1 X57.565 Y192.957
G1 X57.757 Y192.816
G1 X58.001 Y192.827
G1 X58.311 Y193.088
G1 X58.616 Y193.163
G1 X58.653 Y192.867
G0 Z5.000 F500.000
G0 X60.214 Y194.735 F3000.000
G1 Z1.000 F500.000
G4 P100
G1 X60.038 Y194.546 F1000.000
G1 X59.902 Y193.933
G1 X59.933 Y192.850
G1 X59.977 Y193.368
G1 X60.281 Y193.566
G1 X60.690 Y194.278
G1 X61.096 Y194.446
G1 X61.200 Y194.224
G1 X61.157 Y193.680
G1 X61.242 Y193.395
G1 X61.171 Y192.835
G1 X61.242 Y193.395
G1 X61.538 Y193.589
G1 X61.987 Y194.303
G1 X62.445 Y194.428
G1 X62.498 Y194.059
G1 X62.382 Y192.857
G0 Z5.000 F500.000
G0 X63.729 Y194.281 F3000.000
G1 Z1.000 F500.000
G4 P100
G1 X63.992 Y194.340 F1000.000
G1 X64.385 Y194.613
G1 X64.694 Y194.605
G1 X64.926 Y194.310
G1 X64.921 Y193.782
G1 X64.682 Y193.237
G1 X64.274 Y192.867
G1 X63.712 Y192.789
G1 X63.573 Y193.141
G1 X63.188 Y192.886
G1 X62.849 Y192.028
G1 X62.684 Y191.285
G1 X62.712 Y190.754
G1 X62.935 Y190.526
G1 X63.129 Y190.550
G1 X63.290 Y190.695
G1 X63.517 Y191.387
G1 X63.712 Y192.789
G1 X63.573 Y193.141
G1 X63.729 Y194.281
G1 X63.667 Y194.572
G1 X63.744 Y194.684
G0 Z5.000 F500.000
G0 X66.129 Y193.812 F3000.000
G1 Z1.000 F500.000
G4 P100
G1 X66.382 Y193.908 F1000.000
G1 X66.561 Y194.104
G1 X67.221 Y195.562
G1 X67.344 Y196.580
G1 X67.248 Y196.887
G1 X67.060 Y197.008
G1 X66.810 Y196.940
G1 X66.602 Y196.689
G1 X66.202 Y195.515
G1 X66.031 Y194.173
G1 X66.129 Y193.812
G1 X66.079 Y193.418
G1 X66.196 Y193.088
G1 X66.470 Y192.848
G1 X66.865 Y192.836
G1 X67.104 Y192.958
G1 X67.444 Y193.346
G1 X68.473 Y193.709
G1 X68.706 Y193.994
G1 X68.739 Y194.334
G1 X68.585 Y194.573
G1 X68.261 Y194.644
G1 X67.887 Y194.477
G1 X67.622 Y194.078
G1 X67.548 Y193.625
G1 X67.682 Y193.081
G1 X68.014 Y192.829
G1 X68.485 Y192.802
G1 X68.878 Y192.999
G1 X69.095 Y193.365
G0 Z5.000 F500.000
G0 X88.099 Y205.518 F3000.000
G1 Z1.000 F500.000
G4 P100
G1 X88.141 Y206.113 F1000.000
G1 X87.817 Y206.519
G1 X87.152 Y206.605
G1 X86.539 Y206.353
G1 X86.240 Y206.013
G1 X86.060 Y205.559
G1 X85.843 Y203.435
G1 X85.513 Y203.199
G1 X85.074 Y203.103
G1 X85.513 Y203.199
G1 X85.843 Y203.435
G1 X87.218 Y203.013
G1 X87.822 Y202.976
G1 X88.362 Y203.201
G1 X88.680 Y203.614
G0 Z5.000 F500.000
G0 X89.833 Y203.260 F3000.000
G1 Z1.000 F500.000
G4 P100
G1 X90.057 Y204.506 F1000.000
G1 X89.622 Y204.758
G1 X89.240 Y204.601
G1 X88.919 Y204.261
G1 X88.722 Y203.807
G1 X88.685 Y203.327
G1 X88.782 Y203.054
G1 X88.974 Y202.913
G1 X89.218 Y202.924
G1 X89.528 Y203.185
G1 X89.833 Y203.260
G1 X89.870 Y202.964
G0 Z5.000 F500.000
G0 X90.782 Y204.749 F3000.000
G1 Z1.000 F500.000
G4 P100
G1 X91.254 Y204.718 F1000.000
G1 X91.387 Y204.829
G1 X91.397 Y205.316
G1 X91.650 Y206.202
G1 X91.912 Y206.640
G1 X92.202 Y206.778
G1 X92.443 Y206.589
G1 X92.461 Y206.060
G1 X92.307 Y205.619
G1 X91.900 Y205.076
G1 X91.826 Y204.832
G1 X92.177 Y204.761
G1 X92.598 Y204.842
G1 X92.177 Y204.761
G1 X91.387 Y204.829
G1 X91.299 Y204.734
G1 X91.316 Y203.632
G1 X91.532 Y203.074
G1 X92.005 Y202.912
G1 X92.282 Y203.000
G1 X92.449 Y203.169
G1 X92.982 Y202.914
G1 X93.161 Y204.193
G1 X93.340 Y204.742
G0 Z5.000 F500.000
G0 X94.597 Y204.810 F3000.000
G1 Z1.000 F500.000
G4 P100
G1 X94.434 Y204.556 F1000.000
G1 X94.321 Y204.034
G1 X94.348 Y202.935
G1 X94.355 Y203.457
G1 X94.727 Y203.685
G1 X95.104 Y204.349
G1 X95.666 Y204.539
G1 X95.688 Y204.634
G1 X95.554 Y202.972
G0 Z5.000 F500.000
G0 X97.681 Y203.108 F3000.000
G1 Z1.000 F500.000
G4 P100
G1 X98.359 Y204.040 F1000.000
G1 X98.599 Y204.214
G1 X98.714 Y204.694
G1 X98.880 Y204.849
G1 X98.714 Y204.694
G1 X98.599 Y204.214
G1 X99.069 Y203.591
G1 X99.149 Y203.191
G1 X98.927 Y202.900
G1 X98.519 Y202.901
G0 Z5.000 F500.000
G0 X101.318 Y203.260 F3000.000
G1 Z1.000 F500.000
G4 P100
G1 X101.542 Y204.506 F1000.000
G1 X101.107 Y204.758
G1 X100.725 Y204.601
G1 X100.404 Y204.261
G1 X100.207 Y203.807
G1 X100.170 Y203.327
G1 X100.267 Y203.054
G1 X100.459 Y202.913
G1 X100.703 Y202.924
G1 X101.013 Y203.185
G1 X101.318 Y203.260
G1 X101.355 Y202.964
G0 Z5.000 F500.000
G0 X102.916 Y204.832 F3000.000
G1 Z1.000 F500.000
G4 P100
G1 X102.740 Y204.643 F1000.000
G1 X102.604 Y204.030
G1 X102.635 Y202.947
G1 X102.679 Y203.465
G1 X102.982 Y203.663
G1 X103.392 Y204.375
G1 X103.798 Y204.543
G1 X103.901 Y204.321
G1 X103.859 Y203.777
G1 X103.944 Y203.492
G1 X103.873 Y202.932
G1 X103.944 Y203.492
G1 X104.240 Y203.686
G1 X104.689 Y204.400
G1 X105.147 Y204.525
G1 X105.200 Y204.156
G1 X105.084 Y202.954
G0 Z5.000 F500.000
G0 X106.431 Y204.378 F3000.000
G1 Z1.000 F500.000
G4 P100
G1 X106.694 Y204.437 F1000.000
G1 X107.086 Y204.710
G1 X107.396 Y204.702
G1 X107.628 Y204.407
G1 X107.623 Y203.879
G1 X107.384 Y203.334
G1 X106.976 Y202.964
G1 X106.414 Y202.886
G1 X106.275 Y203.238
G1 X105.890 Y202.983
G1 X105.551 Y202.125
G1 X105.386 Y201.382
G1 X105.414 Y200.851
G1 X105.637 Y200.623
G1 X105.831 Y200.647
G1 X105.992 Y200.792
G1 X106.219 Y201.484
G1 X106.414 Y202.886
G1 X106.275 Y203.238
G1 X106.431 Y204.378
G1 X106.369 Y204.669
G1 X106.446 Y204.781
G0 Z5.000 F500.000
G0 X108.831 Y203.909 F3000.000
G1 Z1.000 F500.000
G4 P100
G1 X109.083 Y204.005 F1000.000
G1 X109.262 Y204.201
G1 X109.922 Y205.659
G1 X110.046 Y206.677
G1 X109.950 Y206.984
G1 X109.762 Y207.105
G1 X109.512 Y207.037
G1 X109.304 Y206.786
G1 X108.904 Y205.612
G1 X108.732 Y204.270
G1 X108.831 Y203.909
G1 X108.781 Y203.515
G1 X108.898 Y203.185
G1 X109.171 Y202.945
G1 X109.567 Y202.933
G1 X109.806 Y203.055
G1 X110.145 Y203.443
G1 X111.175 Y203.806
G1 X111.408 Y204.091
G1 X111.440 Y204.431
G1 X111.287 Y204.670
G1 X110.963 Y204.741
G1 X110.588 Y204.574
G1 X110.324 Y204.175
G1 X110.250 Y203.722
G1 X110.384 Y203.178
G1 X110.716 Y202.926
G1 X111.187 Y202.899
G1 X111.580 Y203.096
G1 X111.796 Y203.462
G0 Z5.000 F500.000
G0 X93.391 Y205.694 F3000.000
G1 Z1.000 F500.000
G4 P100
G1 X93.525 Y205.716 F1000.000
G0 Z5.000 F500.000
G0 X114.990 Y205.816 F3000.000
G1 Z1.000 F500.000
G4 P100
G1 X115.265 Y206.222 F1000.000
G1 X115.659 Y206.511
G1 X116.040 Y206.571
G1 X116.278 Y206.400
G1 X116.265 Y205.408
G1 X116.350 Y205.115
G1 X115.971 Y202.976
G1 X116.350 Y205.115
G1 X116.665 Y205.320
G1 X117.221 Y206.275
G1 X117.780 Y206.571
G1 X118.095 Y206.527
G1 X118.283 Y206.331
G1 X118.410 Y205.286
G1 X117.976 Y202.979
G1 X118.410 Y205.286
G1 X118.727 Y205.476
G1 X119.241 Y206.305
G1 X119.701 Y206.560
G1 X120.152 Y206.478
G1 X120.331 Y206.090
G1 X119.935 Y203.817
G1 X120.016 Y203.210
G1 X120.327 Y202.968
G1 X120.773 Y202.967
G1 X121.187 Y203.209
G1 X121.462 Y203.614
G0 Z5.000 F500.000
G0 X121.504 Y203.506 F3000.000
G1 Z1.000 F500.000
G4 P100
G1 X122.146 Y203.677 F1000.000
G1 X122.535 Y203.977
G1 X122.630 Y204.438
G1 X122.359 Y204.724
G1 X121.943 Y204.682
G1 X121.604 Y204.360
G1 X121.445 Y203.853
G1 X121.512 Y203.317
G1 X121.709 Y203.034
G1 X122.057 Y202.891
G1 X122.477 Y202.925
G1 X122.808 Y203.132
G1 X122.987 Y203.455
G1 X123.073 Y204.607
G1 X123.234 Y204.788
G1 X123.645 Y204.717
G1 X123.784 Y204.829
G1 X123.798 Y205.337
G1 X124.062 Y206.235
G1 X124.324 Y206.656
G1 X124.628 Y206.777
G1 X124.846 Y206.568
G1 X124.854 Y206.038
G1 X124.697 Y205.606
G1 X124.297 Y205.076
G1 X124.223 Y204.832
G1 X124.574 Y204.761
G1 X124.995 Y204.842
G1 X124.574 Y204.761
G1 X123.784 Y204.829
G1 X123.696 Y204.734
G1 X123.691 Y203.858
G1 X123.795 Y203.300
G1 X124.036 Y202.987
G1 X124.489 Y202.926
G1 X124.846 Y203.169
G0 Z5.000 F500.000
G0 X125.776 Y204.817 F3000.000
G1 Z1.000 F500.000
G4 P100
G1 X125.625 Y204.661 F1000.000
G1 X125.470 Y203.978
G1 X125.556 Y203.457
G1 X125.512 Y202.930
G1 X125.556 Y203.457
G1 X125.855 Y203.647
G1 X126.302 Y204.379
G1 X126.838 Y204.649
G1 X126.750 Y204.539
G1 X126.938 Y203.933
G1 X126.891 Y203.841
G1 X126.938 Y203.933
G1 X127.253 Y204.025
G1 X127.485 Y202.919
G1 X127.666 Y202.939
G1 X127.927 Y204.653
G1 X128.179 Y204.789
G1 X128.548 Y204.684
G1 X129.659 Y204.003
G1 X129.964 Y204.171
G1 X129.963 Y204.581
G1 X129.774 Y204.728
G1 X129.478 Y204.716
G1 X129.211 Y204.551
G1 X129.005 Y204.260
G1 X128.899 Y203.495
G1 X129.009 Y203.194
G1 X129.217 Y202.994
G1 X129.566 Y202.893
G1 X129.931 Y202.956
G1 X130.219 Y203.165
G1 X130.372 Y203.477
G0 Z5.000 F500.000
G0 X128.063 Y205.694 F3000.000
G1 Z1.000 F500.000
G4 P100
G1 X128.197 Y205.716 F1000.000
G0 Z5.000 F500.000
G0 X27.035 Y179.341 F3000.000
G1 Z1.000 F500.000
G4 P100
G1 X27.039 Y178.497 F1000.000
G1 X26.765 Y177.834
G1 X26.267 Y177.542
G1 X25.707 Y177.683
G1 X25.486 Y178.022
G1 X25.420 Y178.548
G1 X25.502 Y179.164
G1 X25.728 Y179.618
G1 X26.067 Y179.876
G1 X26.509 Y179.905
G1 X26.846 Y179.716
G1 X27.035 Y179.341
G0 Z5.000 F500.000
G0 X28.997 Y179.985 F3000.000
G1 Z1.000 F500.000
G4 P100
G1 X28.822 Y179.834 F1000.000
G1 X28.386 Y178.972
G1 X28.176 Y178.442
G1 X28.191 Y178.213
G1 X29.495 Y178.098
G1 X29.466 Y177.517
G1 X29.495 Y178.098
G1 X29.568 Y178.174
G1 X30.061 Y178.142
G1 X29.568 Y178.174
G1 X29.683 Y179.095
G1 X29.800 Y179.360
G0 Z5.000 F500.000
G0 X55.414 Y179.983 F3000.000
G1 Z1.000 F500.000
G4 P100
G1 X55.315 Y180.272 F1000.000
G1 X55.360 Y180.623
G1 X55.537 Y180.870
G1 X55.840 Y181.044
G1 X56.388 Y181.168
G1 X56.789 Y181.086
G1 X57.135 Y181.210
G1 X58.849 Y181.277
G1 X57.135 Y181.210
G1 X56.789 Y181.086
G1 X56.230 Y177.595
G0 Z5.000 F500.000
G0 X59.585 Y177.773 F3000.000
G1 Z1.000 F500.000
G4 P100
G1 X59.898 Y178.541 F1000.000
G1 X59.843 Y179.161
G1 X59.669 Y179.324
G1 X59.440 Y179.353
G1 X58.699 Y179.001
G1 X58.660 Y179.341
G1 X58.642 Y178.264
G1 X58.543 Y177.861
G1 X58.682 Y177.510
G1 X58.470 Y176.028
G1 X58.219 Y175.363
G1 X58.024 Y175.246
G1 X57.811 Y175.285
G1 X57.651 Y175.619
G1 X57.684 Y176.209
G1 X57.914 Y177.026
G1 X58.248 Y177.721
G1 X58.543 Y177.861
G1 X58.682 Y177.510
G1 X58.775 Y177.497
G1 X59.130 Y177.534
G1 X59.585 Y177.773
G1 X59.834 Y177.562
G1 X60.160 Y177.547
G1 X60.612 Y177.804
G1 X60.911 Y178.245
G0 Z5.000 F500.000
G0 X62.076 Y177.969 F3000.000
G1 Z1.000 F500.000
G4 P100
G1 X62.291 Y179.148 F1000.000
G1 X61.795 Y179.372
G1 X61.341 Y179.118
G1 X61.014 Y178.629
G1 X60.908 Y177.999
G1 X61.087 Y177.605
G1 X61.511 Y177.544
G1 X62.076 Y177.969
G1 X62.305 Y177.596
G1 X62.596 Y177.552
G1 X63.022 Y177.855
G1 X63.257 Y178.235
G0 Z5.000 F500.000
G0 X63.642 Y179.441 F3000.000
G1 Z1.000 F500.000
G4 P100
G1 X63.491 Y179.286 F1000.000
G1 X63.379 Y178.810
G1 X63.344 Y177.505
G1 X63.311 Y178.152
G1 X63.393 Y178.503
G1 X64.482 Y178.440
G1 X64.797 Y179.390
G1 X64.482 Y178.440
G1 X64.568 Y177.624
G1 X64.826 Y177.542
G1 X65.109 Y177.625
G1 X65.499 Y177.967
G1 X65.632 Y178.232
G0 Z5.000 F500.000
G0 X66.049 Y179.446 F3000.000
G1 Z1.000 F500.000
G4 P100
G1 X65.870 Y179.241 F1000.000
G1 X65.698 Y178.365
G1 X65.705 Y177.920
G1 X65.861 Y177.652
G1 X66.127 Y177.708
G1 X66.450 Y178.090
G1 X66.737 Y178.210
G1 X67.011 Y179.243
G1 X67.135 Y179.414
G1 X67.011 Y179.243
G1 X66.737 Y178.210
G1 X66.880 Y177.641
G1 X67.112 Y177.543
G1 X67.412 Y177.618
G1 X67.812 Y177.971
G1 X67.941 Y178.230
G0 Z5.000 F500.000
G0 X68.359 Y179.446 F3000.000
G1 Z1.000 F500.000
G4 P100
G1 X68.177 Y179.227 F1000.000
G1 X67.999 Y178.284
G1 X68.034 Y177.850
G1 X68.224 Y177.634
G1 X68.507 Y177.760
G1 X68.789 Y178.111
G1 X69.040 Y178.208
G1 X69.448 Y179.417
G1 X69.040 Y178.208
G1 X69.153 Y177.763
G1 X69.445 Y177.480
G1 X69.279 Y177.144
G1 X69.245 Y176.657
G1 X68.897 Y176.094
G1 X68.648 Y175.999
G1 X68.419 Y176.057
G1 X68.318 Y176.370
G1 X68.530 Y176.746
G1 X68.969 Y177.085
G1 X69.279 Y177.144
G1 X69.445 Y177.480
G1 X69.788 Y177.561
G1 X70.292 Y177.947
G0 Z5.000 F500.000
G0 X73.046 Y179.370 F3000.000
G1 Z1.000 F500.000
G4 P100
G1 X72.705 Y178.511 F1000.000
G1 X71.999 Y178.137
G1 X72.062 Y178.186
G1 X71.894 Y178.196
G1 X71.852 Y178.499
G1 X71.725 Y178.663
G1 X71.405 Y178.713
G1 X71.020 Y178.562
G1 X70.632 Y178.948
G1 X70.721 Y179.289
G1 X70.874 Y179.424
G1 X70.710 Y179.262
G1 X70.585 Y178.520
G1 X70.648 Y178.418
G1 X71.020 Y178.562
G1 X70.601 Y178.446
G1 X70.537 Y178.095
G1 X70.641 Y177.790
G1 X70.976 Y177.546
G1 X71.439 Y177.557
G1 X71.768 Y177.768
G1 X71.999 Y178.137
G1 X72.705 Y178.511
G1 X72.845 Y177.735
G1 X73.157 Y177.526
G1 X73.602 Y177.739
G1 X73.957 Y178.235
G0 Z5.000 F500.000
G0 X55.729 Y169.359 F3000.000
G1 Z1.000 F500.000
G4 P100
G1 X55.553 Y169.169 F1000.000
G1 X55.419 Y168.570
G1 X55.448 Y167.474
G1 X55.492 Y167.991
G1 X55.796 Y168.189
G1 X56.190 Y168.887
G1 X56.529 Y169.061
G1 X56.674 Y169.049
G1 X56.717 Y168.828
G1 X56.686 Y167.459
G1 X56.757 Y168.018
G1 X57.029 Y168.186
G1 X57.397 Y168.815
G1 X57.705 Y169.037
G1 X57.986 Y169.001
G1 X57.879 Y167.833
G1 X57.984 Y167.510
G1 X58.260 Y167.445
G1 X58.534 Y167.531
G1 X58.908 Y167.868
G1 X59.047 Y168.138
G0 Z5.000 F500.000
G0 X60.216 Y167.872 F3000.000
G1 Z1.000 F500.000
G4 P100
G1 X60.431 Y169.051 F1000.000
G1 X59.935 Y169.275
G1 X59.481 Y169.021
G1 X59.154 Y168.532
G1 X59.048 Y167.902
G1 X59.227 Y167.508
G1 X59.651 Y167.447
G1 X60.216 Y167.872
G1 X60.445 Y167.499
G1 X60.736 Y167.455
G1 X61.162 Y167.758
G1 X61.397 Y168.138
G0 Z5.000 F500.000
G0 X63.017 Y171.426 F3000.000
G1 Z1.000 F500.000
G4 P100
G1 X62.022 Y171.124 F1000.000
G1 X61.780 Y170.818
G1 X61.887 Y170.453
G1 X62.682 Y169.430
G1 X62.717 Y168.693
G1 X62.837 Y168.382
G1 X62.672 Y167.961
G1 X62.410 Y167.593
G1 X62.057 Y167.430
G1 X61.675 Y167.505
G1 X61.457 Y167.804
G1 X61.418 Y168.241
G1 X61.507 Y168.676
G1 X61.711 Y169.004
G1 X61.998 Y169.186
G1 X62.681 Y169.112
G1 X62.837 Y168.382
G1 X63.266 Y168.351
G1 X63.735 Y168.492
G0 Z5.000 F500.000
G0 X63.734 Y168.214 F3000.000
G1 Z1.000 F500.000
G4 P100
G1 X63.582 Y167.974 F1000.000
G1 X63.610 Y167.628
G1 X63.781 Y167.460
G1 X64.054 Y167.476
G1 X64.339 Y167.740
G1 X64.799 Y168.702
G1 X65.187 Y169.124
G1 X65.121 Y168.968
G1 X65.264 Y168.643
G1 X65.271 Y167.884
G1 X65.421 Y167.503
G1 X65.679 Y167.432
G1 X65.962 Y167.521
G1 X66.329 Y167.886
G1 X66.447 Y168.135
G0 Z5.000 F500.000
G0 X66.924 Y169.349 F3000.000
G1 Z1.000 F500.000
G4 P100
G1 X66.745 Y169.144 F1000.000
G1 X66.573 Y168.268
G1 X66.580 Y167.823
G1 X66.736 Y167.555
G1 X67.002 Y167.611
G1 X67.325 Y167.993
G1 X67.612 Y168.113
G1 X67.886 Y169.146
G1 X68.010 Y169.317
G1 X67.886 Y169.146
G1 X67.612 Y168.113
G1 X67.755 Y167.544
G1 X67.987 Y167.446
G1 X68.287 Y167.521
G1 X68.687 Y167.874
G1 X68.816 Y168.133
G0 Z5.000 F500.000
G0 X69.234 Y169.349 F3000.000
G1 Z1.000 F500.000
G4 P100
G1 X69.052 Y169.130 F1000.000
G1 X68.874 Y168.187
G1 X68.909 Y167.753
G1 X69.099 Y167.537
G1 X69.382 Y167.663
G1 X69.664 Y168.014
G1 X69.915 Y168.111
G1 X70.323 Y169.320
G1 X69.915 Y168.111
G1 X70.028 Y167.666
G1 X70.320 Y167.383
G1 X70.154 Y167.047
G1 X70.120 Y166.560
G1 X69.772 Y165.997
G1 X69.523 Y165.902
G1 X69.294 Y165.960
G1 X69.193 Y166.273
G1 X69.405 Y166.649
G1 X69.844 Y166.988
G1 X70.154 Y167.047
G1 X70.320 Y167.383
G1 X70.663 Y167.464
G1 X71.167 Y167.850
G0 Z5.000 F500.000
G0 X73.921 Y169.273 F3000.000
G1 Z1.000 F500.000
G4 P100
G1 X73.580 Y168.414 F1000.000
G1 X72.874 Y168.040
G1 X72.937 Y168.089
G1 X72.769 Y168.099
G1 X72.727 Y168.402
G1 X72.600 Y168.566
G1 X72.280 Y168.616
G1 X71.895 Y168.465
G1 X71.507 Y168.851
G1 X71.596 Y169.192
G1 X71.749 Y169.327
G1 X71.585 Y169.165
G1 X71.460 Y168.423
G1 X71.523 Y168.321
G1 X71.895 Y168.465
G1 X71.476 Y168.349
G1 X71.412 Y167.998
G1 X71.516 Y167.693
G1 X71.851 Y167.449
G1 X72.314 Y167.460
G1 X72.643 Y167.671
G1 X72.874 Y168.040
G1 X73.580 Y168.414
G1 X73.720 Y167.638
G1 X74.032 Y167.429
G1 X74.477 Y167.642
G1 X74.832 Y168.138
G0 Z5.000 F500.000
G0 X76.542 Y169.344 F3000.000
G1 Z1.000 F500.000
G4 P100
G1 X76.391 Y169.189 F1000.000
G1 X76.279 Y168.713
G1 X76.244 Y167.408
G1 X76.211 Y168.055
G1 X76.293 Y168.406
G1 X77.382 Y168.343
G1 X77.697 Y169.293
G1 X77.382 Y168.343
G1 X77.468 Y167.527
G1 X77.726 Y167.445
G1 X78.009 Y167.528
G1 X78.399 Y167.870
G1 X78.532 Y168.135
G0 Z5.000 F500.000
G0 X78.578 Y168.028 F3000.000
G1 Z1.000 F500.000
G4 P100
G1 X79.264 Y168.226 F1000.000
G1 X79.645 Y168.565
G1 X79.716 Y168.833
G1 X79.657 Y169.080
G1 X79.499 Y169.225
G1 X79.249 Y169.270
G1 X78.836 Y169.087
G1 X78.565 Y168.633
G1 X78.522 Y168.178
G1 X78.601 Y167.812
G1 X78.748 Y167.606
G1 X79.155 Y167.422
G1 X79.676 Y167.460
G1 X80.255 Y167.782
G1 X80.497 Y168.135
G0 Z5.000 F500.000
G0 X56.281 Y156.801 F3000.000
G1 Z1.000 F500.000
G4 P100
G1 X56.277 Y156.383 F1000.000
G1 X55.900 Y155.387
G1 X55.590 Y155.086
G1 X55.230 Y155.110
G1 X55.075 Y155.439
G1 X55.236 Y155.949
G1 X55.901 Y156.683
G1 X56.281 Y156.801
G1 X56.540 Y157.360
G1 X56.432 Y157.582
G1 X56.705 Y158.927
G1 X56.266 Y159.189
G1 X55.944 Y159.067
G1 X55.656 Y158.811
G1 X55.420 Y158.399
G1 X55.326 Y157.928
G1 X55.381 Y157.576
G1 X55.595 Y157.357
G1 X55.871 Y157.339
G1 X56.432 Y157.582
G1 X56.542 Y157.367
G1 X56.788 Y157.390
G1 X57.594 Y157.977
G0 Z5.000 F500.000
G0 X59.135 Y158.270 F3000.000
G1 Z1.000 F500.000
G4 P100
G1 X58.951 Y157.680 F1000.000
G1 X58.593 Y157.369
G1 X58.116 Y157.379
G1 X57.777 Y157.747
G1 X57.711 Y158.179
G1 X57.795 Y158.630
G1 X58.004 Y158.954
G1 X58.310 Y159.133
G1 X58.572 Y159.152
G1 X58.783 Y159.045
G1 X59.135 Y158.270
G1 X59.533 Y158.263
G1 X59.941 Y158.383
G0 Z5.000 F500.000
G0 X59.949 Y158.117 F3000.000
G1 Z1.000 F500.000
G4 P100
G1 X59.797 Y157.877 F1000.000
G1 X59.825 Y157.531
G1 X59.996 Y157.363
G1 X60.269 Y157.379
G1 X60.554 Y157.643
G1 X61.014 Y158.605
G1 X61.402 Y159.027
G1 X61.336 Y158.871
G1 X61.475 Y158.575
G1 X61.482 Y157.816
G1 X61.615 Y157.425
G1 X61.872 Y157.335
G1 X62.158 Y157.413
G1 X62.540 Y157.784
G1 X62.660 Y158.031
G1 X62.671 Y157.487
G1 X62.841 Y157.357
G1 X63.102 Y157.349
G1 X63.481 Y157.684
G1 X63.730 Y158.444
G1 X63.422 Y159.091
G1 X63.175 Y159.151
G1 X62.965 Y159.020
G1 X62.904 Y158.827
G1 X63.077 Y159.120
G1 X63.422 Y159.091
G1 X63.730 Y158.444
G1 X64.128 Y158.534
G1 X64.247 Y159.114
G1 X64.384 Y159.252
G1 X64.247 Y159.114
G1 X64.128 Y158.534
G1 X64.225 Y157.855
G1 X64.130 Y157.294
G1 X64.225 Y157.855
G1 X64.672 Y158.097
G1 X64.879 Y158.801
G1 X65.247 Y159.148
G1 X65.644 Y159.096
G1 X65.751 Y158.726
G1 X65.690 Y158.563
G1 X65.738 Y158.951
G1 X65.487 Y159.167
G1 X65.180 Y159.120
G1 X64.924 Y158.877
G1 X64.672 Y158.097
G1 X64.956 Y157.525
G1 X65.288 Y157.336
G1 X65.670 Y157.366
G1 X66.123 Y157.717
G1 X66.308 Y158.043
G0 Z5.000 F500.000
G0 X66.692 Y159.247 F3000.000
G1 Z1.000 F500.000
G4 P100
G1 X66.541 Y159.092 F1000.000
G1 X66.429 Y158.616
G1 X66.394 Y157.311
G1 X66.361 Y157.958
G1 X66.443 Y158.309
G1 X67.532 Y158.246
G1 X67.847 Y159.196
G1 X67.532 Y158.246
G1 X67.618 Y157.430
G1 X67.876 Y157.348
G1 X68.159 Y157.431
G1 X68.549 Y157.773
G1 X68.682 Y158.038
G0 Z5.000 F500.000
G0 X71.281 Y159.176 F3000.000
G1 Z1.000 F500.000
G4 P100
G1 X70.940 Y158.317 F1000.000
G1 X70.234 Y157.943
G1 X70.297 Y157.992
G1 X70.129 Y158.002
G1 X70.087 Y158.305
G1 X69.960 Y158.469
G1 X69.640 Y158.519
G1 X69.255 Y158.368
G1 X68.867 Y158.754
G1 X68.956 Y159.095
G1 X69.109 Y159.230
G1 X68.945 Y159.068
G1 X68.820 Y158.326
G1 X68.883 Y158.224
G1 X69.255 Y158.368
G1 X68.836 Y158.252
G1 X68.772 Y157.901
G1 X68.876 Y157.596
G1 X69.211 Y157.352
G1 X69.674 Y157.363
G1 X70.003 Y157.574
G1 X70.234 Y157.943
G1 X70.940 Y158.317
G1 X71.080 Y157.541
G1 X71.392 Y157.332
G1 X71.837 Y157.545
G1 X72.192 Y158.041
G0 Z5.000 F500.000
G0 X55.729 Y149.165 F3000.000
G1 Z1.000 F500.000
G4 P100
G1 X55.552 Y148.975 F1000.000
G1 X55.415 Y148.360
G1 X55.495 Y147.788
G1 X55.448 Y147.280
G1 X55.495 Y147.788
G1 X55.774 Y147.958
G1 X56.157 Y148.621
G1 X56.479 Y148.849
G1 X56.692 Y148.873
G1 X56.746 Y148.782
G1 X56.639 Y147.636
G1 X56.748 Y147.315
G1 X57.023 Y147.251
G1 X57.299 Y147.340
G1 X57.669 Y147.671
G1 X57.807 Y147.941
G0 Z5.000 F500.000
G0 X57.853 Y147.834 F3000.000
G1 Z1.000 F500.000
G4 P100
G1 X58.539 Y148.032 F1000.000
G1 X58.920 Y148.371
G1 X58.991 Y148.639
G1 X58.932 Y148.886
G1 X58.774 Y149.031
G1 X58.524 Y149.076
G1 X58.111 Y148.893
G1 X57.840 Y148.439
G1 X57.797 Y147.984
G1 X57.876 Y147.618
G1 X58.023 Y147.412
G1 X58.430 Y147.228
G1 X58.951 Y147.266
G1 X59.530 Y147.588
G1 X59.772 Y147.941
G0 Z5.000 F500.000
G0 X60.855 Y147.482 F3000.000
G1 Z1.000 F500.000
G4 P100
G1 X61.168 Y148.250 F1000.000
G1 X61.113 Y148.870
G1 X60.939 Y149.033
G1 X60.710 Y149.062
G1 X59.969 Y148.710
G1 X59.930 Y149.050
G1 X59.912 Y147.973
G1 X59.813 Y147.570
G1 X59.952 Y147.219
G1 X59.740 Y145.737
G1 X59.489 Y145.072
G1 X59.294 Y144.955
G1 X59.081 Y144.994
G1 X58.921 Y145.328
G1 X58.954 Y145.918
G1 X59.184 Y146.735
G1 X59.518 Y147.430
G1 X59.813 Y147.570
G1 X59.952 Y147.219
G1 X60.045 Y147.206
G1 X60.400 Y147.243
G1 X60.855 Y147.482
G1 X61.104 Y147.271
G1 X61.430 Y147.256
G1 X61.882 Y147.513
G1 X62.181 Y147.954
G0 Z5.000 F500.000
G0 X62.223 Y147.834 F3000.000
G1 Z1.000 F500.000
G4 P100
G1 X62.909 Y148.032 F1000.000
G1 X63.290 Y148.371
G1 X63.361 Y148.639
G1 X63.302 Y148.886
G1 X63.144 Y149.031
G1 X62.894 Y149.076
G1 X62.481 Y148.893
G1 X62.210 Y148.439
G1 X62.167 Y147.984
G1 X62.246 Y147.618
G1 X62.393 Y147.412
G1 X62.800 Y147.228
G1 X63.321 Y147.266
G1 X63.900 Y147.588
G1 X64.142 Y147.941
G0 Z5.000 F500.000
G0 X65.167 Y148.464 F3000.000
G1 Z1.000 F500.000
G4 P100
G1 X65.232 Y148.809 F1000.000
G1 X65.077 Y149.030
G1 X64.625 Y149.003
G1 X64.341 Y148.737
G1 X64.150 Y147.959
G1 X64.244 Y147.571
G1 X64.449 Y147.338
G1 X64.834 Y147.238
G1 X65.363 Y147.339
G1 X65.823 Y147.658
G1 X65.992 Y147.976
G0 Z5.000 F500.000
G0 X66.028 Y147.834 F3000.000
G1 Z1.000 F500.000
G4 P100
G1 X66.714 Y148.032 F1000.000
G1 X67.095 Y148.371
G1 X67.166 Y148.639
G1 X67.107 Y148.886
G1 X66.949 Y149.031
G1 X66.699 Y149.076
G1 X66.286 Y148.893
G1 X66.015 Y148.439
G1 X65.972 Y147.984
G1 X66.051 Y147.618
G1 X66.198 Y147.412
G1 X66.605 Y147.228
G1 X67.126 Y147.266
G1 X67.705 Y147.588
G1 X67.947 Y147.941
G0 Z5.000 F500.000
G0 X69.633 Y148.444 F3000.000
G1 Z1.000 F500.000
G4 P100
G1 X69.723 Y148.738 F1000.000
G1 X69.609 Y148.999
G1 X69.340 Y149.075
G1 X69.051 Y148.966
G1 X68.756 Y148.562
G1 X68.608 Y147.900
G1 X68.105 Y147.712
G1 X68.071 Y147.287
G1 X68.043 Y148.414
G1 X68.172 Y148.976
G1 X68.349 Y149.165
G1 X68.175 Y148.983
G1 X68.052 Y148.471
G1 X68.007 Y148.007
G1 X68.105 Y147.712
G1 X68.608 Y147.900
G1 X68.962 Y147.370
G1 X69.471 Y147.228
G1 X69.920 Y147.454
G1 X70.273 Y147.944
G0 Z5.000 F500.000
G0 X71.441 Y147.678 F3000.000
G1 Z1.000 F500.000
G4 P100
G1 X71.656 Y148.857 F1000.000
G1 X71.160 Y149.081
G1 X70.706 Y148.827
G1 X70.379 Y148.338
G1 X70.273 Y147.708
G1 X70.452 Y147.314
G1 X70.876 Y147.253
G1 X71.441 Y147.678
G1 X71.670 Y147.305
G1 X71.961 Y147.261
G1 X72.387 Y147.564
G1 X72.622 Y147.944
G0 Z5.000 F500.000
G0 X73.024 Y149.165 F3000.000
G1 Z1.000 F500.000
G4 P100
G1 X72.848 Y148.975 F1000.000
G1 X72.714 Y148.376
G1 X72.743 Y147.280
G1 X72.787 Y147.797
G1 X73.091 Y147.995
G1 X73.485 Y148.693
G1 X73.824 Y148.867
G1 X73.969 Y148.855
G1 X74.012 Y148.634
G1 X73.981 Y147.265
G1 X74.052 Y147.824
G1 X74.324 Y147.992
G1 X74.692 Y148.621
G1 X75.000 Y148.843
G1 X75.281 Y148.807
G1 X75.174 Y147.639
G1 X75.279 Y147.316
G1 X75.555 Y147.251
G1 X75.829 Y147.337
G1 X76.203 Y147.674
G1 X76.342 Y147.944
G0 Z5.000 F500.000
G0 X77.711 Y147.414 F3000.000
G1 Z1.000 F500.000
G4 P100
G1 X77.853 Y147.952 F1000.000
G1 X77.781 Y148.218
G1 X77.512 Y148.413
G1 X77.199 Y148.402
G1 X76.918 Y148.269
G1 X76.726 Y148.438
G1 X76.524 Y148.662
G1 X76.615 Y148.997
G1 X76.769 Y149.133
G1 X76.605 Y148.970
G1 X76.480 Y148.230
G1 X76.557 Y148.114
G1 X76.918 Y148.269
G1 X76.557 Y148.114
G1 X76.500 Y148.161
G1 X76.426 Y147.891
G1 X76.514 Y147.540
G1 X76.736 Y147.313
G1 X77.114 Y147.215
G1 X77.679 Y147.434
G1 X77.917 Y147.257
G1 X78.235 Y147.271
G1 X78.665 Y147.549
G1 X78.927 Y147.941
G0 Z5.000 F500.000
G0 X55.729 Y139.068 F3000.000
G1 Z1.000 F500.000
G4 P100
G1 X55.553 Y138.878 F1000.000
G1 X55.419 Y138.279
G1 X55.448 Y137.183
G1 X55.492 Y137.700
G1 X55.796 Y137.898
G1 X56.190 Y138.596
G1 X56.529 Y138.770
G1 X56.674 Y138.758
G1 X56.717 Y138.537
G1 X56.686 Y137.168
G1 X56.757 Y137.727
G1 X57.029 Y137.895
G1 X57.397 Y138.524
G1 X57.705 Y138.746
G1 X57.986 Y138.710
G1 X57.879 Y137.542
G1 X57.984 Y137.219
G1 X58.260 Y137.154
G1 X58.534 Y137.240
G1 X58.908 Y137.577
G1 X59.047 Y137.847
G0 Z5.000 F500.000
G0 X59.093 Y137.737 F3000.000
G1 Z1.000 F500.000
G4 P100
G1 X59.779 Y137.935 F1000.000
G1 X60.160 Y138.274
G1 X60.231 Y138.542
G1 X60.172 Y138.789
G1 X60.014 Y138.934
G1 X59.764 Y138.979
G1 X59.351 Y138.796
G1 X59.080 Y138.342
G1 X59.037 Y137.887
G1 X59.116 Y137.521
G1 X59.263 Y137.315
G1 X59.670 Y137.131
G1 X60.191 Y137.169
G1 X60.770 Y137.491
G1 X61.012 Y137.844
G0 Z5.000 F500.000
G0 X62.698 Y138.347 F3000.000
G1 Z1.000 F500.000
G4 P100
G1 X62.788 Y138.641 F1000.000
G1 X62.674 Y138.902
G1 X62.405 Y138.978
G1 X62.116 Y138.869
G1 X61.821 Y138.465
G1 X61.673 Y137.803
G1 X61.170 Y137.615
G1 X61.136 Y137.190
G1 X61.108 Y138.317
G1 X61.237 Y138.879
G1 X61.414 Y139.068
G1 X61.240 Y138.886
G1 X61.117 Y138.374
G1 X61.072 Y137.910
G1 X61.170 Y137.615
G1 X61.673 Y137.803
G1 X62.027 Y137.273
G1 X62.536 Y137.131
G1 X62.985 Y137.357
G1 X63.338 Y137.847
G0 Z5.000 F500.000
G0 X64.362 Y138.367 F3000.000
G1 Z1.000 F500.000
G4 P100
G1 X64.427 Y138.712 F1000.000
G1 X64.272 Y138.933
G1 X63.820 Y138.906
G1 X63.536 Y138.640
G1 X63.345 Y137.862
G1 X63.439 Y137.474
G1 X63.644 Y137.241
G1 X64.029 Y137.141
G1 X64.558 Y137.242
G1 X65.018 Y137.561
G1 X65.187 Y137.879
G0 Z5.000 F500.000
G0 X65.579 Y139.068 F3000.000
G1 Z1.000 F500.000
G4 P100
G1 X65.403 Y138.878 F1000.000
G1 X65.269 Y138.279
G1 X65.298 Y137.183
G1 X65.342 Y137.700
G1 X65.646 Y137.898
G1 X66.040 Y138.596
G1 X66.379 Y138.770
G1 X66.524 Y138.758
G1 X66.567 Y138.537
G1 X66.536 Y137.168
G1 X66.607 Y137.727
G1 X66.879 Y137.895
G1 X67.247 Y138.524
G1 X67.555 Y138.746
G1 X67.836 Y138.710
G1 X67.729 Y137.542
G1 X67.834 Y137.219
G1 X68.110 Y137.154
G1 X68.384 Y137.240
G1 X68.758 Y137.577
G1 X68.897 Y137.847
G0 Z5.000 F500.000
G0 X55.280 Y127.808 F3000.000
G1 Z1.000 F500.000
G4 P100
G1 X55.153 Y127.439 F1000.000
G1 X55.366 Y127.099
G1 X55.786 Y127.045
G1 X56.221 Y127.275
G1 X56.475 Y127.558
G1 X56.530 Y127.789
G1 X55.995 Y128.001
G1 X55.880 Y128.482
G1 X56.077 Y128.813
G1 X56.516 Y128.929
G1 X57.117 Y128.783
G1 X56.889 Y127.916
G1 X56.530 Y127.789
G1 X56.889 Y127.916
G1 X57.061 Y127.099
G1 X57.293 Y127.060
G1 X57.563 Y127.166
G1 X57.917 Y127.494
G1 X58.044 Y127.755
G0 Z5.000 F500.000
G0 X57.695 Y127.252 F3000.000
G1 Z1.000 F500.000
G4 P100
G1 X58.293 Y127.997 F1000.000
G1 X58.704 Y129.017
G1 X58.855 Y129.145
G1 X59.259 Y128.799
G1 X59.855 Y128.690
G1 X60.195 Y128.927
G1 X59.855 Y128.690
G1 X59.748 Y128.460
G1 X59.122 Y127.821
G1 X59.029 Y127.414
G1 X59.188 Y127.114
G1 X59.599 Y126.998
G1 X60.105 Y127.099
G1 X60.612 Y127.416
G1 X60.825 Y127.757
G0 Z5.000 F500.000
G0 X60.863 Y127.640 F3000.000
G1 Z1.000 F500.000
G4 P100
G1 X61.549 Y127.838 F1000.000
G1 X61.930 Y128.177
G1 X62.001 Y128.445
G1 X61.942 Y128.692
G1 X61.784 Y128.837
G1 X61.534 Y128.882
G1 X61.121 Y128.699
G1 X60.850 Y128.245
G1 X60.807 Y127.790
G1 X60.886 Y127.424
G1 X61.033 Y127.218
G1 X61.440 Y127.034
G1 X61.961 Y127.072
G1 X62.540 Y127.394
G1 X62.782 Y127.747
G0 Z5.000 F500.000
G0 X63.199 Y128.961 F3000.000
G1 Z1.000 F500.000
G4 P100
G1 X63.020 Y128.756 F1000.000
G1 X62.848 Y127.880
G1 X62.855 Y127.435
G1 X63.011 Y127.167
G1 X63.277 Y127.223
G1 X63.600 Y127.605
G1 X63.887 Y127.725
G1 X64.161 Y128.758
G1 X64.285 Y128.929
G1 X64.161 Y128.758
G1 X63.887 Y127.725
G1 X64.030 Y127.156
G1 X64.262 Y127.058
G1 X64.562 Y127.133
G1 X64.962 Y127.486
G1 X65.091 Y127.745
G0 Z5.000 F500.000
G0 X66.778 Y128.250 F3000.000
G1 Z1.000 F500.000
G4 P100
G1 X66.868 Y128.544 F1000.000
G1 X66.754 Y128.805
G1 X66.485 Y128.881
G1 X66.196 Y128.772
G1 X65.901 Y128.368
G1 X65.753 Y127.706
G1 X65.250 Y127.518
G1 X65.216 Y127.093
G1 X65.188 Y128.220
G1 X65.317 Y128.782
G1 X65.494 Y128.971
G1 X65.320 Y128.789
G1 X65.197 Y128.277
G1 X65.152 Y127.813
G1 X65.250 Y127.518
G1 X65.753 Y127.706
G1 X66.107 Y127.176
G1 X66.616 Y127.034
G1 X67.065 Y127.260
G1 X67.418 Y127.750
G0 Z5.000 F500.000
G0 X67.834 Y128.961 F3000.000
G1 Z1.000 F500.000
G4 P100
G1 X67.655 Y128.756 F1000.000
G1 X67.483 Y127.880
G1 X67.490 Y127.435
G1 X67.646 Y127.167
G1 X67.912 Y127.223
G1 X68.235 Y127.605
G1 X68.522 Y127.725
G1 X68.796 Y128.758
G1 X68.920 Y128.929
G1 X68.796 Y128.758
G1 X68.522 Y127.725
G1 X68.665 Y127.156
G1 X68.897 Y127.058
G1 X69.197 Y127.133
G1 X69.597 Y127.486
G1 X69.726 Y127.745
G0 Z5.000 F500.000
G0 X69.829 Y127.223 F3000.000
G1 Z1.000 F500.000
G4 P100
G1 X69.865 Y127.259 F1000.000
G0 Z5.000 F500.000
G0 X64.520 Y130.387 F3000.000
G1 Z1.000 F500.000
G4 P100
G1 X64.245 Y129.934 F1000.000
G1 X63.801 Y129.709
G1 X63.318 Y129.777
G1 X63.096 Y130.130
G0 Z5.000 F500.000
G0 X86.346 Y178.740 F3000.000
G1 Z1.000 F500.000
G4 P100
G1 X86.427 Y179.066 F1000.000
G1 X86.266 Y179.322
G1 X85.931 Y179.350
G1 X85.603 Y179.149
G1 X85.313 Y178.491
G1 X85.320 Y178.104
G1 X85.439 Y177.800
G1 X85.762 Y177.559
G1 X86.210 Y177.535
G1 X86.592 Y177.741
G1 X86.790 Y178.101
G0 Z5.000 F500.000
G0 X87.571 Y179.446 F3000.000
G1 Z1.000 F500.000
G4 P100
G1 X87.408 Y179.282 F1000.000
G1 X87.281 Y178.771
G1 X87.256 Y177.817
G1 X87.382 Y177.650
G1 X87.551 Y177.660
G1 X87.987 Y178.105
G1 X88.315 Y178.220
G1 X88.359 Y177.581
G1 X88.315 Y178.220
G1 X88.640 Y179.390
G0 Z5.000 F500.000
G0 X89.849 Y179.441 F3000.000
G1 Z1.000 F500.000
G4 P100
G1 X89.699 Y179.285 F1000.000
G1 X89.543 Y178.601
G1 X89.629 Y178.081
G1 X89.585 Y177.554
G1 X89.629 Y178.081
G1 X89.923 Y178.265
G1 X90.455 Y179.066
G1 X90.823 Y179.163
G1 X90.911 Y179.272
G1 X90.823 Y179.163
G1 X91.011 Y178.557
G1 X90.965 Y178.464
G1 X91.216 Y178.645
G0 Z5.000 F500.000
G0 X91.836 Y179.351 F3000.000
G1 Z1.000 F500.000
G4 P100
G1 X91.865 Y177.881 F1000.000
G1 X91.951 Y177.641
G1 X92.097 Y177.573
G1 X92.420 Y177.768
G1 X93.252 Y179.363
G1 X93.381 Y179.385
G1 X93.475 Y179.274
G1 X93.760 Y178.329
G1 X94.027 Y178.130
G1 X94.629 Y178.283
G1 X95.009 Y178.538
G1 X95.168 Y178.916
G1 X95.042 Y179.262
G1 X94.598 Y179.352
G1 X94.185 Y179.069
G1 X93.974 Y178.528
G1 X94.038 Y177.934
G1 X94.357 Y177.581
G1 X94.902 Y177.523
G1 X95.295 Y177.720
G1 X95.586 Y178.224
G1 X95.714 Y178.272
G1 X96.078 Y178.146
G1 X96.700 Y177.612
G1 X97.102 Y176.985
G1 X97.118 Y176.661
G1 X96.738 Y175.596
G1 X96.515 Y175.337
G1 X96.256 Y175.247
G1 X95.941 Y175.423
G1 X95.939 Y175.888
G1 X96.462 Y176.647
G1 X96.802 Y176.934
G1 X97.102 Y176.985
G1 X97.194 Y177.135
G1 X97.497 Y179.245
G1 X97.603 Y179.385
G0 Z5.000 F500.000
G0 X98.828 Y179.165 F3000.000
G1 Z1.000 F500.000
G4 P100
G1 X99.062 Y179.294 F1000.000
G1 X99.416 Y179.319
G1 X99.649 Y179.220
G1 X99.811 Y178.989
G1 X99.898 Y178.546
G1 X99.836 Y178.121
G1 X99.686 Y177.790
G1 X99.457 Y177.603
G1 X98.946 Y177.573
G1 X98.635 Y177.881
G1 X98.561 Y178.498
G1 X98.655 Y178.896
G1 X98.828 Y179.165
G0 Z5.000 F500.000
G0 X100.744 Y177.520 F3000.000
G1 Z1.000 F500.000
G4 P100
G1 X101.047 Y179.227 F1000.000
G1 X101.145 Y179.365
G0 Z5.000 F500.000
G0 X102.402 Y179.434 F3000.000
G1 Z1.000 F500.000
G4 P100
G1 X102.239 Y179.180 F1000.000
G1 X102.126 Y178.658
G1 X102.153 Y177.559
G1 X102.160 Y178.081
G1 X102.532 Y178.309
G1 X102.909 Y178.972
G1 X103.471 Y179.163
G1 X103.493 Y179.258
G1 X103.359 Y177.595
G0 Z5.000 F500.000
G0 X97.542 Y180.317 F3000.000
G1 Z1.000 F500.000
G4 P100
G1 X97.676 Y180.339 F1000.000
G0 Z5.000 F500.000
G0 X101.196 Y180.317 F3000.000
G1 Z1.000 F500.000
G4 P100
G1 X101.330 Y180.339 F1000.000
G0 Z5.000 F500.000
G0 X85.067 Y169.276 F3000.000
G1 Z1.000 F500.000
G4 P100
G1 X85.539 Y169.244 F1000.000
G1 X85.672 Y169.356
G1 X85.694 Y169.900
G1 X85.977 Y170.822
G1 X86.250 Y171.216
G1 X86.573 Y171.290
G1 X86.749 Y171.038
G1 X86.732 Y170.522
G1 X86.111 Y169.359
G1 X86.462 Y169.288
G1 X86.883 Y169.368
G1 X86.462 Y169.288
G1 X85.672 Y169.356
G1 X85.584 Y169.261
G1 X85.593 Y168.224
G1 X85.767 Y167.663
G1 X86.037 Y167.463
G1 X86.405 Y167.459
G1 X86.985 Y167.926
G1 X88.173 Y168.324
G1 X88.415 Y168.611
G1 X88.450 Y168.958
G1 X88.290 Y169.200
G1 X87.966 Y169.267
G1 X87.593 Y169.096
G1 X87.332 Y168.695
G1 X87.261 Y168.241
G1 X87.398 Y167.699
G1 X87.733 Y167.451
G1 X88.204 Y167.427
G1 X88.590 Y167.623
G1 X88.806 Y167.989
G0 Z5.000 F500.000
G0 X88.896 Y167.635 F3000.000
G1 Z1.000 F500.000
G4 P100
G1 X89.574 Y168.567 F1000.000
G1 X89.814 Y168.741
G1 X89.929 Y169.220
G1 X90.095 Y169.376
G1 X89.929 Y169.220
G1 X89.814 Y168.741
G1 X90.284 Y168.118
G1 X90.364 Y167.717
G1 X90.142 Y167.426
G1 X89.734 Y167.427
G0 Z5.000 F500.000
G0 X91.132 Y169.276 F3000.000
G1 Z1.000 F500.000
G4 P100
G1 X91.604 Y169.244 F1000.000
G1 X91.737 Y169.356
G1 X91.768 Y169.943
G1 X92.074 Y170.888
G1 X92.369 Y171.253
G1 X92.701 Y171.255
G1 X92.828 Y170.943
G1 X92.785 Y170.472
G1 X92.176 Y169.359
G1 X92.527 Y169.288
G1 X92.948 Y169.368
G1 X92.527 Y169.288
G1 X91.737 Y169.356
G1 X91.649 Y169.261
G1 X91.639 Y168.487
G1 X91.731 Y167.875
G1 X91.964 Y167.529
G1 X92.428 Y167.449
G1 X92.799 Y167.696
G0 Z5.000 F500.000
G0 X95.610 Y169.888 F3000.000
G1 Z1.000 F500.000
G4 P100
G1 X95.436 Y169.737 F1000.000
G1 X95.000 Y168.875
G1 X94.790 Y168.345
G1 X94.805 Y168.116
G1 X96.109 Y168.001
G1 X96.079 Y167.420
G1 X96.109 Y168.001
G1 X96.182 Y168.077
G1 X96.675 Y168.045
G1 X96.182 Y168.077
G1 X96.297 Y168.998
G1 X96.414 Y169.263
G0 Z5.000 F500.000
G0 X97.827 Y169.034 F3000.000
G1 Z1.000 F500.000
G4 P100
G1 X97.868 Y169.073 F1000.000
G0 Z5.000 F500.000
G0 X97.692 Y167.647 F3000.000
G1 Z1.000 F500.000
G4 P100
G1 X97.656 Y167.611 F1000.000
G0 Z5.000 F500.000
G0 X85.716 Y159.262 F3000.000
G1 Z1.000 F500.000
G4 P100
G1 X85.540 Y159.072 F1000.000
G1 X85.404 Y158.459
G1 X85.435 Y157.377
G1 X85.479 Y157.894
G1 X85.778 Y158.087
G1 X86.059 Y158.640
G1 X86.283 Y158.878
G1 X86.583 Y158.972
G1 X86.673 Y158.909
G1 X86.660 Y158.192
G1 X86.744 Y157.921
G1 X86.673 Y157.362
G1 X86.744 Y157.921
G1 X87.040 Y158.116
G1 X87.478 Y158.820
G1 X87.911 Y158.970
G1 X88.001 Y158.622
G1 X87.884 Y157.384
G1 X87.941 Y157.243
G1 X88.305 Y157.163
G1 X89.030 Y157.356
G1 X89.196 Y158.594
G1 X89.380 Y159.171
G0 Z5.000 F500.000
G0 X90.637 Y159.240 F3000.000
G1 Z1.000 F500.000
G4 P100
G1 X90.474 Y158.986 F1000.000
G1 X90.361 Y158.464
G1 X90.388 Y157.365
G1 X90.395 Y157.887
G1 X90.767 Y158.115
G1 X91.144 Y158.778
G1 X91.706 Y158.969
G1 X91.728 Y159.064
G1 X91.583 Y157.432
G1 X91.690 Y157.264
G1 X92.057 Y157.177
G1 X92.740 Y157.356
G1 X92.906 Y158.594
G1 X93.090 Y159.171
G0 Z5.000 F500.000
G0 X94.376 Y159.262 F3000.000
G1 Z1.000 F500.000
G4 P100
G1 X94.200 Y159.072 F1000.000
G1 X94.064 Y158.459
G1 X94.095 Y157.377
G1 X94.139 Y157.894
G1 X94.442 Y158.093
G1 X94.852 Y158.805
G1 X95.258 Y158.972
G1 X95.361 Y158.751
G1 X95.319 Y158.206
G1 X95.404 Y157.921
G1 X95.333 Y157.362
G1 X95.404 Y157.921
G1 X95.700 Y158.116
G1 X96.149 Y158.830
G1 X96.607 Y158.955
G1 X96.660 Y158.586
G1 X96.544 Y157.384
G0 Z5.000 F500.000
G0 X98.111 Y159.252 F3000.000
G1 Z1.000 F500.000
G4 P100
G1 X97.948 Y159.088 F1000.000
G1 X97.821 Y158.577
G1 X97.796 Y157.623
G1 X97.922 Y157.456
G1 X98.091 Y157.466
G1 X98.527 Y157.911
G1 X98.855 Y158.026
G1 X98.899 Y157.387
G1 X98.855 Y158.026
G1 X99.180 Y159.196
G0 Z5.000 F500.000
G0 X100.406 Y159.262 F3000.000
G1 Z1.000 F500.000
G4 P100
G1 X100.230 Y159.072 F1000.000
G1 X100.094 Y158.459
G1 X100.125 Y157.377
G1 X100.169 Y157.894
G1 X100.472 Y158.093
G1 X100.882 Y158.805
G1 X101.288 Y158.972
G1 X101.391 Y158.751
G1 X101.349 Y158.206
G1 X101.434 Y157.921
G1 X101.363 Y157.362
G1 X101.434 Y157.921
G1 X101.730 Y158.116
G1 X102.179 Y158.830
G1 X102.637 Y158.955
G1 X102.690 Y158.586
G1 X102.574 Y157.384
G0 Z5.000 F500.000
G0 X105.246 Y158.807 F3000.000
G1 Z1.000 F500.000
G4 P100
G1 X105.509 Y158.866 F1000.000
G1 X105.901 Y159.139
G1 X106.211 Y159.131
G1 X106.443 Y158.837
G1 X106.438 Y158.309
G1 X106.199 Y157.763
G1 X105.791 Y157.393
G1 X105.229 Y157.316
G1 X105.090 Y157.667
G1 X104.705 Y157.413
G1 X104.366 Y156.555
G1 X104.201 Y155.812
G1 X104.229 Y155.281
G1 X104.452 Y155.053
G1 X104.646 Y155.076
G1 X104.807 Y155.222
G1 X105.034 Y155.914
G1 X105.229 Y157.316
G1 X105.090 Y157.667
G1 X105.246 Y158.807
G1 X105.184 Y159.099
G1 X105.261 Y159.210
G0 Z5.000 F500.000
G0 X107.497 Y157.936 F3000.000
G1 Z1.000 F500.000
G4 P100
G1 X108.172 Y158.122 F1000.000
G1 X108.560 Y158.455
G1 X108.637 Y158.707
G1 X108.592 Y158.957
G1 X108.453 Y159.111
G1 X108.222 Y159.174
G1 X107.824 Y159.045
G1 X107.531 Y158.659
G1 X107.434 Y158.173
G1 X107.557 Y157.627
G1 X107.887 Y157.361
G1 X108.364 Y157.327
G1 X108.765 Y157.526
G1 X108.981 Y157.892
G0 Z5.000 F500.000
G0 X109.792 Y159.240 F3000.000
G1 Z1.000 F500.000
G4 P100
G1 X109.629 Y158.986 F1000.000
G1 X109.516 Y158.464
G1 X109.543 Y157.365
G1 X109.550 Y157.887
G1 X109.922 Y158.115
G1 X110.299 Y158.778
G1 X110.861 Y158.969
G1 X110.883 Y159.064
G1 X110.749 Y157.401
G0 Z5.000 F500.000
G0 X89.431 Y160.123 F3000.000
G1 Z1.000 F500.000
G4 P100
G1 X89.565 Y160.145 F1000.000
G0 Z5.000 F500.000
G0 X93.141 Y160.123 F3000.000
G1 Z1.000 F500.000
G4 P100
G1 X93.275 Y160.145 F1000.000
G0 Z5.000 F500.000
G0 X85.506 Y148.242 F3000.000
G1 Z1.000 F500.000
G4 P100
G1 X85.782 Y148.354 F1000.000
G1 X85.975 Y148.597
G1 X86.417 Y149.482
G1 X86.666 Y150.261
G1 X86.730 Y150.849
G1 X86.657 Y151.258
G1 X86.452 Y151.436
G1 X86.164 Y151.353
G1 X85.847 Y150.841
G1 X85.552 Y149.816
G1 X85.409 Y148.669
G1 X85.506 Y148.242
G1 X85.458 Y147.834
G1 X85.604 Y147.468
G1 X85.826 Y147.286
G1 X86.256 Y147.270
G1 X86.573 Y147.509
G1 X86.889 Y147.229
G1 X87.243 Y149.045
G1 X87.468 Y149.118
G1 X88.240 Y148.780
G1 X88.614 Y148.759
G1 X88.890 Y148.927
G1 X89.336 Y149.535
G1 X89.646 Y150.174
G1 X89.777 Y150.772
G1 X89.723 Y151.256
G1 X89.475 Y151.441
G1 X89.188 Y151.311
G1 X88.917 Y150.878
G1 X88.411 Y149.153
G1 X88.439 Y148.742
G1 X88.272 Y147.995
G1 X88.270 Y146.876
G1 X88.370 Y145.990
G1 X88.557 Y145.680
G1 X88.863 Y145.739
G1 X89.033 Y146.111
G1 X88.916 Y147.984
G1 X89.027 Y148.087
G1 X89.816 Y148.142
G0 Z5.000 F500.000
G0 X89.782 Y149.082 F3000.000
G1 Z1.000 F500.000
G4 P100
G1 X90.254 Y149.050 F1000.000
G1 X90.387 Y149.162
G1 X90.416 Y149.742
G1 X90.717 Y150.681
G1 X91.007 Y151.052
G1 X91.340 Y151.070
G1 X91.477 Y150.764
G1 X91.437 Y150.285
G1 X90.826 Y149.165
G1 X91.177 Y149.094
G1 X91.598 Y149.174
G1 X91.177 Y149.094
G1 X90.387 Y149.162
G1 X90.299 Y149.067
G1 X90.366 Y147.729
G1 X90.532 Y147.406
G1 X90.801 Y147.255
G1 X91.183 Y147.286
G1 X91.449 Y147.502
G1 X91.646 Y147.441
G1 X92.324 Y148.373
G1 X92.564 Y148.547
G1 X92.679 Y149.026
G1 X92.845 Y149.182
G1 X92.679 Y149.026
G1 X92.564 Y148.547
G1 X93.034 Y147.924
G1 X93.114 Y147.523
G1 X92.892 Y147.232
G1 X92.484 Y147.233
G0 Z5.000 F500.000
G0 X96.608 Y147.592 F3000.000
G1 Z1.000 F500.000
G4 P100
G1 X96.832 Y148.839 F1000.000
G1 X96.397 Y149.091
G1 X96.015 Y148.933
G1 X95.694 Y148.594
G1 X95.497 Y148.140
G1 X95.460 Y147.660
G1 X95.557 Y147.387
G1 X95.749 Y147.245
G1 X95.993 Y147.257
G1 X96.303 Y147.517
G1 X96.608 Y147.592
G1 X96.645 Y147.297
G0 Z5.000 F500.000
G0 X98.177 Y149.143 F3000.000
G1 Z1.000 F500.000
G4 P100
G1 X98.014 Y148.889 F1000.000
G1 X97.901 Y148.367
G1 X97.928 Y147.268
G1 X97.935 Y147.790
G1 X98.307 Y148.018
G1 X98.684 Y148.681
G1 X99.246 Y148.872
G1 X99.268 Y148.967
G1 X99.134 Y147.304
G0 Z5.000 F500.000
G0 X101.536 Y149.038 F3000.000
G1 Z1.000 F500.000
G4 P100
G1 X101.917 Y151.051 F1000.000
G1 X102.106 Y151.359
G1 X102.446 Y151.391
G1 X102.601 Y151.045
G1 X102.572 Y150.411
G1 X102.037 Y148.808
G1 X101.572 Y148.530
G1 X101.461 Y148.721
G1 X101.495 Y149.082
G1 X101.025 Y149.024
G1 X100.707 Y148.818
G1 X100.458 Y148.486
G1 X100.332 Y148.097
G1 X100.309 Y147.719
G1 X100.470 Y147.319
G1 X100.684 Y147.237
G1 X101.005 Y147.310
G1 X101.577 Y147.656
G1 X101.763 Y147.221
G1 X101.576 Y147.663
G1 X101.572 Y148.530
G0 Z5.000 F500.000
G0 X87.341 Y150.026 F3000.000
G1 Z1.000 F500.000
G4 P100
G1 X87.475 Y150.048 F1000.000
G0 Z5.000 F500.000
G0 X84.966 Y137.344 F3000.000
G1 Z1.000 F500.000
G4 P100
G1 X85.644 Y138.276 F1000.000
G1 X85.884 Y138.450
G1 X85.999 Y138.929
G1 X86.165 Y139.085
G1 X85.999 Y138.929
G1 X85.884 Y138.450
G1 X86.354 Y137.827
G1 X86.434 Y137.426
G1 X86.212 Y137.135
G1 X85.804 Y137.136
G0 Z5.000 F500.000
G0 X87.202 Y138.985 F3000.000
G1 Z1.000 F500.000
G4 P100
G1 X87.674 Y138.953 F1000.000
G1 X87.807 Y139.065
G1 X87.838 Y139.652
G1 X88.144 Y140.597
G1 X88.439 Y140.962
G1 X88.771 Y140.964
G1 X88.898 Y140.652
G1 X88.855 Y140.181
G1 X88.246 Y139.068
G1 X88.597 Y138.997
G1 X89.018 Y139.077
G1 X88.597 Y138.997
G1 X87.807 Y139.065
G1 X87.719 Y138.970
G1 X87.709 Y138.196
G1 X87.801 Y137.584
G1 X88.034 Y137.238
G1 X88.498 Y137.158
G1 X88.869 Y137.405
G0 Z5.000 F500.000
G0 X90.568 Y137.495 F3000.000
G1 Z1.000 F500.000
G4 P100
G1 X90.792 Y138.742 F1000.000
G1 X90.357 Y138.994
G1 X89.975 Y138.836
G1 X89.654 Y138.497
G1 X89.457 Y138.043
G1 X89.420 Y137.563
G1 X89.517 Y137.290
G1 X89.709 Y137.148
G1 X89.953 Y137.160
G1 X90.263 Y137.420
G1 X90.568 Y137.495
G1 X90.605 Y137.200
G0 Z5.000 F500.000
G0 X91.939 Y138.640 F3000.000
G1 Z1.000 F500.000
G4 P100
G1 X92.243 Y138.718 F1000.000
G1 X92.593 Y138.980
G1 X92.906 Y138.881
G1 X93.112 Y138.680
G1 X93.236 Y138.313
G1 X93.217 Y137.862
G1 X93.077 Y137.487
G1 X92.831 Y137.231
G1 X92.461 Y137.140
G1 X92.118 Y137.287
G1 X91.925 Y137.634
G1 X91.870 Y138.173
G1 X91.950 Y139.384
G1 X92.197 Y140.482
G1 X92.517 Y141.162
G1 X92.889 Y141.341
G1 X93.132 Y141.124
G1 X93.167 Y140.618
G1 X93.014 Y140.039
G1 X92.594 Y139.253
G1 X92.593 Y138.980
G0 Z5.000 F500.000
G0 X94.321 Y138.145 F3000.000
G1 Z1.000 F500.000
G4 P100
G1 X94.573 Y138.240 F1000.000
G1 X94.752 Y138.437
G1 X95.412 Y139.894
G1 X95.536 Y140.913
G1 X95.440 Y141.220
G1 X95.252 Y141.341
G1 X95.002 Y141.273
G1 X94.794 Y141.022
G1 X94.394 Y139.848
G1 X94.222 Y138.506
G1 X94.321 Y138.145
G1 X94.271 Y137.751
G1 X94.388 Y137.421
G1 X94.661 Y137.181
G1 X95.057 Y137.169
G1 X95.296 Y137.291
G1 X95.635 Y137.679
G1 X96.665 Y138.042
G1 X96.898 Y138.327
G1 X96.930 Y138.667
G1 X96.777 Y138.905
G1 X96.453 Y138.977
G1 X96.078 Y138.810
G1 X95.814 Y138.410
G1 X95.740 Y137.957
G1 X95.874 Y137.414
G1 X96.206 Y137.162
G1 X96.677 Y137.135
G1 X97.070 Y137.332
G1 X97.286 Y137.698
G0 Z5.000 F500.000
G0 X85.489 Y128.543 F3000.000
G1 Z1.000 F500.000
G4 P100
G1 X85.793 Y128.621 F1000.000
G1 X86.143 Y128.883
G1 X86.456 Y128.784
G1 X86.662 Y128.583
G1 X86.786 Y128.216
G1 X86.767 Y127.765
G1 X86.627 Y127.390
G1 X86.381 Y127.134
G1 X86.011 Y127.043
G1 X85.668 Y127.190
G1 X85.475 Y127.537
G1 X85.420 Y128.076
G1 X85.500 Y129.287
G1 X85.747 Y130.385
G1 X86.067 Y131.065
G1 X86.439 Y131.244
G1 X86.682 Y131.027
G1 X86.717 Y130.521
G1 X86.564 Y129.942
G1 X86.144 Y129.156
G1 X86.143 Y128.883
G0 Z5.000 F500.000
G0 X88.833 Y127.398 F3000.000
G1 Z1.000 F500.000
G4 P100
G1 X89.053 Y128.658 F1000.000
G1 X88.666 Y128.900
G1 X88.198 Y128.709
G1 X87.923 Y128.406
G1 X87.744 Y128.023
G1 X87.676 Y127.590
G1 X87.752 Y127.242
G1 X87.913 Y127.077
G1 X88.133 Y127.040
G1 X88.535 Y127.327
G1 X88.833 Y127.398
G1 X88.937 Y126.991
G1 X89.107 Y126.971
G1 X89.681 Y127.247
G1 X90.359 Y128.179
G1 X90.599 Y128.353
G1 X90.714 Y128.832
G1 X90.880 Y128.988
G1 X90.714 Y128.832
G1 X90.599 Y128.353
G1 X91.069 Y127.730
G1 X91.149 Y127.329
G1 X90.927 Y127.038
G1 X90.519 Y127.039
G0 Z5.000 F500.000
G0 X92.207 Y127.645 F3000.000
G1 Z1.000 F500.000
G4 P100
G1 X92.915 Y127.848 F1000.000
G1 X93.294 Y128.210
G1 X93.347 Y128.490
G1 X93.256 Y128.740
G1 X93.048 Y128.866
G1 X92.771 Y128.865
G1 X92.347 Y128.560
G1 X92.148 Y127.985
G1 X92.253 Y127.361
G1 X92.625 Y127.060
G1 X92.995 Y127.025
G1 X93.334 Y127.131
G1 X93.933 Y127.901
G1 X94.690 Y128.251
G1 X95.243 Y129.315
G1 X95.518 Y130.277
G1 X95.478 Y131.050
G1 X95.335 Y131.219
G1 X95.113 Y131.232
G1 X94.887 Y131.065
G1 X94.679 Y130.688
G1 X94.310 Y129.298
G1 X94.223 Y128.446
G1 X94.321 Y128.048
G1 X94.265 Y127.704
G1 X94.488 Y127.190
G1 X94.963 Y127.053
G1 X95.232 Y127.147
G1 X95.388 Y127.315
G1 X95.747 Y127.053
G1 X95.926 Y128.331
G1 X96.105 Y128.880
G0 Z5.000 F500.000
G0 X97.362 Y128.949 F3000.000
G1 Z1.000 F500.000
G4 P100
G1 X97.199 Y128.695 F1000.000
G1 X97.086 Y128.173
G1 X97.113 Y127.074
G1 X97.120 Y127.596
G1 X97.492 Y127.824
G1 X97.869 Y128.487
G1 X98.431 Y128.678
G1 X98.453 Y128.773
G1 X98.306 Y127.163
G1 X98.403 Y127.005
G1 X99.317 Y127.572
G1 X100.107 Y127.795
G1 X100.494 Y128.053
G1 X100.645 Y128.357
G1 X100.604 Y128.673
G1 X100.402 Y128.851
G1 X100.083 Y128.867
G1 X99.731 Y128.657
G1 X99.503 Y128.251
G1 X99.452 Y127.831
G1 X99.601 Y127.293
G1 X99.937 Y127.058
G1 X100.408 Y127.042
G1 X100.791 Y127.245
G1 X100.996 Y127.601
G0 Z5.000 F500.000
G0 X96.156 Y129.832 F3000.000
G1 Z1.000 F500.000
G4 P100
G1 X96.290 Y129.854 F1000.000
G0 Z5.000 F500.000
G0 X115.351 Y179.685 F3000.000
G1 Z1.000 F500.000
G4 P100
G1 X116.023 Y179.834 F1000.000
G1 X116.109 Y179.698
G1 X115.805 Y177.612
G0 Z5.000 F500.000
G0 X118.122 Y179.985 F3000.000
G1 Z1.000 F500.000
G4 P100
G1 X117.948 Y179.834 F1000.000
G1 X117.511 Y178.972
G1 X117.302 Y178.442
G1 X117.316 Y178.213
G1 X118.620 Y178.098
G1 X118.591 Y177.517
G1 X118.620 Y178.098
G1 X118.694 Y178.174
G1 X119.187 Y178.142
G1 X118.694 Y178.174
G1 X118.809 Y179.095
G1 X118.925 Y179.360
G0 Z5.000 F500.000
G0 X120.167 Y177.708 F3000.000
G1 Z1.000 F500.000
G4 P100
G1 X120.204 Y177.744 F1000.000
G0 Z5.000 F500.000
G0 X121.926 Y178.779 F3000.000
G1 Z1.000 F500.000
G4 P100
G1 X122.429 Y178.694 F1000.000
G1 X122.837 Y178.341
G1 X122.934 Y178.048
G1 X122.847 Y177.795
G1 X122.620 Y177.603
G1 X121.889 Y177.515
G1 X121.504 Y177.681
G1 X121.362 Y177.997
G1 X121.465 Y178.299
G1 X121.926 Y178.779
G1 X121.634 Y179.096
G1 X121.553 Y179.358
G1 X121.640 Y179.664
G1 X121.903 Y179.878
G1 X122.565 Y179.939
G1 X122.966 Y179.662
G1 X122.940 Y179.246
G1 X122.429 Y178.694
G0 Z5.000 F500.000
G0 X26.914 Y113.865 F3000.000
G1 Z1.000 F500.000
G4 P100
G1 X27.042 Y113.548 F1000.000
G1 X27.076 Y113.089
G1 X26.863 Y112.216
G1 X26.395 Y111.808
G1 X26.084 Y111.773
G1 X25.791 Y111.862
G1 X25.544 Y112.122
G1 X25.428 Y112.551
G1 X25.455 Y113.191
G1 X25.626 Y113.703
G1 X25.895 Y114.018
G1 X26.237 Y114.152
G1 X26.634 Y114.102
G1 X26.914 Y113.865
G0 Z5.000 F500.000
G0 X28.081 Y112.234 F3000.000
G1 Z1.000 F500.000
G4 P100
G1 X28.208 Y111.932 F1000.000
G1 X28.603 Y111.741
G1 X29.105 Y111.749
G1 X29.471 Y111.968
G1 X29.621 Y112.295
G1 X29.554 Y112.649
G1 X29.187 Y112.929
G1 X28.349 Y113.139
G1 X28.460 Y114.057
G1 X28.189 Y114.106
G1 X29.805 Y114.138
G0 Z5.000 F500.000
G0 X56.308 Y111.858 F3000.000
G1 Z1.000 F500.000
G4 P100
G1 X56.843 Y115.161 F1000.000
G1 X56.754 Y115.347
G1 X56.323 Y115.370
G1 X55.761 Y115.210
G1 X55.437 Y114.968
G1 X55.312 Y114.602
G1 X55.407 Y114.211
G1 X55.311 Y114.551
G1 X55.392 Y114.901
G1 X55.646 Y115.149
G1 X56.059 Y115.311
G1 X56.526 Y115.389
G1 X56.833 Y115.307
G1 X57.103 Y115.433
G1 X57.585 Y115.454
G1 X58.418 Y115.435
G1 X58.735 Y115.310
G1 X59.060 Y115.384
G1 X59.662 Y115.307
G1 X59.060 Y115.384
G1 X58.735 Y115.310
G1 X58.258 Y112.405
G1 X58.449 Y111.945
G1 X58.918 Y111.795
G1 X59.414 Y111.986
G1 X59.787 Y112.468
G0 Z5.000 F500.000
G0 X59.759 Y112.546 F3000.000
G1 Z1.000 F500.000
G4 P100
G1 X59.607 Y112.307 F1000.000
G1 X59.635 Y111.961
G1 X59.806 Y111.793
G1 X60.079 Y111.809
G1 X60.364 Y112.072
G1 X60.824 Y113.035
G1 X61.212 Y113.457
G1 X61.146 Y113.301
G1 X61.289 Y112.976
G1 X61.296 Y112.216
G1 X61.446 Y111.836
G1 X61.704 Y111.765
G1 X61.987 Y111.854
G1 X62.354 Y112.219
G1 X62.472 Y112.468
G0 Z5.000 F500.000
G0 X63.701 Y112.204 F3000.000
G1 Z1.000 F500.000
G4 P100
G1 X63.916 Y113.384 F1000.000
G1 X63.420 Y113.608
G1 X62.966 Y113.354
G1 X62.639 Y112.864
G1 X62.533 Y112.235
G1 X62.712 Y111.840
G1 X63.136 Y111.780
G1 X63.701 Y112.204
G1 X63.930 Y111.832
G1 X64.221 Y111.787
G1 X64.647 Y112.090
G1 X64.882 Y112.471
G0 Z5.000 F500.000
G0 X66.405 Y112.700 F3000.000
G1 Z1.000 F500.000
G4 P100
G1 X66.089 Y113.442 F1000.000
G1 X65.694 Y113.682
G1 X65.726 Y113.911
G1 X66.155 Y114.718
G1 X66.290 Y115.280
G1 X66.225 Y115.804
G1 X66.097 Y115.939
G1 X65.917 Y115.963
G1 X65.704 Y115.858
G1 X65.522 Y115.611
G1 X65.174 Y114.588
G1 X65.022 Y113.634
G1 X65.057 Y113.259
G1 X65.365 Y113.344
G1 X65.707 Y113.625
G1 X65.365 Y113.344
G1 X65.057 Y113.259
G1 X64.988 Y112.673
G1 X65.082 Y112.155
G1 X65.377 Y111.817
G1 X65.812 Y111.782
G1 X66.207 Y112.092
G1 X66.405 Y112.700
G1 X67.201 Y112.800
G0 Z5.000 F500.000
G0 X67.632 Y113.677 F3000.000
G1 Z1.000 F500.000
G4 P100
G1 X67.481 Y113.521 F1000.000
G1 X67.369 Y113.046
G1 X67.334 Y111.741
G1 X67.301 Y112.388
G1 X67.383 Y112.738
G1 X68.472 Y112.676
G1 X68.787 Y113.625
G1 X68.472 Y112.676
G1 X68.558 Y111.860
G1 X68.816 Y111.778
G1 X69.099 Y111.861
G1 X69.489 Y112.203
G1 X69.622 Y112.468
G0 Z5.000 F500.000
G0 X72.221 Y113.606 F3000.000
G1 Z1.000 F500.000
G4 P100
G1 X71.880 Y112.746 F1000.000
G1 X71.174 Y112.373
G1 X71.237 Y112.422
G1 X71.069 Y112.432
G1 X71.027 Y112.735
G1 X70.900 Y112.898
G1 X70.580 Y112.948
G1 X70.195 Y112.798
G1 X69.807 Y113.183
G1 X69.896 Y113.525
G1 X70.049 Y113.660
G1 X69.885 Y113.498
G1 X69.760 Y112.756
G1 X69.823 Y112.654
G1 X70.195 Y112.798
G1 X69.776 Y112.682
G1 X69.712 Y112.331
G1 X69.816 Y112.026
G1 X70.151 Y111.782
G1 X70.614 Y111.793
G1 X70.943 Y112.004
G1 X71.174 Y112.373
G1 X71.880 Y112.746
G1 X72.020 Y111.971
G1 X72.332 Y111.762
G1 X72.777 Y111.975
G1 X73.132 Y112.471
G0 Z5.000 F500.000
G0 X73.178 Y112.361 F3000.000
G1 Z1.000 F500.000
G4 P100
G1 X73.864 Y112.558 F1000.000
G1 X74.245 Y112.898
G1 X74.316 Y113.166
G1 X74.257 Y113.413
G1 X74.099 Y113.557
G1 X73.849 Y113.603
G1 X73.436 Y113.419
G1 X73.165 Y112.966
G1 X73.122 Y112.511
G1 X73.201 Y112.145
G1 X73.348 Y111.939
G1 X73.755 Y111.754
G1 X74.276 Y111.793
G1 X74.855 Y112.115
G1 X75.097 Y112.468
G0 Z5.000 F500.000
G0 X56.352 Y102.894 F3000.000
G1 Z1.000 F500.000
G4 P100
G1 X56.417 Y103.239 F1000.000
G1 X56.262 Y103.460
G1 X55.810 Y103.433
G1 X55.526 Y103.166
G1 X55.335 Y102.389
G1 X55.429 Y102.001
G1 X55.634 Y101.768
G1 X56.019 Y101.668
G1 X56.548 Y101.769
G1 X57.008 Y102.088
G1 X57.177 Y102.405
G0 Z5.000 F500.000
G0 X58.580 Y102.603 F3000.000
G1 Z1.000 F500.000
G4 P100
G1 X58.396 Y102.013 F1000.000
G1 X58.038 Y101.702
G1 X57.561 Y101.712
G1 X57.222 Y102.080
G1 X57.156 Y102.512
G1 X57.240 Y102.963
G1 X57.449 Y103.287
G1 X57.755 Y103.466
G1 X58.017 Y103.485
G1 X58.228 Y103.378
G1 X58.580 Y102.603
G1 X58.978 Y102.596
G1 X59.386 Y102.715
G0 Z5.000 F500.000
G0 X59.468 Y102.264 F3000.000
G1 Z1.000 F500.000
G4 P100
G1 X60.154 Y102.461 F1000.000
G1 X60.535 Y102.801
G1 X60.606 Y103.069
G1 X60.547 Y103.316
G1 X60.389 Y103.460
G1 X60.139 Y103.506
G1 X59.726 Y103.322
G1 X59.455 Y102.869
G1 X59.412 Y102.414
G1 X59.491 Y102.048
G1 X59.638 Y101.842
G1 X60.045 Y101.657
G1 X60.566 Y101.696
G1 X61.145 Y102.018
G1 X61.387 Y102.371
G0 Z5.000 F500.000
G0 X62.341 Y101.133 F3000.000
G1 Z1.000 F500.000
G4 P100
G1 X62.337 Y100.716 F1000.000
G1 X61.960 Y99.720
G1 X61.650 Y99.419
G1 X61.290 Y99.442
G1 X61.135 Y99.771
G1 X61.296 Y100.282
G1 X61.961 Y101.016
G1 X62.341 Y101.133
G1 X62.600 Y101.693
G1 X62.492 Y101.915
G1 X62.765 Y103.260
G1 X62.326 Y103.522
G1 X62.004 Y103.400
G1 X61.716 Y103.144
G1 X61.480 Y102.732
G1 X61.386 Y102.261
G1 X61.441 Y101.909
G1 X61.655 Y101.689
G1 X61.931 Y101.672
G1 X62.492 Y101.915
G1 X62.602 Y101.700
G1 X62.848 Y101.722
G1 X63.654 Y102.310
G0 Z5.000 F500.000
G0 X64.199 Y103.585 F3000.000
G1 Z1.000 F500.000
G4 P100
G1 X64.020 Y103.380 F1000.000
G1 X63.848 Y102.504
G1 X63.855 Y102.059
G1 X64.011 Y101.791
G1 X64.277 Y101.847
G1 X64.600 Y102.229
G1 X64.887 Y102.349
G1 X65.161 Y103.382
G1 X65.285 Y103.553
G1 X65.161 Y103.382
G1 X64.887 Y102.349
G1 X65.030 Y101.780
G1 X65.262 Y101.682
G1 X65.562 Y101.757
G1 X65.962 Y102.109
G1 X66.091 Y102.369
G0 Z5.000 F500.000
G0 X66.477 Y103.580 F3000.000
G1 Z1.000 F500.000
G4 P100
G1 X66.326 Y103.424 F1000.000
G1 X66.214 Y102.949
G1 X66.179 Y101.644
G1 X66.146 Y102.291
G1 X66.228 Y102.641
G1 X67.317 Y102.579
G1 X67.632 Y103.528
G1 X67.317 Y102.579
G1 X67.403 Y101.763
G1 X67.661 Y101.681
G1 X67.944 Y101.764
G1 X68.334 Y102.106
G1 X68.467 Y102.371
G0 Z5.000 F500.000
G0 X68.513 Y102.264 F3000.000
G1 Z1.000 F500.000
G4 P100
G1 X69.199 Y102.461 F1000.000
G1 X69.580 Y102.801
G1 X69.651 Y103.069
G1 X69.592 Y103.316
G1 X69.434 Y103.460
G1 X69.184 Y103.506
G1 X68.771 Y103.322
G1 X68.500 Y102.869
G1 X68.457 Y102.414
G1 X68.536 Y102.048
G1 X68.683 Y101.842
G1 X69.090 Y101.657
G1 X69.611 Y101.696
G1 X70.190 Y102.018
G1 X70.432 Y102.371
G0 Z5.000 F500.000
G0 X70.817 Y103.580 F3000.000
G1 Z1.000 F500.000
G4 P100
G1 X70.666 Y103.424 F1000.000
G1 X70.554 Y102.949
G1 X70.519 Y101.644
G1 X70.486 Y102.291
G1 X70.568 Y102.641
G1 X71.657 Y102.579
G1 X71.972 Y103.528
G1 X71.657 Y102.579
G1 X71.743 Y101.763
G1 X72.001 Y101.681
G1 X72.284 Y101.764
G1 X72.674 Y102.106
G1 X72.807 Y102.371
G0 Z5.000 F500.000
G0 X73.224 Y103.585 F3000.000
G1 Z1.000 F500.000
G4 P100
G1 X73.043 Y103.373 F1000.000
G1 X72.866 Y102.431
G1 X72.893 Y102.010
G1 X73.068 Y101.776
G1 X73.314 Y101.854
G1 X73.625 Y102.229
G1 X73.912 Y102.349
G1 X74.186 Y103.382
G1 X74.310 Y103.553
G1 X74.186 Y103.382
G1 X73.912 Y102.349
G1 X74.010 Y101.871
G1 X74.143 Y101.707
G1 X74.426 Y101.694
G1 X74.704 Y101.835
G1 X75.039 Y102.180
G1 X75.064 Y102.428
G1 X74.945 Y102.048
G1 X75.162 Y101.719
G1 X75.590 Y101.672
G1 X76.022 Y101.909
G1 X76.265 Y102.182
G1 X76.320 Y102.413
G1 X75.805 Y102.604
G1 X75.661 Y103.034
G1 X75.790 Y103.369
G1 X76.124 Y103.539
G1 X76.904 Y103.413
G1 X76.679 Y102.540
G1 X76.320 Y102.413
G1 X76.679 Y102.540
G1 X76.747 Y101.937
G1 X76.862 Y101.714
G1 X77.098 Y101.686
G1 X77.359 Y101.794
G1 X77.707 Y102.118
G1 X77.834 Y102.378
G0 Z5.000 F500.000
G0 X56.947 Y95.565 F3000.000
G1 Z1.000 F500.000
G4 P100
G1 X55.952 Y95.263 F1000.000
G1 X55.710 Y94.957
G1 X55.817 Y94.591
G1 X56.612 Y93.568
G1 X56.647 Y92.832
G1 X56.767 Y92.521
G1 X56.602 Y92.099
G1 X56.340 Y91.731
G1 X55.987 Y91.569
G1 X55.605 Y91.644
G1 X55.387 Y91.943
G1 X55.348 Y92.379
G1 X55.437 Y92.814
G1 X55.641 Y93.143
G1 X55.928 Y93.325
G1 X56.611 Y93.251
G1 X56.767 Y92.521
G1 X57.196 Y92.490
G1 X57.665 Y92.631
G0 Z5.000 F500.000
G0 X58.082 Y93.466 F3000.000
G1 Z1.000 F500.000
G4 P100
G1 X57.918 Y93.243 F1000.000
G1 X57.747 Y92.278
G1 X57.790 Y91.880
G1 X57.980 Y91.676
G1 X58.231 Y91.770
G1 X58.539 Y92.156
G1 X58.831 Y92.284
G1 X59.185 Y93.446
G1 X58.831 Y92.284
G1 X58.910 Y91.603
G1 X58.636 Y91.039
G1 X58.655 Y90.708
G1 X58.431 Y89.980
G1 X58.050 Y89.382
G1 X57.815 Y89.291
G1 X57.583 Y89.347
G1 X57.448 Y89.531
G1 X57.442 Y89.816
G1 X57.774 Y90.449
G1 X58.301 Y90.957
G1 X58.636 Y91.039
G1 X58.910 Y91.603
G1 X59.286 Y91.689
G1 X59.959 Y92.213
G0 Z5.000 F500.000
G0 X61.773 Y92.777 F3000.000
G1 Z1.000 F500.000
G4 P100
G1 X61.863 Y93.071 F1000.000
G1 X61.749 Y93.332
G1 X61.480 Y93.408
G1 X61.191 Y93.299
G1 X60.896 Y92.895
G1 X60.748 Y92.233
G1 X60.245 Y92.045
G1 X60.211 Y91.620
G1 X60.183 Y92.746
G1 X60.312 Y93.309
G1 X60.489 Y93.497
G1 X60.315 Y93.315
G1 X60.192 Y92.804
G1 X60.147 Y92.339
G1 X60.245 Y92.045
G1 X60.748 Y92.233
G1 X61.102 Y91.703
G1 X61.611 Y91.561
G1 X62.060 Y91.787
G1 X62.413 Y92.277
G0 Z5.000 F500.000
G0 X63.935 Y92.506 F3000.000
G1 Z1.000 F500.000
G4 P100
G1 X63.619 Y93.248 F1000.000
G1 X63.224 Y93.488
G1 X63.256 Y93.717
G1 X63.685 Y94.524
G1 X63.820 Y95.086
G1 X63.755 Y95.610
G1 X63.627 Y95.745
G1 X63.447 Y95.769
G1 X63.234 Y95.664
G1 X63.052 Y95.417
G1 X62.704 Y94.394
G1 X62.552 Y93.440
G1 X62.587 Y93.065
G1 X62.895 Y93.150
G1 X63.237 Y93.431
G1 X62.895 Y93.150
G1 X62.587 Y93.065
G1 X62.518 Y92.479
G1 X62.612 Y91.961
G1 X62.907 Y91.623
G1 X63.342 Y91.588
G1 X63.737 Y91.898
G1 X63.935 Y92.506
G1 X64.731 Y92.606
G0 Z5.000 F500.000
G0 X66.519 Y93.488 F3000.000
G1 Z1.000 F500.000
G4 P100
G1 X66.340 Y93.283 F1000.000
G1 X66.168 Y92.407
G1 X66.175 Y91.962
G1 X66.331 Y91.694
G1 X66.597 Y91.750
G1 X66.920 Y92.132
G1 X67.207 Y92.252
G1 X67.481 Y93.285
G1 X67.605 Y93.456
G1 X67.481 Y93.285
G1 X67.207 Y92.252
G1 X67.350 Y91.683
G1 X67.582 Y91.585
G1 X67.882 Y91.660
G1 X68.282 Y92.012
G1 X68.411 Y92.272
G0 Z5.000 F500.000
G0 X55.282 Y82.250 F3000.000
G1 Z1.000 F500.000
G4 P100
G1 X55.147 Y81.984 F1000.000
G1 X55.193 Y81.638
G1 X55.381 Y81.493
G1 X55.654 Y81.527
G1 X55.914 Y81.806
G1 X56.282 Y82.831
G1 X56.598 Y83.249
G1 X56.519 Y83.101
G1 X56.695 Y82.787
G1 X56.718 Y82.154
G1 X56.889 Y81.848
G1 X56.860 Y81.474
G1 X56.889 Y81.848
G1 X57.126 Y82.069
G1 X57.524 Y82.955
G1 X57.784 Y83.152
G1 X57.958 Y82.887
G1 X57.916 Y81.939
G1 X58.054 Y81.532
G1 X58.315 Y81.481
G1 X58.574 Y81.586
G1 X58.901 Y81.918
G1 X59.008 Y82.204
G0 Z5.000 F500.000
G0 X59.414 Y83.391 F3000.000
G1 Z1.000 F500.000
G4 P100
G1 X59.235 Y83.186 F1000.000
G1 X59.063 Y82.310
G1 X59.070 Y81.865
G1 X59.226 Y81.597
G1 X59.492 Y81.653
G1 X59.815 Y82.035
G1 X60.102 Y82.155
G1 X60.376 Y83.188
G1 X60.500 Y83.359
G1 X60.376 Y83.188
G1 X60.102 Y82.155
G1 X60.245 Y81.586
G1 X60.477 Y81.488
G1 X60.777 Y81.563
G1 X61.177 Y81.915
G1 X61.306 Y82.175
G0 Z5.000 F500.000
G0 X61.692 Y83.386 F3000.000
G1 Z1.000 F500.000
G4 P100
G1 X61.541 Y83.230 F1000.000
G1 X61.429 Y82.755
G1 X61.394 Y81.450
G1 X61.361 Y82.097
G1 X61.443 Y82.447
G1 X62.532 Y82.385
G1 X62.847 Y83.334
G1 X62.532 Y82.385
G1 X62.618 Y81.569
G1 X62.876 Y81.487
G1 X63.159 Y81.570
G1 X63.549 Y81.912
G1 X63.682 Y82.177
G0 Z5.000 F500.000
G0 X64.099 Y83.391 F3000.000
G1 Z1.000 F500.000
G4 P100
G1 X63.920 Y83.186 F1000.000
G1 X63.748 Y82.310
G1 X63.755 Y81.865
G1 X63.911 Y81.597
G1 X64.177 Y81.653
G1 X64.500 Y82.035
G1 X64.787 Y82.155
G1 X65.061 Y83.188
G1 X65.185 Y83.359
G1 X65.061 Y83.188
G1 X64.787 Y82.155
G1 X64.930 Y81.586
G1 X65.162 Y81.488
G1 X65.462 Y81.563
G1 X65.862 Y81.915
G1 X65.991 Y82.175
G0 Z5.000 F500.000
G0 X65.947 Y82.250 F3000.000
G1 Z1.000 F500.000
G4 P100
G1 X65.812 Y81.984 F1000.000
G1 X65.858 Y81.638
G1 X66.046 Y81.493
G1 X66.319 Y81.527
G1 X66.579 Y81.806
G1 X66.947 Y82.831
G1 X67.263 Y83.249
G1 X67.184 Y83.101
G1 X67.360 Y82.787
G1 X67.383 Y82.154
G1 X67.554 Y81.848
G1 X67.525 Y81.474
G1 X67.554 Y81.848
G1 X67.791 Y82.069
G1 X68.189 Y82.955
G1 X68.449 Y83.152
G1 X68.623 Y82.887
G1 X68.581 Y81.939
G1 X68.719 Y81.532
G1 X68.980 Y81.481
G1 X69.239 Y81.586
G1 X69.566 Y81.918
G1 X69.673 Y82.204
G0 Z5.000 F500.000
G0 X70.052 Y83.369 F3000.000
G1 Z1.000 F500.000
G4 P100
G1 X69.888 Y83.146 F1000.000
G1 X69.717 Y82.181
G1 X69.760 Y81.783
G1 X69.950 Y81.579
G1 X70.201 Y81.673
G1 X70.509 Y82.059
G1 X70.801 Y82.187
G1 X71.155 Y83.349
G1 X70.801 Y82.187
G1 X70.880 Y81.506
G1 X70.606 Y80.942
G1 X70.625 Y80.611
G1 X70.401 Y79.883
G1 X70.020 Y79.285
G1 X69.785 Y79.194
G1 X69.553 Y79.250
G1 X69.418 Y79.434
G1 X69.412 Y79.719
G1 X69.744 Y80.352
G1 X70.271 Y80.860
G1 X70.606 Y80.942
G1 X70.880 Y81.506
G1 X71.256 Y81.592
G1 X71.929 Y82.116
G0 Z5.000 F500.000
G0 X72.012 Y82.250 F3000.000
G1 Z1.000 F500.000
G4 P100
G1 X71.877 Y81.984 F1000.000
G1 X71.923 Y81.638
G1 X72.111 Y81.493
G1 X72.384 Y81.527
G1 X72.644 Y81.806
G1 X73.012 Y82.831
G1 X73.328 Y83.249
G1 X73.249 Y83.101
G1 X73.425 Y82.787
G1 X73.448 Y82.154
G1 X73.619 Y81.848
G1 X73.590 Y81.474
G1 X73.619 Y81.848
G1 X73.856 Y82.069
G1 X74.254 Y82.955
G1 X74.514 Y83.152
G1 X74.688 Y82.887
G1 X74.646 Y81.939
G1 X74.784 Y81.532
G1 X75.045 Y81.481
G1 X75.304 Y81.586
G1 X75.631 Y81.918
G1 X75.738 Y82.204
G0 Z5.000 F500.000
G0 X55.729 Y73.303 F3000.000
G1 Z1.000 F500.000
G4 P100
G1 X55.552 Y73.114 F1000.000
G1 X55.415 Y72.499
G1 X55.495 Y71.926
G1 X55.448 Y71.419
G1 X55.495 Y71.926
G1 X55.798 Y72.124
G1 X56.219 Y72.832
G1 X56.514 Y72.997
G1 X56.739 Y72.952
G1 X56.644 Y71.679
G1 X56.720 Y71.476
G1 X56.913 Y71.396
G1 X57.342 Y71.506
G1 X57.696 Y71.844
G1 X57.906 Y72.242
G1 X58.589 Y72.546
G1 X59.050 Y72.539
G1 X59.187 Y72.456
G1 X59.163 Y72.033
G1 X58.965 Y71.620
G1 X58.692 Y71.416
G1 X58.353 Y71.375
G1 X58.059 Y71.511
G1 X57.862 Y71.789
G1 X57.796 Y72.206
G1 X57.875 Y72.658
G1 X58.074 Y72.980
G1 X58.374 Y73.169
G1 X58.642 Y73.197
G1 X58.862 Y73.092
G1 X59.220 Y72.312
G1 X59.618 Y72.305
G1 X60.026 Y72.424
G0 Z5.000 F500.000
G0 X61.016 Y70.842 F3000.000
G1 Z1.000 F500.000
G4 P100
G1 X61.012 Y70.425 F1000.000
G1 X60.635 Y69.429
G1 X60.325 Y69.128
G1 X59.965 Y69.151
G1 X59.810 Y69.480
G1 X59.971 Y69.991
G1 X60.636 Y70.725
G1 X61.016 Y70.842
G1 X61.275 Y71.402
G1 X61.167 Y71.624
G1 X61.440 Y72.969
G1 X61.001 Y73.231
G1 X60.679 Y73.109
G1 X60.391 Y72.853
G1 X60.155 Y72.441
G1 X60.061 Y71.970
G1 X60.116 Y71.618
G1 X60.330 Y71.398
G1 X60.606 Y71.381
G1 X61.167 Y71.624
G1 X61.277 Y71.409
G1 X61.523 Y71.431
G1 X62.329 Y72.019
G0 Z5.000 F500.000
G0 X63.963 Y71.553 F3000.000
G1 Z1.000 F500.000
G4 P100
G1 X64.094 Y72.076 F1000.000
G1 X63.971 Y72.430
G1 X63.623 Y72.571
G1 X63.211 Y72.446
G1 X62.874 Y72.783
G1 X63.008 Y73.110
G1 X63.423 Y73.267
G1 X63.008 Y73.110
G1 X62.425 Y73.320
G1 X63.008 Y73.110
G1 X62.772 Y72.599
G1 X62.771 Y72.351
G1 X63.211 Y72.446
G1 X62.761 Y72.347
G1 X62.690 Y72.150
G1 X62.717 Y71.746
G1 X62.993 Y71.435
G1 X63.351 Y71.359
G1 X63.963 Y71.553
G1 X64.171 Y71.396
G1 X64.498 Y71.415
G1 X64.918 Y71.700
G1 X65.166 Y72.078
G0 Z5.000 F500.000
G0 X65.213 Y71.973 F3000.000
G1 Z1.000 F500.000
G4 P100
G1 X65.899 Y72.170 F1000.000
G1 X66.280 Y72.510
G1 X66.351 Y72.778
G1 X66.292 Y73.025
G1 X66.134 Y73.169
G1 X65.884 Y73.215
G1 X65.471 Y73.031
G1 X65.200 Y72.578
G1 X65.157 Y72.123
G1 X65.236 Y71.757
G1 X65.383 Y71.551
G1 X65.790 Y71.366
G1 X66.311 Y71.405
G1 X66.890 Y71.727
G1 X67.132 Y72.080
G0 Z5.000 F500.000
G0 X67.087 Y72.153 F3000.000
G1 Z1.000 F500.000
G4 P100
G1 X66.952 Y71.887 F1000.000
G1 X66.998 Y71.541
G1 X67.186 Y71.396
G1 X67.459 Y71.430
G1 X67.719 Y71.709
G1 X68.087 Y72.734
G1 X68.403 Y73.152
G1 X68.324 Y73.004
G1 X68.500 Y72.690
G1 X68.523 Y72.057
G1 X68.694 Y71.751
G1 X68.665 Y71.377
G1 X68.694 Y71.751
G1 X68.931 Y71.972
G1 X69.302 Y72.815
G1 X69.638 Y73.061
G1 X69.768 Y72.754
G1 X69.739 Y71.697
G1 X69.815 Y71.484
G1 X69.950 Y71.395
G1 X70.219 Y71.406
G1 X70.477 Y71.568
G1 X70.739 Y71.871
G1 X70.898 Y72.269
G1 X71.075 Y72.401
G1 X71.826 Y72.575
G1 X72.181 Y72.456
G1 X72.180 Y72.126
G1 X72.016 Y71.697
G1 X71.779 Y71.462
G1 X71.472 Y71.368
G1 X71.032 Y71.531
G1 X70.808 Y71.973
G1 X70.860 Y72.631
G1 X71.186 Y73.079
G1 X71.527 Y73.201
G1 X71.819 Y73.124
G1 X72.215 Y72.312
G1 X72.613 Y72.305
G1 X73.021 Y72.424
G0 Z5.000 F500.000
G0 X74.580 Y72.312 F3000.000
G1 Z1.000 F500.000
G4 P100
G1 X74.264 Y73.054 F1000.000
G1 X73.869 Y73.294
G1 X73.901 Y73.523
G1 X74.330 Y74.330
G1 X74.465 Y74.892
G1 X74.400 Y75.416
G1 X74.272 Y75.551
G1 X74.092 Y75.575
G1 X73.879 Y75.470
G1 X73.697 Y75.223
G1 X73.349 Y74.200
G1 X73.197 Y73.246
G1 X73.232 Y72.871
G1 X73.540 Y72.956
G1 X73.882 Y73.237
G1 X73.540 Y72.956
G1 X73.232 Y72.871
G1 X73.163 Y72.285
G1 X73.257 Y71.767
G1 X73.552 Y71.429
G1 X73.987 Y71.394
G1 X74.382 Y71.704
G1 X74.580 Y72.312
G1 X75.376 Y72.412
G0 Z5.000 F500.000
G0 X66.573 Y74.143 F3000.000
G1 Z1.000 F500.000
G4 P100
G1 X66.590 Y74.209 F1000.000
G0 Z5.000 F500.000
G0 X65.550 Y74.209 F3000.000
G1 Z1.000 F500.000
G4 P100
G1 X65.545 Y74.158 F1000.000
G0 Z5.000 F500.000
G0 X55.729 Y63.206 F3000.000
G1 Z1.000 F500.000
G4 P100
G1 X55.552 Y63.017 F1000.000
G1 X55.415 Y62.402
G1 X55.495 Y61.829
G1 X55.448 Y61.322
G1 X55.495 Y61.829
G1 X55.774 Y62.000
G1 X56.157 Y62.662
G1 X56.479 Y62.891
G1 X56.692 Y62.915
G1 X56.746 Y62.824
G1 X56.639 Y61.677
G1 X56.748 Y61.356
G1 X57.023 Y61.293
G1 X57.299 Y61.381
G1 X57.669 Y61.713
G1 X57.807 Y61.983
G0 Z5.000 F500.000
G0 X57.853 Y61.876 F3000.000
G1 Z1.000 F500.000
G4 P100
G1 X58.539 Y62.073 F1000.000
G1 X58.920 Y62.413
G1 X58.991 Y62.681
G1 X58.932 Y62.928
G1 X58.774 Y63.072
G1 X58.524 Y63.118
G1 X58.111 Y62.934
G1 X57.840 Y62.481
G1 X57.797 Y62.026
G1 X57.876 Y61.660
G1 X58.023 Y61.454
G1 X58.430 Y61.269
G1 X58.951 Y61.308
G1 X59.530 Y61.630
G1 X59.772 Y61.983
G0 Z5.000 F500.000
G0 X60.855 Y61.524 F3000.000
G1 Z1.000 F500.000
G4 P100
G1 X61.168 Y62.291 F1000.000
G1 X61.113 Y62.912
G1 X60.939 Y63.074
G1 X60.710 Y63.104
G1 X59.969 Y62.752
G1 X59.930 Y63.092
G1 X59.912 Y62.015
G1 X59.813 Y61.612
G1 X59.952 Y61.260
G1 X59.740 Y59.779
G1 X59.489 Y59.113
G1 X59.294 Y58.997
G1 X59.081 Y59.036
G1 X58.921 Y59.370
G1 X58.954 Y59.960
G1 X59.184 Y60.776
G1 X59.518 Y61.472
G1 X59.813 Y61.612
G1 X59.952 Y61.260
G1 X60.045 Y61.248
G1 X60.400 Y61.285
G1 X60.855 Y61.524
G1 X61.104 Y61.312
G1 X61.430 Y61.298
G1 X61.882 Y61.555
G1 X62.181 Y61.995
G0 Z5.000 F500.000
G0 X63.346 Y61.719 F3000.000
G1 Z1.000 F500.000
G4 P100
G1 X63.561 Y62.899 F1000.000
G1 X63.065 Y63.123
G1 X62.611 Y62.869
G1 X62.284 Y62.379
G1 X62.178 Y61.750
G1 X62.357 Y61.355
G1 X62.781 Y61.295
G1 X63.346 Y61.719
G1 X63.575 Y61.347
G1 X63.866 Y61.302
G1 X64.292 Y61.605
G1 X64.527 Y61.986
G0 Z5.000 F500.000
G0 X64.629 Y61.458 F3000.000
G1 Z1.000 F500.000
G4 P100
G1 X64.665 Y61.495 F1000.000
G0 Z5.000 F500.000
G0 X86.346 Y112.976 F3000.000
G1 Z1.000 F500.000
G4 P100
G1 X86.427 Y113.302 F1000.000
G1 X86.266 Y113.557
G1 X85.931 Y113.585
G1 X85.603 Y113.385
G1 X85.313 Y112.727
G1 X85.320 Y112.340
G1 X85.439 Y112.035
G1 X85.762 Y111.795
G1 X86.210 Y111.771
G1 X86.592 Y111.976
G1 X86.790 Y112.336
G0 Z5.000 F500.000
G0 X87.571 Y113.682 F3000.000
G1 Z1.000 F500.000
G4 P100
G1 X87.408 Y113.518 F1000.000
G1 X87.281 Y113.006
G1 X87.256 Y112.053
G1 X87.382 Y111.885
G1 X87.551 Y111.895
G1 X87.987 Y112.341
G1 X88.315 Y112.456
G1 X88.359 Y111.816
G1 X88.315 Y112.456
G1 X88.640 Y113.625
G0 Z5.000 F500.000
G0 X89.849 Y113.677 F3000.000
G1 Z1.000 F500.000
G4 P100
G1 X89.699 Y113.521 F1000.000
G1 X89.543 Y112.837
G1 X89.629 Y112.317
G1 X89.585 Y111.789
G1 X89.629 Y112.317
G1 X89.923 Y112.501
G1 X90.455 Y113.301
G1 X90.823 Y113.398
G1 X90.911 Y113.508
G1 X90.823 Y113.398
G1 X91.011 Y112.793
G1 X90.965 Y112.700
G1 X91.216 Y112.881
G0 Z5.000 F500.000
G0 X91.836 Y113.586 F3000.000
G1 Z1.000 F500.000
G4 P100
G1 X91.865 Y112.117 F1000.000
G1 X91.951 Y111.877
G1 X92.097 Y111.809
G1 X92.420 Y112.004
G1 X93.252 Y113.599
G1 X93.381 Y113.620
G1 X93.475 Y113.510
G1 X93.760 Y112.564
G1 X94.027 Y112.366
G1 X94.629 Y112.519
G1 X95.009 Y112.774
G1 X95.168 Y113.151
G1 X95.042 Y113.498
G1 X94.598 Y113.588
G1 X94.185 Y113.304
G1 X93.974 Y112.764
G1 X94.038 Y112.170
G1 X94.357 Y111.816
G1 X94.902 Y111.758
G1 X95.295 Y111.955
G1 X95.586 Y112.460
G1 X95.714 Y112.507
G1 X96.078 Y112.382
G1 X96.700 Y111.848
G1 X97.102 Y111.221
G1 X97.118 Y110.897
G1 X96.738 Y109.832
G1 X96.515 Y109.573
G1 X96.256 Y109.483
G1 X95.941 Y109.659
G1 X95.939 Y110.124
G1 X96.462 Y110.882
G1 X96.802 Y111.170
G1 X97.102 Y111.221
G1 X97.194 Y111.370
G1 X97.497 Y113.481
G1 X97.603 Y113.620
G0 Z5.000 F500.000
G0 X98.828 Y113.401 F3000.000
G1 Z1.000 F500.000
G4 P100
G1 X99.062 Y113.529 F1000.000
G1 X99.416 Y113.555
G1 X99.649 Y113.456
G1 X99.811 Y113.225
G1 X99.898 Y112.782
G1 X99.836 Y112.356
G1 X99.686 Y112.025
G1 X99.457 Y111.839
G1 X98.946 Y111.809
G1 X98.635 Y112.117
G1 X98.561 Y112.734
G1 X98.655 Y113.132
G1 X98.828 Y113.401
G0 Z5.000 F500.000
G0 X100.744 Y111.755 F3000.000
G1 Z1.000 F500.000
G4 P100
G1 X101.047 Y113.463 F1000.000
G1 X101.145 Y113.601
G0 Z5.000 F500.000
G0 X102.402 Y113.669 F3000.000
G1 Z1.000 F500.000
G4 P100
G1 X102.239 Y113.415 F1000.000
G1 X102.126 Y112.894
G1 X102.153 Y111.794
G1 X102.160 Y112.317
G1 X102.532 Y112.544
G1 X102.909 Y113.208
G1 X103.471 Y113.398
G1 X103.493 Y113.494
G1 X103.359 Y111.831
G0 Z5.000 F500.000
G0 X97.542 Y114.553 F3000.000
G1 Z1.000 F500.000
G4 P100
G1 X97.676 Y114.575 F1000.000
G0 Z5.000 F500.000
G0 X101.196 Y114.553 F3000.000
G1 Z1.000 F500.000
G4 P100
G1 X101.330 Y114.575 F1000.000
G0 Z5.000 F500.000
G0 X85.067 Y103.511 F3000.000
G1 Z1.000 F500.000
G4 P100
G1 X85.539 Y103.480 F1000.000
G1 X85.672 Y103.592
G1 X85.694 Y104.136
G1 X85.977 Y105.058
G1 X86.250 Y105.452
G1 X86.573 Y105.526
G1 X86.749 Y105.273
G1 X86.732 Y104.758
G1 X86.111 Y103.594
G1 X86.462 Y103.524
G1 X86.883 Y103.604
G1 X86.462 Y103.524
G1 X85.672 Y103.592
G1 X85.584 Y103.497
G1 X85.593 Y102.460
G1 X85.767 Y101.899
G1 X86.037 Y101.698
G1 X86.405 Y101.695
G1 X86.985 Y102.161
G1 X88.173 Y102.560
G1 X88.415 Y102.847
G1 X88.450 Y103.193
G1 X88.290 Y103.436
G1 X87.966 Y103.503
G1 X87.593 Y103.331
G1 X87.332 Y102.930
G1 X87.261 Y102.477
G1 X87.398 Y101.935
G1 X87.733 Y101.686
G1 X88.204 Y101.663
G1 X88.590 Y101.858
G1 X88.806 Y102.225
G0 Z5.000 F500.000
G0 X88.896 Y101.871 F3000.000
G1 Z1.000 F500.000
G4 P100
G1 X89.574 Y102.803 F1000.000
G1 X89.814 Y102.977
G1 X89.929 Y103.456
G1 X90.095 Y103.611
G1 X89.929 Y103.456
G1 X89.814 Y102.977
G1 X90.284 Y102.353
G1 X90.364 Y101.953
G1 X90.142 Y101.662
G1 X89.734 Y101.663
G0 Z5.000 F500.000
G0 X91.132 Y103.511 F3000.000
G1 Z1.000 F500.000
G4 P100
G1 X91.604 Y103.480 F1000.000
G1 X91.737 Y103.592
G1 X91.768 Y104.179
G1 X92.074 Y105.124
G1 X92.369 Y105.489
G1 X92.701 Y105.491
G1 X92.828 Y105.179
G1 X92.785 Y104.708
G1 X92.176 Y103.594
G1 X92.527 Y103.524
G1 X92.948 Y103.604
G1 X92.527 Y103.524
G1 X91.737 Y103.592
G1 X91.649 Y103.497
G1 X91.639 Y102.722
G1 X91.731 Y102.111
G1 X91.964 Y101.765
G1 X92.428 Y101.685
G1 X92.799 Y101.932
G0 Z5.000 F500.000
G0 X94.695 Y102.137 F3000.000
G1 Z1.000 F500.000
G4 P100
G1 X94.821 Y101.835 F1000.000
G1 X95.217 Y101.644
G1 X95.718 Y101.652
G1 X96.085 Y101.871
G1 X96.235 Y102.198
G1 X96.167 Y102.552
G1 X95.801 Y102.832
G1 X94.962 Y103.042
G1 X95.073 Y103.960
G1 X94.802 Y104.009
G1 X96.419 Y104.041
G0 Z5.000 F500.000
G0 X97.532 Y103.270 F3000.000
G1 Z1.000 F500.000
G4 P100
G1 X97.573 Y103.309 F1000.000
G0 Z5.000 F500.000
G0 X97.397 Y101.883 F3000.000
G1 Z1.000 F500.000
G4 P100
G1 X97.361 Y101.846 F1000.000
G0 Z5.000 F500.000
G0 X85.716 Y93.497 F3000.000
G1 Z1.000 F500.000
G4 P100
G1 X85.540 Y93.308 F1000.000
G1 X85.404 Y92.695
G1 X85.435 Y91.613
G1 X85.479 Y92.130
G1 X85.778 Y92.323
G1 X86.059 Y92.875
G1 X86.283 Y93.114
G1 X86.583 Y93.207
G1 X86.673 Y93.145
G1 X86.660 Y92.428
G1 X86.744 Y92.157
G1 X86.673 Y91.598
G1 X86.744 Y92.157
G1 X87.040 Y92.352
G1 X87.478 Y93.056
G1 X87.911 Y93.205
G1 X88.001 Y92.858
G1 X87.884 Y91.620
G1 X87.941 Y91.478
G1 X88.305 Y91.398
G1 X89.030 Y91.591
G1 X89.196 Y92.829
G1 X89.380 Y93.407
G0 Z5.000 F500.000
G0 X90.637 Y93.475 F3000.000
G1 Z1.000 F500.000
G4 P100
G1 X90.474 Y93.221 F1000.000
G1 X90.361 Y92.700
G1 X90.388 Y91.600
G1 X90.395 Y92.123
G1 X90.767 Y92.350
G1 X91.144 Y93.014
G1 X91.706 Y93.204
G1 X91.728 Y93.300
G1 X91.583 Y91.668
G1 X91.690 Y91.500
G1 X92.057 Y91.413
G1 X92.740 Y91.591
G1 X92.906 Y92.829
G1 X93.090 Y93.407
G0 Z5.000 F500.000
G0 X94.376 Y93.497 F3000.000
G1 Z1.000 F500.000
G4 P100
G1 X94.200 Y93.308 F1000.000
G1 X94.064 Y92.695
G1 X94.095 Y91.613
G1 X94.139 Y92.130
G1 X94.442 Y92.328
G1 X94.852 Y93.041
G1 X95.258 Y93.208
G1 X95.361 Y92.987
G1 X95.319 Y92.442
G1 X95.404 Y92.157
G1 X95.333 Y91.598
G1 X95.404 Y92.157
G1 X95.700 Y92.352
G1 X96.149 Y93.066
G1 X96.607 Y93.190
G1 X96.660 Y92.821
G1 X96.544 Y91.620
G0 Z5.000 F500.000
G0 X98.111 Y93.488 F3000.000
G1 Z1.000 F500.000
G4 P100
G1 X97.948 Y93.324 F1000.000
G1 X97.821 Y92.812
G1 X97.796 Y91.859
G1 X97.922 Y91.691
G1 X98.091 Y91.701
G1 X98.527 Y92.147
G1 X98.855 Y92.262
G1 X98.899 Y91.622
G1 X98.855 Y92.262
G1 X99.180 Y93.431
G0 Z5.000 F500.000
G0 X100.406 Y93.497 F3000.000
G1 Z1.000 F500.000
G4 P100
G1 X100.230 Y93.308 F1000.000
G1 X100.094 Y92.695
G1 X100.125 Y91.613
G1 X100.169 Y92.130
G1 X100.472 Y92.328
G1 X100.882 Y93.041
G1 X101.288 Y93.208
G1 X101.391 Y92.987
G1 X101.349 Y92.442
G1 X101.434 Y92.157
G1 X101.363 Y91.598
G1 X101.434 Y92.157
G1 X101.730 Y92.352
G1 X102.179 Y93.066
G1 X102.637 Y93.190
G1 X102.690 Y92.821
G1 X102.574 Y91.620
G0 Z5.000 F500.000
G0 X105.246 Y93.043 F3000.000
G1 Z1.000 F500.000
G4 P100
G1 X105.509 Y93.102 F1000.000
G1 X105.901 Y93.375
G1 X106.211 Y93.367
G1 X106.443 Y93.073
G1 X106.438 Y92.544
G1 X106.199 Y91.999
G1 X105.791 Y91.629
G1 X105.229 Y91.551
G1 X105.090 Y91.903
G1 X104.705 Y91.648
G1 X104.366 Y90.790
G1 X104.201 Y90.048
G1 X104.229 Y89.517
G1 X104.452 Y89.288
G1 X104.646 Y89.312
G1 X104.807 Y89.457
G1 X105.034 Y90.149
G1 X105.229 Y91.551
G1 X105.090 Y91.903
G1 X105.246 Y93.043
G1 X105.184 Y93.335
G1 X105.261 Y93.446
G0 Z5.000 F500.000
G0 X107.497 Y92.172 F3000.000
G1 Z1.000 F500.000
G4 P100
G1 X108.172 Y92.358 F1000.000
G1 X108.560 Y92.691
G1 X108.637 Y92.942
G1 X108.592 Y93.193
G1 X108.453 Y93.347
G1 X108.222 Y93.409
G1 X107.824 Y93.280
G1 X107.531 Y92.895
G1 X107.434 Y92.409
G1 X107.557 Y91.863
G1 X107.887 Y91.597
G1 X108.364 Y91.563
G1 X108.765 Y91.761
G1 X108.981 Y92.128
G0 Z5.000 F500.000
G0 X109.792 Y93.475 F3000.000
G1 Z1.000 F500.000
G4 P100
G1 X109.629 Y93.221 F1000.000
G1 X109.516 Y92.700
G1 X109.543 Y91.600
G1 X109.550 Y92.123
G1 X109.922 Y92.350
G1 X110.299 Y93.014
G1 X110.861 Y93.204
G1 X110.883 Y93.300
G1 X110.749 Y91.637
G0 Z5.000 F500.000
G0 X89.431 Y94.359 F3000.000
G1 Z1.000 F500.000
G4 P100
G1 X89.565 Y94.381 F1000.000
G0 Z5.000 F500.000
G0 X93.141 Y94.359 F3000.000
G1 Z1.000 F500.000
G4 P100
G1 X93.275 Y94.381 F1000.000
G0 Z5.000 F500.000
G0 X85.506 Y82.477 F3000.000
G1 Z1.000 F500.000
G4 P100
G1 X85.782 Y82.590 F1000.000
G1 X85.975 Y82.833
G1 X86.417 Y83.718
G1 X86.666 Y84.497
G1 X86.730 Y85.085
G1 X86.657 Y85.494
G1 X86.452 Y85.671
G1 X86.164 Y85.588
G1 X85.847 Y85.077
G1 X85.552 Y84.052
G1 X85.409 Y82.904
G1 X85.506 Y82.477
G1 X85.458 Y82.069
G1 X85.604 Y81.704
G1 X85.826 Y81.522
G1 X86.256 Y81.506
G1 X86.573 Y81.745
G1 X86.889 Y81.464
G1 X87.243 Y83.280
G1 X87.468 Y83.353
G1 X88.240 Y83.016
G1 X88.614 Y82.995
G1 X88.890 Y83.162
G1 X89.336 Y83.771
G1 X89.646 Y84.410
G1 X89.777 Y85.008
G1 X89.723 Y85.492
G1 X89.475 Y85.676
G1 X89.188 Y85.546
G1 X88.917 Y85.114
G1 X88.411 Y83.388
G1 X88.439 Y82.978
G1 X88.272 Y82.230
G1 X88.270 Y81.112
G1 X88.370 Y80.226
G1 X88.557 Y79.915
G1 X88.863 Y79.974
G1 X89.033 Y80.347
G1 X88.916 Y82.219
G1 X89.027 Y82.323
G1 X89.816 Y82.377
G0 Z5.000 F500.000
G0 X89.782 Y83.317 F3000.000
G1 Z1.000 F500.000
G4 P100
G1 X90.254 Y83.286 F1000.000
G1 X90.387 Y83.398
G1 X90.416 Y83.977
G1 X90.717 Y84.917
G1 X91.007 Y85.287
G1 X91.340 Y85.306
G1 X91.477 Y84.999
G1 X91.437 Y84.521
G1 X90.826 Y83.400
G1 X91.177 Y83.330
G1 X91.598 Y83.410
G1 X91.177 Y83.330
G1 X90.387 Y83.398
G1 X90.299 Y83.303
G1 X90.366 Y81.965
G1 X90.532 Y81.642
G1 X90.801 Y81.491
G1 X91.183 Y81.521
G1 X91.449 Y81.738
G1 X91.646 Y81.677
G1 X92.324 Y82.609
G1 X92.564 Y82.783
G1 X92.679 Y83.262
G1 X92.845 Y83.417
G1 X92.679 Y83.262
G1 X92.564 Y82.783
G1 X93.034 Y82.159
G1 X93.114 Y81.759
G1 X92.892 Y81.468
G1 X92.484 Y81.469
G0 Z5.000 F500.000
G0 X96.608 Y81.828 F3000.000
G1 Z1.000 F500.000
G4 P100
G1 X96.832 Y83.074 F1000.000
G1 X96.397 Y83.327
G1 X96.015 Y83.169
G1 X95.694 Y82.829
G1 X95.497 Y82.375
G1 X95.460 Y81.896
G1 X95.557 Y81.622
G1 X95.749 Y81.481
G1 X95.993 Y81.492
G1 X96.303 Y81.753
G1 X96.608 Y81.828
G1 X96.645 Y81.533
G0 Z5.000 F500.000
G0 X98.177 Y83.378 F3000.000
G1 Z1.000 F500.000
G4 P100
G1 X98.014 Y83.124 F1000.000
G1 X97.901 Y82.603
G1 X97.928 Y81.503
G1 X97.935 Y82.026
G1 X98.307 Y82.253
G1 X98.684 Y82.917
G1 X99.246 Y83.107
G1 X99.268 Y83.203
G1 X99.134 Y81.540
G0 Z5.000 F500.000
G0 X101.536 Y83.273 F3000.000
G1 Z1.000 F500.000
G4 P100
G1 X101.917 Y85.287 F1000.000
G1 X102.106 Y85.595
G1 X102.446 Y85.626
G1 X102.601 Y85.281
G1 X102.572 Y84.647
G1 X102.037 Y83.044
G1 X101.572 Y82.766
G1 X101.461 Y82.957
G1 X101.495 Y83.317
G1 X101.025 Y83.260
G1 X100.707 Y83.054
G1 X100.458 Y82.721
G1 X100.332 Y82.333
G1 X100.309 Y81.955
G1 X100.470 Y81.555
G1 X100.684 Y81.473
G1 X101.005 Y81.546
G1 X101.577 Y81.891
G1 X101.763 Y81.457
G1 X101.576 Y81.899
G1 X101.572 Y82.766
G0 Z5.000 F500.000
G0 X87.341 Y84.262 F3000.000
G1 Z1.000 F500.000
G4 P100
G1 X87.475 Y84.284 F1000.000
G0 Z5.000 F500.000
G0 X84.966 Y71.580 F3000.000
G1 Z1.000 F500.000
G4 P100
G1 X85.644 Y72.512 F1000.000
G1 X85.884 Y72.686
G1 X85.999 Y73.165
G1 X86.165 Y73.320
G1 X85.999 Y73.165
G1 X85.884 Y72.686
G1 X86.354 Y72.062
G1 X86.434 Y71.662
G1 X86.212 Y71.371
G1 X85.804 Y71.372
G0 Z5.000 F500.000
G0 X87.202 Y73.220 F3000.000
G1 Z1.000 F500.000
G4 P100
G1 X87.674 Y73.189 F1000.000
G1 X87.807 Y73.301
G1 X87.838 Y73.888
G1 X88.144 Y74.833
G1 X88.439 Y75.198
G1 X88.771 Y75.200
G1 X88.898 Y74.888
G1 X88.855 Y74.417
G1 X88.246 Y73.303
G1 X88.597 Y73.233
G1 X89.018 Y73.313
G1 X88.597 Y73.233
G1 X87.807 Y73.301
G1 X87.719 Y73.206
G1 X87.709 Y72.431
G1 X87.801 Y71.820
G1 X88.034 Y71.474
G1 X88.498 Y71.394
G1 X88.869 Y71.641
G0 Z5.000 F500.000
G0 X90.568 Y71.731 F3000.000
G1 Z1.000 F500.000
G4 P100
G1 X90.792 Y72.977 F1000.000
G1 X90.357 Y73.230
G1 X89.975 Y73.072
G1 X89.654 Y72.732
G1 X89.457 Y72.278
G1 X89.420 Y71.799
G1 X89.517 Y71.525
G1 X89.709 Y71.384
G1 X89.953 Y71.395
G1 X90.263 Y71.656
G1 X90.568 Y71.731
G1 X90.605 Y71.436
G0 Z5.000 F500.000
G0 X91.939 Y72.876 F3000.000
G1 Z1.000 F500.000
G4 P100
G1 X92.243 Y72.954 F1000.000
G1 X92.593 Y73.215
G1 X92.906 Y73.117
G1 X93.112 Y72.916
G1 X93.236 Y72.549
G1 X93.217 Y72.098
G1 X93.077 Y71.723
G1 X92.831 Y71.466
G1 X92.461 Y71.375
G1 X92.118 Y71.523
G1 X91.925 Y71.870
G1 X91.870 Y72.409
G1 X91.950 Y73.620
G1 X92.197 Y74.718
G1 X92.517 Y75.398
G1 X92.889 Y75.577
G1 X93.132 Y75.360
G1 X93.167 Y74.853
G1 X93.014 Y74.275
G1 X92.594 Y73.489
G1 X92.593 Y73.215
G0 Z5.000 F500.000
G0 X94.321 Y72.380 F3000.000
G1 Z1.000 F500.000
G4 P100
G1 X94.573 Y72.476 F1000.000
G1 X94.752 Y72.673
G1 X95.412 Y74.130
G1 X95.536 Y75.149
G1 X95.440 Y75.456
G1 X95.252 Y75.577
G1 X95.002 Y75.509
G1 X94.794 Y75.257
G1 X94.394 Y74.084
G1 X94.222 Y72.742
G1 X94.321 Y72.380
G1 X94.271 Y71.987
G1 X94.388 Y71.656
G1 X94.661 Y71.416
G1 X95.057 Y71.405
G1 X95.296 Y71.527
G1 X95.635 Y71.915
G1 X96.665 Y72.278
G1 X96.898 Y72.562
G1 X96.930 Y72.902
G1 X96.777 Y73.141
G1 X96.453 Y73.213
G1 X96.078 Y73.045
G1 X95.814 Y72.646
G1 X95.740 Y72.193
G1 X95.874 Y71.650
G1 X96.206 Y71.398
G1 X96.677 Y71.370
G1 X97.070 Y71.567
G1 X97.286 Y71.934
G0 Z5.000 F500.000
G0 X85.489 Y62.779 F3000.000
G1 Z1.000 F500.000
G4 P100
G1 X85.793 Y62.857 F1000.000
G1 X86.143 Y63.118
G1 X86.456 Y63.020
G1 X86.662 Y62.819
G1 X86.786 Y62.452
G1 X86.767 Y62.001
G1 X86.627 Y61.626
G1 X86.381 Y61.369
G1 X86.011 Y61.278
G1 X85.668 Y61.426
G1 X85.475 Y61.773
G1 X85.420 Y62.312
G1 X85.500 Y63.523
G1 X85.747 Y64.621
G1 X86.067 Y65.301
G1 X86.439 Y65.480
G1 X86.682 Y65.263
G1 X86.717 Y64.756
G1 X86.564 Y64.178
G1 X86.144 Y63.392
G1 X86.143 Y63.118
G0 Z5.000 F500.000
G0 X88.833 Y61.634 F3000.000
G1 Z1.000 F500.000
G4 P100
G1 X89.053 Y62.893 F1000.000
G1 X88.666 Y63.136
G1 X88.198 Y62.944
G1 X87.923 Y62.641
G1 X87.744 Y62.259
G1 X87.676 Y61.825
G1 X87.752 Y61.478
G1 X87.913 Y61.313
G1 X88.133 Y61.275
G1 X88.535 Y61.562
G1 X88.833 Y61.634
G1 X88.937 Y61.227
G1 X89.107 Y61.207
G1 X89.681 Y61.483
G1 X90.359 Y62.415
G1 X90.599 Y62.589
G1 X90.714 Y63.068
G1 X90.880 Y63.223
G1 X90.714 Y63.068
G1 X90.599 Y62.589
G1 X91.069 Y61.965
G1 X91.149 Y61.565
G1 X90.927 Y61.274
G1 X90.519 Y61.275
G0 Z5.000 F500.000
G0 X92.207 Y61.881 F3000.000
G1 Z1.000 F500.000
G4 P100
G1 X92.915 Y62.083 F1000.000
G1 X93.294 Y62.445
G1 X93.347 Y62.725
G1 X93.256 Y62.976
G1 X93.048 Y63.102
G1 X92.771 Y63.101
G1 X92.347 Y62.796
G1 X92.148 Y62.220
G1 X92.253 Y61.597
G1 X92.625 Y61.296
G1 X92.995 Y61.260
G1 X93.334 Y61.367
G1 X93.933 Y62.137
G1 X94.690 Y62.487
G1 X95.243 Y63.551
G1 X95.518 Y64.512
G1 X95.478 Y65.286
G1 X95.335 Y65.455
G1 X95.113 Y65.467
G1 X94.887 Y65.301
G1 X94.679 Y64.923
G1 X94.310 Y63.533
G1 X94.223 Y62.681
G1 X94.321 Y62.283
G1 X94.265 Y61.940
G1 X94.488 Y61.426
G1 X94.963 Y61.289
G1 X95.232 Y61.382
G1 X95.388 Y61.551
G1 X95.747 Y61.289
G1 X95.926 Y62.567
G1 X96.105 Y63.116
G0 Z5.000 F500.000
G0 X97.362 Y63.184 F3000.000
G1 Z1.000 F500.000
G4 P100
G1 X97.199 Y62.930 F1000.000
G1 X97.086 Y62.409
G1 X97.113 Y61.309
G1 X97.120 Y61.832
G1 X97.492 Y62.059
G1 X97.869 Y62.723
G1 X98.431 Y62.913
G1 X98.453 Y63.009
G1 X98.306 Y61.399
G1 X98.403 Y61.241
G1 X99.317 Y61.808
G1 X100.107 Y62.031
G1 X100.494 Y62.289
G1 X100.645 Y62.593
G1 X100.604 Y62.908
G1 X100.402 Y63.087
G1 X100.083 Y63.103
G1 X99.731 Y62.892
G1 X99.503 Y62.487
G1 X99.452 Y62.067
G1 X99.601 Y61.529
G1 X99.937 Y61.294
G1 X100.408 Y61.278
G1 X100.791 Y61.480
G1 X100.996 Y61.837
G0 Z5.000 F500.000
G0 X96.156 Y64.068 F3000.000
G1 Z1.000 F500.000
G4 P100
G1 X96.290 Y64.090 F1000.000
G0 Z5.000 F500.000
G0 X115.351 Y113.921 F3000.000
G1 Z1.000 F500.000
G4 P100
G1 X116.023 Y114.069 F1000.000
G1 X116.109 Y113.934
G1 X115.805 Y111.848
G0 Z5.000 F500.000
G0 X117.756 Y113.015 F3000.000
G1 Z1.000 F500.000
G4 P100
G1 X118.259 Y112.930 F1000.000
G1 X118.667 Y112.576
G1 X118.764 Y112.284
G1 X118.677 Y112.030
G1 X118.450 Y111.839
G1 X117.719 Y111.750
G1 X117.334 Y111.916
G1 X117.192 Y112.233
G1 X117.295 Y112.534
G1 X117.756 Y113.015
G1 X117.464 Y113.332
G1 X117.383 Y113.593
G1 X117.470 Y113.900
G1 X117.733 Y114.114
G1 X118.395 Y114.174
G1 X118.796 Y113.898
G1 X118.770 Y113.482
G1 X118.259 Y112.930
G0 Z5.000 F500.000
G0 X119.842 Y111.943 F3000.000
G1 Z1.000 F500.000
G4 P100
G1 X119.879 Y111.980 F1000.000
G0 Z5.000 F500.000
G0 X121.052 Y112.234 F3000.000
G1 Z1.000 F500.000
G4 P100
G1 X121.178 Y111.932 F1000.000
G1 X121.573 Y111.741
G1 X122.075 Y111.749
G1 X122.442 Y111.968
G1 X122.591 Y112.295
G1 X122.524 Y112.649
G1 X122.157 Y112.929
G1 X121.319 Y113.139
G1 X121.430 Y114.057
G1 X121.159 Y114.106
G1 X122.775 Y114.138
G0 Z5.000 F500.000
G0 X84.195 Y16.083 F3000.000
G1 Z1.000 F500.000
G4 P100
G1 X84.334 Y16.452 F1000.000
G1 X84.712 Y16.634
G1 X85.162 Y16.568
G1 X85.377 Y16.245
G1 X85.330 Y15.900
G1 X85.095 Y15.531
G1 X84.480 Y15.040
G1 X84.349 Y14.835
G1 X84.030 Y14.700
G1 X84.349 Y14.835
G1 X84.757 Y14.709
G1 X85.486 Y14.730
G0 Z5.000 F500.000
G0 X82.921 Y14.765 F3000.000
G1 Z1.000 F500.000
G4 P100
G1 X83.164 Y16.434 F1000.000
G1 X83.095 Y16.542
G1 X82.558 Y16.423
G0 Z5.000 F500.000
G0 X84.000 Y53.095 F3000.000
G1 Z1.000 F500.000
G4 P100
G1 X113.987 Y53.095 F1000.000
G0 Z5.000 F500.000
G0 X113.987 Y53.095 F3000.000
G1 Z1.000 F500.000
G4 P100
G1 X143.974 Y53.095 F1000.000
G0 Z5.000 F500.000
G0 X143.974 Y118.859 F3000.000
G1 Z1.000 F500.000
G4 P100
G1 X143.974 Y53.095 F1000.000
G0 Z5.000 F500.000
G0 X113.987 Y118.859 F3000.000
G1 Z1.000 F500.000
G4 P100
G1 X113.987 Y53.095 F1000.000
G0 Z5.000 F500.000
G0 X54.013 Y53.095 F3000.000
G1 Z1.000 F500.000
G4 P100
G1 X84.000 Y53.095 F1000.000
G0 Z5.000 F500.000
G0 X24.026 Y53.095 F3000.000
G1 Z1.000 F500.000
G4 P100
G1 X54.013 Y53.095 F1000.000
G0 Z5.000 F500.000
G0 X54.013 Y118.859 F3000.000
G1 Z1.000 F500.000
G4 P100
G1 X54.013 Y53.095 F1000.000
G0 Z5.000 F500.000
G0 X54.013 Y118.859 F3000.000
G1 Z1.000 F500.000
G4 P100
G1 X84.000 Y118.859 F1000.000
G0 Z5.000 F500.000
G0 X84.000 Y118.859 F3000.000
G1 Z1.000 F500.000
G4 P100
G1 X84.000 Y53.095 F1000.000
G0 Z5.000 F500.000
G0 X84.000 Y118.859 F3000.000
G1 Z1.000 F500.000
G4 P100
G1 X113.987 Y118.859 F1000.000
G0 Z5.000 F500.000
G0 X113.987 Y118.859 F3000.000
G1 Z1.000 F500.000
G4 P100
G1 X143.974 Y118.859 F1000.000
G0 Z5.000 F500.000
G0 X143.974 Y184.624 F3000.000
G1 Z1.000 F500.000
G4 P100
G1 X143.974 Y118.859 F1000.000
G0 Z5.000 F500.000
G0 X113.987 Y184.624 F3000.000
G1 Z1.000 F500.000
G4 P100
G1 X113.987 Y118.859 F1000.000
G0 Z5.000 F500.000
G0 X113.987 Y184.624 F3000.000
G1 Z1.000 F500.000
G4 P100
G1 X143.974 Y184.624 F1000.000
G0 Z5.000 F500.000
G0 X143.974 Y210.000 F3000.000
G1 Z1.000 F500.000
G4 P100
G1 X143.974 Y184.624 F1000.000
G0 Z5.000 F500.000
G0 X113.987 Y210.000 F3000.000
G1 Z1.000 F500.000
G4 P100
G1 X113.987 Y184.624 F1000.000
G0 Z5.000 F500.000
G0 X113.987 Y210.000 F3000.000
G1 Z1.000 F500.000
G4 P100
G1 X143.974 Y210.000 F1000.000
G0 Z5.000 F500.000
G0 X84.000 Y210.000 F3000.000
G1 Z1.000 F500.000
G4 P100
G1 X84.000 Y184.624 F1000.000
G0 Z5.000 F500.000
G0 X84.000 Y184.624 F3000.000
G1 Z1.000 F500.000
G4 P100
G1 X84.000 Y118.859 F1000.000
G0 Z5.000 F500.000
G0 X24.026 Y118.859 F3000.000
G1 Z1.000 F500.000
G4 P100
G1 X24.026 Y53.095 F1000.000
G0 Z5.000 F500.000
G0 X24.026 Y118.859 F3000.000
G1 Z1.000 F500.000
G4 P100
G1 X54.013 Y118.859 F1000.000
G0 Z5.000 F500.000
G0 X54.013 Y184.624 F3000.000
G1 Z1.000 F500.000
G4 P100
G1 X54.013 Y118.859 F1000.000
G0 Z5.000 F500.000
G0 X54.013 Y184.624 F3000.000
G1 Z1.000 F500.000
G4 P100
G1 X84.000 Y184.624 F1000.000
G0 Z5.000 F500.000
G0 X84.000 Y184.624 F3000.000
G1 Z1.000 F500.000
G4 P100
G1 X113.987 Y184.624 F1000.000
G0 Z5.000 F500.000
G0 X84.000 Y210.000 F3000.000
G1 Z1.000 F500.000
G4 P100
G1 X113.987 Y210.000 F1000.000
G0 Z5.000 F500.000
G0 X54.013 Y210.000 F3000.000
G1 Z1.000 F500.000
G4 P100
G1 X54.013 Y184.624 F1000.000
G0 Z5.000 F500.000
G0 X54.013 Y210.000 F3000.000
G1 Z1.000 F500.000
G4 P100
G1 X84.000 Y210.000 F1000.000
G0 Z5.000 F500.000
G0 X24.026 Y210.000 F3000.000
G1 Z1.000 F500.000
G4 P100
G1 X24.026 Y184.624 F1000.000
G0 Z5.000 F500.000
G0 X24.026 Y184.624 F3000.000
G1 Z1.000 F500.000
G4 P100
G1 X24.026 Y118.859 F1000.000
G0 Z5.000 F500.000
G0 X24.026 Y184.624 F3000.000
G1 Z1.000 F500.000
G4 P100
G1 X54.013 Y184.624 F1000.000
G0 Z5.000 F500.000
G0 X24.026 Y210.000 F3000.000
G1 Z1.000 F500.000
G4 P100
G1 X54.013 Y210.000 F1000.000
G0 Z5.000 F500.000
M400
M84
; End
