; Generated by plotter-processor
; Page 1/1
; Motion profile: safe
; Draw feed: 1000.000 mm/min
; Travel feed: 3000.000 mm/min
; Z feed: 500.000 mm/min
; Pen Z: down=1.000 up=5.000
; Down settle: 100 ms
; Estimated ideal time: 41.641636 s
G21
G90
G0 Z5.000 F500.000
G0 X26.310 Y204.375 F3000.000
G1 Z1.000 F500.000
G4 P100
G1 X26.215 Y204.065 F1000.000
G1 X25.705 Y203.602
G1 X25.165 Y203.460
G1 X24.778 Y203.569
G1 X24.498 Y203.898
G1 X24.327 Y204.433
G1 X24.270 Y205.165
G1 X24.385 Y206.525
G1 X23.290 Y203.480
G1 X23.075 Y203.420
G1 X22.877 Y203.480
G1 X22.765 Y203.660
G1 X22.570 Y204.618
G1 X22.520 Y206.320
G1 X22.157 Y204.757
G1 X21.966 Y204.242
G1 X21.705 Y203.820
G1 X21.364 Y203.539
G1 X20.930 Y203.445
G1 X20.468 Y203.558
G1 X20.155 Y203.860
G1 X20.045 Y204.270
G1 X20.125 Y204.518
G1 X20.350 Y204.610
G1 X20.508 Y204.562
G1 X20.738 Y204.137
G1 X20.990 Y204.040
G1 X21.177 Y204.121
G1 X21.358 Y204.365
G1 X21.727 Y205.410
G1 X22.145 Y207.320
G1 X22.310 Y207.632
G1 X22.680 Y207.725
G1 X22.980 Y207.616
G1 X23.060 Y207.290
G1 X23.035 Y206.520
G1 X23.155 Y204.620
G1 X23.570 Y205.920
G1 X24.155 Y207.325
G1 X24.430 Y207.692
G1 X24.640 Y207.725
G1 X24.962 Y207.623
G1 X25.055 Y207.330
G1 X24.930 Y205.365
G1 X25.025 Y204.403
G1 X25.151 Y204.142
G1 X25.340 Y204.055
G1 X25.657 Y204.157
G1 X26.170 Y204.600
G1 X26.273 Y204.540
G1 X26.310 Y204.375
G0 Z5.000 F500.000
G0 X26.465 Y204.270 F3000.000
G1 Z1.000 F500.000
G4 P100
G1 X26.527 Y204.040 F1000.000
G1 X26.700 Y203.965
G1 X26.910 Y204.095
G1 X27.055 Y204.440
G1 X27.240 Y205.360
G1 X26.852 Y205.202
G1 X26.570 Y204.800
G1 X26.465 Y204.270
G0 Z5.000 F500.000
G0 X26.025 Y205.032 F3000.000
G1 Z1.000 F500.000
G4 P100
G1 X26.241 Y205.355 F1000.000
G1 X26.834 Y205.771
G1 X27.170 Y205.825
G1 X27.317 Y205.782
G1 X27.380 Y205.630
G1 X27.784 Y205.606
G1 X27.845 Y205.475
G1 X27.655 Y204.175
G1 X27.692 Y204.055
G1 X27.790 Y204.010
G1 X28.020 Y204.132
G1 X28.520 Y204.600
G1 X28.622 Y204.540
G1 X28.660 Y204.375
G1 X28.565 Y204.065
G1 X28.130 Y203.635
G1 X27.685 Y203.460
G1 X27.383 Y203.572
G1 X27.175 Y203.880
G1 X26.881 Y203.565
G1 X26.520 Y203.460
G1 X26.241 Y203.516
G1 X26.025 Y203.685
G1 X25.886 Y203.945
G1 X25.886 Y204.664
G1 X26.025 Y205.032
G0 Z5.000 F500.000
G0 X28.020 Y204.115 F3000.000
G1 Z1.000 F500.000
G4 P100
G1 X28.135 Y204.532 F1000.000
G1 X28.460 Y204.700
G1 X28.610 Y204.666
G1 X28.660 Y204.565
G1 X28.615 Y204.185
G1 X28.690 Y204.015
G1 X28.830 Y204.118
G1 X29.345 Y205.515
G1 X29.492 Y205.743
G1 X29.755 Y205.815
G1 X29.988 Y205.760
G1 X30.080 Y205.580
G1 X30.115 Y204.475
G1 X30.675 Y205.615
G1 X30.867 Y205.767
G1 X31.085 Y205.820
G1 X31.330 Y205.743
G1 X31.395 Y205.455
G1 X31.400 Y204.085
G1 X31.550 Y203.985
G1 X31.776 Y204.116
G1 X32.190 Y204.600
G1 X32.293 Y204.540
G1 X32.330 Y204.375
G1 X32.235 Y204.060
G1 X31.788 Y203.625
G1 X31.310 Y203.460
G1 X31.082 Y203.510
G1 X30.930 Y203.660
G1 X30.815 Y204.240
G1 X30.895 Y205.065
G1 X30.190 Y203.512
G1 X30.010 Y203.460
G1 X29.850 Y203.520
G1 X29.760 Y203.710
G1 X29.670 Y204.970
G1 X29.415 Y204.173
G1 X29.090 Y203.662
G1 X28.858 Y203.514
G1 X28.336 Y203.511
G1 X28.163 Y203.650
G1 X28.020 Y204.115
G0 Z5.000 F500.000
G0 X31.860 Y204.275 F3000.000
G1 Z1.000 F500.000
G4 P100
G1 X31.906 Y204.664 F1000.000
G1 X32.261 Y205.355
G1 X32.854 Y205.771
G1 X33.190 Y205.825
G1 X33.338 Y205.782
G1 X33.400 Y205.630
G1 X33.804 Y205.606
G1 X33.865 Y205.475
G1 X33.675 Y204.175
G1 X33.713 Y204.055
G1 X33.810 Y204.010
G1 X34.040 Y204.132
G1 X34.540 Y204.600
G1 X34.642 Y204.540
G1 X34.680 Y204.375
G1 X34.585 Y204.065
G1 X34.150 Y203.635
G1 X33.705 Y203.460
G1 X33.403 Y203.572
G1 X33.195 Y203.880
G1 X32.901 Y203.565
G1 X32.540 Y203.460
G1 X32.261 Y203.516
G1 X32.045 Y203.685
G1 X31.906 Y203.945
G1 X31.860 Y204.275
G0 Z5.000 F500.000
G0 X32.547 Y204.040 F3000.000
G1 Z1.000 F500.000
G4 P100
G1 X32.720 Y203.965 F1000.000
G1 X32.930 Y204.095
G1 X33.075 Y204.440
G1 X33.260 Y205.360
G1 X32.873 Y205.202
G1 X32.590 Y204.800
G1 X32.485 Y204.270
G1 X32.547 Y204.040
G0 Z5.000 F500.000
G0 X35.365 Y204.115 F3000.000
G1 Z1.000 F500.000
G4 P100
G1 X35.480 Y204.532 F1000.000
G1 X35.805 Y204.700
G1 X35.955 Y204.666
G1 X36.005 Y204.565
G1 X35.960 Y204.185
G1 X36.035 Y204.015
G1 X36.175 Y204.118
G1 X36.690 Y205.515
G1 X36.838 Y205.743
G1 X37.100 Y205.815
G1 X37.333 Y205.760
G1 X37.425 Y205.580
G1 X37.460 Y204.475
G1 X38.020 Y205.615
G1 X38.213 Y205.767
G1 X38.430 Y205.820
G1 X38.675 Y205.743
G1 X38.740 Y205.455
G1 X38.745 Y204.085
G1 X38.895 Y203.985
G1 X39.121 Y204.116
G1 X39.535 Y204.600
G1 X39.638 Y204.540
G1 X39.675 Y204.375
G1 X39.580 Y204.060
G1 X39.133 Y203.625
G1 X38.655 Y203.460
G1 X38.428 Y203.510
G1 X38.275 Y203.660
G1 X38.160 Y204.240
G1 X38.240 Y205.065
G1 X37.535 Y203.512
G1 X37.355 Y203.460
G1 X37.195 Y203.520
G1 X37.105 Y203.710
G1 X37.015 Y204.970
G1 X36.760 Y204.173
G1 X36.435 Y203.662
G1 X36.203 Y203.514
G1 X35.681 Y203.511
G1 X35.508 Y203.650
G1 X35.365 Y204.115
G0 Z5.000 F500.000
G0 X39.290 Y204.390 F3000.000
G1 Z1.000 F500.000
G4 P100
G1 X39.475 Y205.535 F1000.000
G1 X39.623 Y205.748
G1 X39.920 Y205.815
G1 X40.089 Y205.785
G1 X40.145 Y205.695
G1 X39.965 Y204.885
G1 X40.288 Y205.107
G1 X40.670 Y205.195
G1 X41.050 Y205.058
G1 X41.220 Y204.670
G1 X41.873 Y205.755
G1 X42.110 Y205.815
G1 X42.301 Y205.773
G1 X42.365 Y205.645
G1 X42.150 Y204.320
G1 X42.190 Y204.090
G1 X42.325 Y204.010
G1 X42.550 Y204.135
G1 X43.045 Y204.600
G1 X43.148 Y204.540
G1 X43.185 Y204.375
G1 X43.090 Y204.065
G1 X42.611 Y203.611
G1 X42.165 Y203.460
G1 X41.884 Y203.517
G1 X41.693 Y203.690
G1 X41.582 Y203.958
G1 X41.545 Y204.375
G1 X40.938 Y203.710
G1 X40.597 Y203.523
G1 X40.240 Y203.460
G1 X39.849 Y203.525
G1 X39.547 Y203.720
G1 X39.354 Y204.018
G1 X39.290 Y204.390
G0 Z5.000 F500.000
G0 X39.920 Y204.355 F3000.000
G1 Z1.000 F500.000
G4 P100
G1 X40.025 Y204.080 F1000.000
G1 X40.285 Y203.990
G1 X40.595 Y204.100
G1 X40.705 Y204.405
G1 X40.634 Y204.604
G1 X40.420 Y204.670
G1 X40.123 Y204.575
G1 X39.920 Y204.355
G0 Z5.000 F500.000
G0 X42.545 Y204.115 F3000.000
G1 Z1.000 F500.000
G4 P100
G1 X42.660 Y204.520 F1000.000
G1 X42.985 Y204.675
G1 X43.127 Y204.635
G1 X43.165 Y204.525
G1 X43.148 Y204.060
G1 X43.215 Y204.015
G1 X43.328 Y204.090
G1 X44.165 Y205.727
G1 X44.465 Y205.805
G1 X44.745 Y205.730
G1 X44.835 Y205.485
G1 X44.859 Y204.116
G1 X45.020 Y203.985
G1 X45.197 Y204.070
G1 X45.730 Y204.600
G1 X45.832 Y204.540
G1 X45.870 Y204.375
G1 X45.775 Y204.065
G1 X45.487 Y203.752
G1 X45.188 Y203.548
G1 X44.785 Y203.460
G1 X44.532 Y203.518
G1 X44.365 Y203.692
G1 X44.271 Y203.984
G1 X44.260 Y204.850
G1 X44.029 Y204.261
G1 X43.758 Y203.825
G1 X43.444 Y203.555
G1 X43.090 Y203.465
G1 X42.862 Y203.511
G1 X42.690 Y203.650
G1 X42.545 Y204.115
G0 Z5.000 F500.000
G0 X45.460 Y204.275 F3000.000
G1 Z1.000 F500.000
G4 P100
G1 X45.506 Y204.664 F1000.000
G1 X45.861 Y205.355
G1 X46.454 Y205.771
G1 X46.790 Y205.825
G1 X46.938 Y205.782
G1 X47.000 Y205.630
G1 X47.404 Y205.606
G1 X47.465 Y205.475
G1 X47.275 Y204.175
G1 X47.312 Y204.055
G1 X47.410 Y204.010
G1 X47.640 Y204.132
G1 X48.140 Y204.600
G1 X48.242 Y204.540
G1 X48.280 Y204.375
G1 X48.185 Y204.065
G1 X47.750 Y203.635
G1 X47.305 Y203.460
G1 X47.002 Y203.572
G1 X46.795 Y203.880
G1 X46.501 Y203.565
G1 X46.140 Y203.460
G1 X45.861 Y203.516
G1 X45.645 Y203.685
G1 X45.506 Y203.945
G1 X45.460 Y204.275
G0 Z5.000 F500.000
G0 X46.147 Y204.040 F3000.000
G1 Z1.000 F500.000
G4 P100
G1 X46.320 Y203.965 F1000.000
G1 X46.530 Y204.095
G1 X46.675 Y204.440
G1 X46.860 Y205.360
G1 X46.472 Y205.202
G1 X46.190 Y204.800
G1 X46.085 Y204.270
G1 X46.147 Y204.040
G0 Z5.000 F500.000
G0 X48.590 Y203.077 F3000.000
G1 Z1.000 F500.000
G4 P100
G1 X49.285 Y204.515 F1000.000
G1 X49.275 Y205.530
G1 X49.390 Y205.760
G1 X49.690 Y205.845
G1 X49.843 Y205.803
G1 X49.900 Y205.450
G1 X50.215 Y205.738
G1 X50.545 Y205.825
G1 X50.799 Y205.769
G1 X51.002 Y205.600
G1 X51.136 Y205.340
G1 X51.180 Y205.010
G1 X51.095 Y204.495
G1 X50.860 Y204.040
G1 X51.035 Y204.010
G1 X51.350 Y204.130
G1 X51.735 Y204.530
G1 X51.870 Y204.600
G1 X51.973 Y204.540
G1 X52.010 Y204.375
G1 X51.915 Y204.065
G1 X51.453 Y203.630
G1 X50.890 Y203.460
G1 X50.650 Y203.507
G1 X50.460 Y203.650
G1 X49.865 Y203.460
G1 X49.759 Y202.574
G1 X49.570 Y201.847
G1 X49.286 Y201.362
G1 X49.104 Y201.240
G1 X48.660 Y201.249
G1 X48.495 Y201.395
G1 X48.398 Y201.627
G1 X48.421 Y202.466
G1 X48.590 Y203.077
G0 Z5.000 F500.000
G0 X48.810 Y202.020 F3000.000
G1 Z1.000 F500.000
G4 P100
G1 X48.848 Y201.775 F1000.000
G1 X48.935 Y201.690
G1 X49.059 Y201.837
G1 X49.160 Y202.278
G1 X49.275 Y203.740
G1 X48.935 Y202.785
G1 X48.810 Y202.020
G0 Z5.000 F500.000
G0 X49.890 Y203.940 F3000.000
G1 Z1.000 F500.000
G4 P100
G1 X50.223 Y204.137 F1000.000
G1 X50.465 Y204.528
G1 X50.555 Y205.015
G1 X50.495 Y205.243
G1 X50.335 Y205.320
G1 X50.136 Y205.225
G1 X49.900 Y204.940
G1 X49.890 Y203.940
G0 Z5.000 F500.000
G0 X51.540 Y204.275 F3000.000
G1 Z1.000 F500.000
G4 P100
G1 X51.586 Y204.664 F1000.000
G1 X51.941 Y205.355
G1 X52.534 Y205.771
G1 X52.870 Y205.825
G1 X53.017 Y205.782
G1 X53.080 Y205.630
G1 X53.484 Y205.606
G1 X53.545 Y205.475
G1 X53.355 Y204.175
G1 X53.392 Y204.055
G1 X53.490 Y204.010
G1 X53.720 Y204.132
G1 X54.220 Y204.600
G1 X54.323 Y204.540
G1 X54.360 Y204.375
G1 X54.265 Y204.065
G1 X53.830 Y203.635
G1 X53.385 Y203.460
G1 X53.083 Y203.572
G1 X52.875 Y203.880
G1 X52.581 Y203.565
G1 X52.220 Y203.460
G1 X51.941 Y203.516
G1 X51.725 Y203.685
G1 X51.586 Y203.945
G1 X51.540 Y204.275
G0 Z5.000 F500.000
G0 X52.227 Y204.040 F3000.000
G1 Z1.000 F500.000
G4 P100
G1 X52.400 Y203.965 F1000.000
G1 X52.610 Y204.095
G1 X52.755 Y204.440
G1 X52.940 Y205.360
G1 X52.553 Y205.202
G1 X52.270 Y204.800
G1 X52.165 Y204.270
G1 X52.227 Y204.040
G0 Z5.000 F500.000
G0 X53.720 Y204.115 F3000.000
G1 Z1.000 F500.000
G4 P100
G1 X53.835 Y204.532 F1000.000
G1 X54.160 Y204.700
G1 X54.310 Y204.666
G1 X54.360 Y204.565
G1 X54.315 Y204.185
G1 X54.390 Y204.015
G1 X54.530 Y204.118
G1 X55.045 Y205.515
G1 X55.193 Y205.743
G1 X55.455 Y205.815
G1 X55.688 Y205.760
G1 X55.780 Y205.580
G1 X55.815 Y204.475
G1 X56.375 Y205.615
G1 X56.568 Y205.767
G1 X56.785 Y205.820
G1 X57.030 Y205.743
G1 X57.095 Y205.455
G1 X57.100 Y204.085
G1 X57.250 Y203.985
G1 X57.476 Y204.116
G1 X57.890 Y204.600
G1 X57.993 Y204.540
G1 X58.030 Y204.375
G1 X57.935 Y204.060
G1 X57.488 Y203.625
G1 X57.010 Y203.460
G1 X56.783 Y203.510
G1 X56.630 Y203.660
G1 X56.515 Y204.240
G1 X56.595 Y205.065
G1 X55.890 Y203.512
G1 X55.710 Y203.460
G1 X55.550 Y203.520
G1 X55.460 Y203.710
G1 X55.370 Y204.970
G1 X55.115 Y204.173
G1 X54.790 Y203.662
G1 X54.558 Y203.514
G1 X54.036 Y203.511
G1 X53.863 Y203.650
G1 X53.720 Y204.115
G0 Z5.000 F500.000
G0 X57.625 Y204.185 F3000.000
G1 Z1.000 F500.000
G4 P100
G1 X57.675 Y204.873 F1000.000
G1 X57.840 Y205.535
G1 X57.980 Y205.750
G1 X58.265 Y205.815
G1 X58.418 Y205.780
G1 X58.460 Y205.675
G1 X58.255 Y204.678
G1 X58.251 Y204.227
G1 X58.330 Y204.180
G1 X58.518 Y204.330
G1 X59.128 Y205.750
G1 X59.375 Y205.815
G1 X59.535 Y205.785
G1 X59.580 Y205.685
G1 X59.320 Y204.020
G1 X60.070 Y204.550
G1 X60.185 Y204.590
G1 X60.288 Y204.528
G1 X60.325 Y204.370
G1 X60.180 Y204.075
G1 X59.220 Y203.430
G1 X59.001 Y202.506
G1 X58.723 Y201.803
G1 X58.373 Y201.358
G1 X57.940 Y201.210
G1 X57.709 Y201.249
G1 X57.405 Y201.549
G1 X57.365 Y201.780
G1 X57.473 Y202.260
G1 X57.873 Y202.822
G1 X58.700 Y203.550
G1 X58.795 Y204.195
G1 X58.515 Y203.648
G1 X58.135 Y203.460
G1 X57.931 Y203.512
G1 X57.768 Y203.667
G1 X57.625 Y204.185
G0 Z5.000 F500.000
G0 X58.585 Y202.950 F3000.000
G1 Z1.000 F500.000
G4 P100
G1 X58.028 Y202.357 F1000.000
G1 X57.855 Y201.890
G1 X57.888 Y201.750
G1 X57.995 Y201.695
G1 X58.128 Y201.767
G1 X58.275 Y201.985
G1 X58.585 Y202.950
G0 Z5.000 F500.000
G0 X60.283 Y203.580 F3000.000
G1 Z1.000 F500.000
G4 P100
G1 X60.170 Y203.895 F1000.000
G1 X60.298 Y204.255
G1 X60.655 Y204.390
G1 X60.988 Y204.282
G1 X61.100 Y203.965
G1 X60.970 Y203.597
G1 X60.615 Y203.460
G1 X60.283 Y203.580
G0 Z5.000 F500.000
G0 X83.678 Y16.423 F3000.000
G1 Z1.000 F500.000
G4 P100
G1 X84.215 Y16.542 F1000.000
G1 X84.284 Y16.434
G1 X84.041 Y14.765
G0 Z5.000 F500.000
M400
M84
; End
