; Generated by plotter-processor
; Pages: 1
G21
G90
M203 X120.000 Y120.000
M204 P1500.000 T2000.000
G0 Z2.500 F1200.000
; ===== PAGE 1/1 START =====
G0 Z2.500
M204 T2000.000
G0 X15.676 Y340.424 F6000.000
G1 Z0.100 F1200.000
G4 P20
M204 T1500.000
G1 F2000.000
G1 X15.453 Y340.194
G1 X15.439 Y339.727
G1 X15.634 Y339.448
G1 X16.032 Y339.344
G1 X16.541 Y339.860
G1 X17.342 Y341.644
G1 X17.851 Y339.895
G1 X17.823 Y339.372
G1 X17.886 Y339.839
G1 X18.590 Y341.073
G1 X19.190 Y341.693
G1 X19.322 Y339.755
G1 X19.531 Y339.435
G1 X19.957 Y339.323
G1 X20.619 Y339.881
G1 X21.239 Y341.331
G1 X22.208 Y341.895
G1 X22.710 Y341.463
G1 X22.390 Y339.860
G1 X22.822 Y341.644
G1 X22.390 Y339.860
G1 X22.710 Y341.463
G1 X22.208 Y341.895
G1 X21.609 Y341.644
G1 X21.065 Y341.087
G1 X20.856 Y340.585
G1 X20.835 Y339.776
G1 X21.002 Y339.504
G1 X21.469 Y339.288
G1 X22.341 Y339.846
G1 X23.101 Y339.323
G1 X23.498 Y339.539
G1 X23.944 Y340.069
G1 X24.425 Y341.763
G1 X24.662 Y341.979
G1 X24.425 Y341.763
G1 X24.167 Y340.508
G1 X24.153 Y340.013
G1 X24.397 Y339.560
G1 X24.725 Y339.462
G1 X25.408 Y340.264
G1 X25.638 Y340.320
G1 X26.050 Y341.819
G1 X25.631 Y340.278
G1 X26.015 Y339.588
G1 X26.252 Y339.448
G1 X26.865 Y340.132
G1 X27.179 Y340.208
G1 X27.779 Y341.930
G1 X27.179 Y340.146
G1 X27.493 Y339.469
G1 X27.946 Y339.337
G1 X28.762 Y340.041
G1 X29.284 Y341.798
G1 X29.494 Y341.979
G1 X29.215 Y341.603
G1 X28.978 Y340.215
G1 X29.201 Y339.602
G1 X29.480 Y339.455
G1 X30.114 Y340.167
G1 X30.400 Y340.201
G1 X30.971 Y341.909
G1 X30.393 Y340.187
G1 X30.707 Y339.490
G1 X31.034 Y339.323
G1 X31.425 Y339.455
G1 X31.989 Y340.048
G1 X32.463 Y341.791
G1 X32.700 Y342.000
G1 X32.463 Y341.791
G1 X32.289 Y341.087
G1 X32.401 Y340.634
G1 X32.205 Y340.132
G1 X32.219 Y339.386
G1 X32.205 Y340.132
G1 X32.415 Y340.661
G1 X33.704 Y340.564
G1 X34.325 Y341.951
G1 X33.781 Y340.487
G1 X33.886 Y339.713
G1 X34.283 Y339.351
G1 X34.631 Y339.393
G1 X35.126 Y339.797
G1 X35.879 Y341.331
G1 X36.730 Y341.881
G1 X36.911 Y341.881
G1 X37.350 Y341.463
G1 X37.030 Y339.860
G1 X37.462 Y341.644
G1 X37.030 Y339.860
G1 X37.350 Y341.463
G1 X36.911 Y341.881
G1 X36.730 Y341.881
G1 X35.984 Y341.428
G1 X35.573 Y340.815
G1 X35.447 Y339.957
G1 X35.642 Y339.504
G1 X36.249 Y339.302
G1 X36.981 Y339.846
G1 X37.455 Y339.407
G1 X37.831 Y339.344
G1 X38.396 Y339.790
G1 X38.696 Y340.278
G0 Z2.500 F1200.000
M204 T2000.000
G0 X42.028 Y340.424 F6000.000
G1 Z0.100 F1200.000
G4 P20
M204 T1500.000
G1 F2000.000
G1 X41.805 Y340.194
G1 X41.791 Y339.727
G1 X41.986 Y339.448
G1 X42.384 Y339.344
G1 X42.893 Y339.860
G1 X43.694 Y341.644
G1 X44.203 Y339.895
G1 X44.175 Y339.372
G1 X44.238 Y339.839
G1 X44.942 Y341.073
G1 X45.542 Y341.693
G1 X45.674 Y339.755
G1 X45.883 Y339.435
G1 X46.309 Y339.323
G1 X46.971 Y339.881
G1 X47.591 Y341.331
G1 X48.560 Y341.895
G1 X49.062 Y341.463
G1 X48.742 Y339.860
G1 X49.174 Y341.644
G1 X48.742 Y339.860
G1 X49.062 Y341.463
G1 X48.560 Y341.895
G1 X47.961 Y341.644
G1 X47.417 Y341.087
G1 X47.208 Y340.585
G1 X47.187 Y339.776
G1 X47.354 Y339.504
G1 X47.821 Y339.288
G1 X48.693 Y339.846
G1 X49.453 Y339.323
G1 X49.850 Y339.539
G1 X50.296 Y340.069
G1 X50.777 Y341.763
G1 X51.014 Y341.979
G1 X50.777 Y341.763
G1 X50.519 Y340.508
G1 X50.505 Y340.013
G1 X50.749 Y339.560
G1 X51.077 Y339.462
G1 X51.760 Y340.264
G1 X51.990 Y340.320
G1 X52.402 Y341.819
G1 X51.983 Y340.278
G1 X52.367 Y339.588
G1 X52.604 Y339.448
G1 X53.217 Y340.132
G1 X53.531 Y340.208
G1 X54.130 Y341.930
G1 X53.531 Y340.146
G1 X53.845 Y339.469
G1 X54.298 Y339.337
G1 X55.113 Y340.041
G1 X55.636 Y341.798
G1 X55.845 Y341.979
G1 X55.567 Y341.603
G1 X55.330 Y340.215
G1 X55.553 Y339.602
G1 X55.831 Y339.455
G1 X56.466 Y340.167
G1 X56.752 Y340.201
G1 X57.323 Y341.909
G1 X56.745 Y340.187
G1 X57.058 Y339.490
G1 X57.386 Y339.323
G1 X57.777 Y339.455
G1 X58.341 Y340.048
G1 X58.815 Y341.791
G1 X59.052 Y342.000
G1 X58.815 Y341.791
G1 X58.641 Y341.087
G1 X58.753 Y340.634
G1 X58.557 Y340.132
G1 X58.571 Y339.386
G1 X58.557 Y340.132
G1 X58.766 Y340.661
G1 X60.056 Y340.564
G1 X60.677 Y341.951
G1 X60.133 Y340.487
G1 X60.237 Y339.713
G1 X60.635 Y339.351
G1 X60.983 Y339.393
G1 X61.478 Y339.797
G1 X62.231 Y341.331
G1 X63.082 Y341.881
G1 X63.263 Y341.881
G1 X63.702 Y341.463
G1 X63.382 Y339.860
G1 X63.814 Y341.644
G1 X63.382 Y339.860
G1 X63.702 Y341.463
G1 X63.263 Y341.881
G1 X63.082 Y341.881
G1 X62.336 Y341.428
G1 X61.924 Y340.815
G1 X61.799 Y339.957
G1 X61.994 Y339.504
G1 X62.601 Y339.302
G1 X63.333 Y339.846
G1 X63.807 Y339.407
G1 X64.183 Y339.344
G1 X64.748 Y339.790
G1 X65.048 Y340.278
G0 Z2.500 F1200.000
M204 T2000.000
G0 X68.380 Y340.424 F6000.000
G1 Z0.100 F1200.000
G4 P20
M204 T1500.000
G1 F2000.000
G1 X68.157 Y340.194
G1 X68.143 Y339.727
G1 X68.338 Y339.448
G1 X68.736 Y339.344
G1 X69.244 Y339.860
G1 X70.046 Y341.644
G1 X70.555 Y339.895
G1 X70.527 Y339.372
G1 X70.590 Y339.839
G1 X71.294 Y341.073
G1 X71.894 Y341.693
G1 X72.026 Y339.755
G1 X72.235 Y339.435
G1 X72.660 Y339.323
G1 X73.323 Y339.881
G1 X73.943 Y341.331
G1 X74.912 Y341.895
G1 X75.414 Y341.463
G1 X75.093 Y339.860
G1 X75.526 Y341.644
G1 X75.093 Y339.860
G1 X75.414 Y341.463
G1 X74.912 Y341.895
G1 X74.313 Y341.644
G1 X73.769 Y341.087
G1 X73.560 Y340.585
G1 X73.539 Y339.776
G1 X73.706 Y339.504
G1 X74.173 Y339.288
G1 X75.045 Y339.846
G1 X75.805 Y339.323
G1 X76.202 Y339.539
G1 X76.648 Y340.069
G1 X77.129 Y341.763
G1 X77.366 Y341.979
G1 X77.129 Y341.763
G1 X76.871 Y340.508
G1 X76.857 Y340.013
G1 X77.101 Y339.560
G1 X77.429 Y339.462
G1 X78.112 Y340.264
G1 X78.342 Y340.320
G1 X78.753 Y341.819
G1 X78.335 Y340.278
G1 X78.719 Y339.588
G1 X78.956 Y339.448
G1 X79.569 Y340.132
G1 X79.883 Y340.208
G1 X80.482 Y341.930
G1 X79.883 Y340.146
G1 X80.197 Y339.469
G1 X80.650 Y339.337
G1 X81.465 Y340.041
G1 X81.988 Y341.798
G1 X82.197 Y341.979
G1 X81.918 Y341.603
G1 X81.681 Y340.215
G1 X81.905 Y339.602
G1 X82.183 Y339.455
G1 X82.818 Y340.167
G1 X83.104 Y340.201
G1 X83.675 Y341.909
G1 X83.097 Y340.187
G1 X83.410 Y339.490
G1 X83.738 Y339.323
G1 X84.128 Y339.455
G1 X84.693 Y340.048
G1 X85.167 Y341.791
G1 X85.404 Y342.000
G1 X85.167 Y341.791
G1 X84.993 Y341.087
G1 X85.104 Y340.634
G1 X84.909 Y340.132
G1 X84.923 Y339.386
G1 X84.909 Y340.132
G1 X85.118 Y340.661
G1 X86.408 Y340.564
G1 X87.029 Y341.951
G1 X86.485 Y340.487
G1 X86.589 Y339.713
G1 X86.987 Y339.351
G1 X87.335 Y339.393
G1 X87.830 Y339.797
G1 X88.583 Y341.331
G1 X89.434 Y341.881
G1 X89.615 Y341.881
G1 X90.054 Y341.463
G1 X89.733 Y339.860
G1 X90.166 Y341.644
G1 X89.733 Y339.860
G1 X90.054 Y341.463
G1 X89.615 Y341.881
G1 X89.434 Y341.881
G1 X88.688 Y341.428
G1 X88.276 Y340.815
G1 X88.151 Y339.957
G1 X88.346 Y339.504
G1 X88.953 Y339.302
G1 X89.685 Y339.846
G1 X90.159 Y339.407
G1 X90.535 Y339.344
G1 X91.100 Y339.790
G1 X91.400 Y340.278
G0 Z2.500 F1200.000
; 100 mm calibration stroke
M204 T2000.000
G0 X20.000 Y80.000 F6000.000
G1 Z0.100 F1200.000
G4 P20
M204 T1500.000
G1 F2000.000
G1 X120.000 Y80.000
G0 Z2.500 F1200.000
M400
M84
; End
