; Generated by plotter-processor
; Page 1/1
; Motion profile: safe
; Draw feed: 1000.000 mm/min
; Travel feed: 3000.000 mm/min
; Z feed: 500.000 mm/min
; Pen Z: down=1.000 up=5.000
; Down settle: 100 ms
; Estimated ideal time: 82.413823 s
G21
G90
G0 Z5.000 F500.000
G0 X26.310 Y204.375 F3000.000
G1 Z1.000 F500.000
G4 P100
G1 X26.215 Y204.065 F1000.000
G1 X25.705 Y203.602
G1 X25.165 Y203.460
G1 X24.778 Y203.569
G1 X24.498 Y203.898
G1 X24.327 Y204.433
G1 X24.270 Y205.165
G1 X24.385 Y206.525
G1 X23.290 Y203.480
G1 X23.075 Y203.420
G1 X22.877 Y203.480
G1 X22.765 Y203.660
G1 X22.570 Y204.618
G1 X22.520 Y206.320
G1 X22.157 Y204.757
G1 X21.966 Y204.242
G1 X21.705 Y203.820
G1 X21.364 Y203.539
G1 X20.930 Y203.445
G1 X20.468 Y203.558
G1 X20.155 Y203.860
G1 X20.045 Y204.270
G1 X20.125 Y204.518
G1 X20.350 Y204.610
G1 X20.508 Y204.562
G1 X20.738 Y204.137
G1 X20.990 Y204.040
G1 X21.177 Y204.121
G1 X21.358 Y204.365
G1 X21.727 Y205.410
G1 X22.145 Y207.320
G1 X22.310 Y207.632
G1 X22.680 Y207.725
G1 X22.980 Y207.616
G1 X23.060 Y207.290
G1 X23.035 Y206.520
G1 X23.155 Y204.620
G1 X23.570 Y205.920
G1 X24.155 Y207.325
G1 X24.430 Y207.692
G1 X24.640 Y207.725
G1 X24.962 Y207.623
G1 X25.055 Y207.330
G1 X24.930 Y205.365
G1 X25.025 Y204.403
G1 X25.151 Y204.142
G1 X25.340 Y204.055
G1 X25.657 Y204.157
G1 X26.170 Y204.600
G1 X26.273 Y204.540
G1 X26.310 Y204.375
G0 Z5.000 F500.000
G0 X26.465 Y204.270 F3000.000
G1 Z1.000 F500.000
G4 P100
G1 X26.527 Y204.040 F1000.000
G1 X26.700 Y203.965
G1 X26.910 Y204.095
G1 X27.055 Y204.440
G1 X27.240 Y205.360
G1 X26.852 Y205.202
G1 X26.570 Y204.800
G1 X26.465 Y204.270
G0 Z5.000 F500.000
G0 X26.025 Y205.032 F3000.000
G1 Z1.000 F500.000
G4 P100
G1 X26.241 Y205.355 F1000.000
G1 X26.834 Y205.771
G1 X27.170 Y205.825
G1 X27.317 Y205.782
G1 X27.380 Y205.630
G1 X27.784 Y205.606
G1 X27.845 Y205.475
G1 X27.655 Y204.175
G1 X27.692 Y204.055
G1 X27.790 Y204.010
G1 X28.020 Y204.132
G1 X28.520 Y204.600
G1 X28.622 Y204.540
G1 X28.660 Y204.375
G1 X28.565 Y204.065
G1 X28.130 Y203.635
G1 X27.685 Y203.460
G1 X27.383 Y203.572
G1 X27.175 Y203.880
G1 X26.881 Y203.565
G1 X26.520 Y203.460
G1 X26.241 Y203.516
G1 X26.025 Y203.685
G1 X25.886 Y203.945
G1 X25.886 Y204.664
G1 X26.025 Y205.032
G0 Z5.000 F500.000
G0 X28.020 Y204.115 F3000.000
G1 Z1.000 F500.000
G4 P100
G1 X28.135 Y204.532 F1000.000
G1 X28.460 Y204.700
G1 X28.610 Y204.666
G1 X28.660 Y204.565
G1 X28.615 Y204.185
G1 X28.690 Y204.015
G1 X28.830 Y204.118
G1 X29.345 Y205.515
G1 X29.492 Y205.743
G1 X29.755 Y205.815
G1 X29.988 Y205.760
G1 X30.080 Y205.580
G1 X30.115 Y204.475
G1 X30.675 Y205.615
G1 X30.867 Y205.767
G1 X31.085 Y205.820
G1 X31.330 Y205.743
G1 X31.395 Y205.455
G1 X31.400 Y204.085
G1 X31.550 Y203.985
G1 X31.776 Y204.116
G1 X32.190 Y204.600
G1 X32.293 Y204.540
G1 X32.330 Y204.375
G1 X32.235 Y204.060
G1 X31.788 Y203.625
G1 X31.310 Y203.460
G1 X31.082 Y203.510
G1 X30.930 Y203.660
G1 X30.815 Y204.240
G1 X30.895 Y205.065
G1 X30.190 Y203.512
G1 X30.010 Y203.460
G1 X29.850 Y203.520
G1 X29.760 Y203.710
G1 X29.670 Y204.970
G1 X29.415 Y204.173
G1 X29.090 Y203.662
G1 X28.858 Y203.514
G1 X28.336 Y203.511
G1 X28.163 Y203.650
G1 X28.020 Y204.115
G0 Z5.000 F500.000
G0 X31.860 Y204.275 F3000.000
G1 Z1.000 F500.000
G4 P100
G1 X31.906 Y204.664 F1000.000
G1 X32.261 Y205.355
G1 X32.854 Y205.771
G1 X33.190 Y205.825
G1 X33.338 Y205.782
G1 X33.400 Y205.630
G1 X33.804 Y205.606
G1 X33.865 Y205.475
G1 X33.675 Y204.175
G1 X33.713 Y204.055
G1 X33.810 Y204.010
G1 X34.040 Y204.132
G1 X34.540 Y204.600
G1 X34.642 Y204.540
G1 X34.680 Y204.375
G1 X34.585 Y204.065
G1 X34.150 Y203.635
G1 X33.705 Y203.460
G1 X33.403 Y203.572
G1 X33.195 Y203.880
G1 X32.901 Y203.565
G1 X32.540 Y203.460
G1 X32.261 Y203.516
G1 X32.045 Y203.685
G1 X31.906 Y203.945
G1 X31.860 Y204.275
G0 Z5.000 F500.000
G0 X32.547 Y204.040 F3000.000
G1 Z1.000 F500.000
G4 P100
G1 X32.720 Y203.965 F1000.000
G1 X32.930 Y204.095
G1 X33.075 Y204.440
G1 X33.260 Y205.360
G1 X32.873 Y205.202
G1 X32.590 Y204.800
G1 X32.485 Y204.270
G1 X32.547 Y204.040
G0 Z5.000 F500.000
G0 X35.365 Y204.115 F3000.000
G1 Z1.000 F500.000
G4 P100
G1 X35.480 Y204.532 F1000.000
G1 X35.805 Y204.700
G1 X35.955 Y204.666
G1 X36.005 Y204.565
G1 X35.960 Y204.185
G1 X36.035 Y204.015
G1 X36.175 Y204.118
G1 X36.690 Y205.515
G1 X36.838 Y205.743
G1 X37.100 Y205.815
G1 X37.333 Y205.760
G1 X37.425 Y205.580
G1 X37.460 Y204.475
G1 X38.020 Y205.615
G1 X38.213 Y205.767
G1 X38.430 Y205.820
G1 X38.675 Y205.743
G1 X38.740 Y205.455
G1 X38.745 Y204.085
G1 X38.895 Y203.985
G1 X39.121 Y204.116
G1 X39.535 Y204.600
G1 X39.638 Y204.540
G1 X39.675 Y204.375
G1 X39.580 Y204.060
G1 X39.133 Y203.625
G1 X38.655 Y203.460
G1 X38.428 Y203.510
G1 X38.275 Y203.660
G1 X38.160 Y204.240
G1 X38.240 Y205.065
G1 X37.535 Y203.512
G1 X37.355 Y203.460
G1 X37.195 Y203.520
G1 X37.105 Y203.710
G1 X37.015 Y204.970
G1 X36.760 Y204.173
G1 X36.435 Y203.662
G1 X36.203 Y203.514
G1 X35.681 Y203.511
G1 X35.508 Y203.650
G1 X35.365 Y204.115
G0 Z5.000 F500.000
G0 X39.290 Y204.390 F3000.000
G1 Z1.000 F500.000
G4 P100
G1 X39.475 Y205.535 F1000.000
G1 X39.623 Y205.748
G1 X39.920 Y205.815
G1 X40.089 Y205.785
G1 X40.145 Y205.695
G1 X39.965 Y204.885
G1 X40.288 Y205.107
G1 X40.670 Y205.195
G1 X41.050 Y205.058
G1 X41.220 Y204.670
G1 X41.873 Y205.755
G1 X42.110 Y205.815
G1 X42.301 Y205.773
G1 X42.365 Y205.645
G1 X42.150 Y204.320
G1 X42.190 Y204.090
G1 X42.325 Y204.010
G1 X42.550 Y204.135
G1 X43.045 Y204.600
G1 X43.148 Y204.540
G1 X43.185 Y204.375
G1 X43.090 Y204.065
G1 X42.611 Y203.611
G1 X42.165 Y203.460
G1 X41.884 Y203.517
G1 X41.693 Y203.690
G1 X41.582 Y203.958
G1 X41.545 Y204.375
G1 X40.938 Y203.710
G1 X40.597 Y203.523
G1 X40.240 Y203.460
G1 X39.849 Y203.525
G1 X39.547 Y203.720
G1 X39.354 Y204.018
G1 X39.290 Y204.390
G0 Z5.000 F500.000
G0 X39.920 Y204.355 F3000.000
G1 Z1.000 F500.000
G4 P100
G1 X40.025 Y204.080 F1000.000
G1 X40.285 Y203.990
G1 X40.595 Y204.100
G1 X40.705 Y204.405
G1 X40.634 Y204.604
G1 X40.420 Y204.670
G1 X40.123 Y204.575
G1 X39.920 Y204.355
G0 Z5.000 F500.000
G0 X42.545 Y204.115 F3000.000
G1 Z1.000 F500.000
G4 P100
G1 X42.660 Y204.520 F1000.000
G1 X42.985 Y204.675
G1 X43.127 Y204.635
G1 X43.165 Y204.525
G1 X43.148 Y204.060
G1 X43.215 Y204.015
G1 X43.328 Y204.090
G1 X44.165 Y205.727
G1 X44.465 Y205.805
G1 X44.745 Y205.730
G1 X44.835 Y205.485
G1 X44.859 Y204.116
G1 X45.020 Y203.985
G1 X45.197 Y204.070
G1 X45.730 Y204.600
G1 X45.832 Y204.540
G1 X45.870 Y204.375
G1 X45.775 Y204.065
G1 X45.487 Y203.752
G1 X45.188 Y203.548
G1 X44.785 Y203.460
G1 X44.532 Y203.518
G1 X44.365 Y203.692
G1 X44.271 Y203.984
G1 X44.260 Y204.850
G1 X44.029 Y204.261
G1 X43.758 Y203.825
G1 X43.444 Y203.555
G1 X43.090 Y203.465
G1 X42.862 Y203.511
G1 X42.690 Y203.650
G1 X42.545 Y204.115
G0 Z5.000 F500.000
G0 X45.460 Y204.275 F3000.000
G1 Z1.000 F500.000
G4 P100
G1 X45.506 Y204.664 F1000.000
G1 X45.861 Y205.355
G1 X46.454 Y205.771
G1 X46.790 Y205.825
G1 X46.938 Y205.782
G1 X47.000 Y205.630
G1 X47.404 Y205.606
G1 X47.465 Y205.475
G1 X47.275 Y204.175
G1 X47.312 Y204.055
G1 X47.410 Y204.010
G1 X47.640 Y204.132
G1 X48.140 Y204.600
G1 X48.242 Y204.540
G1 X48.280 Y204.375
G1 X48.185 Y204.065
G1 X47.750 Y203.635
G1 X47.305 Y203.460
G1 X47.002 Y203.572
G1 X46.795 Y203.880
G1 X46.501 Y203.565
G1 X46.140 Y203.460
G1 X45.861 Y203.516
G1 X45.645 Y203.685
G1 X45.506 Y203.945
G1 X45.460 Y204.275
G0 Z5.000 F500.000
G0 X46.147 Y204.040 F3000.000
G1 Z1.000 F500.000
G4 P100
G1 X46.320 Y203.965 F1000.000
G1 X46.530 Y204.095
G1 X46.675 Y204.440
G1 X46.860 Y205.360
G1 X46.472 Y205.202
G1 X46.190 Y204.800
G1 X46.085 Y204.270
G1 X46.147 Y204.040
G0 Z5.000 F500.000
G0 X48.590 Y203.077 F3000.000
G1 Z1.000 F500.000
G4 P100
G1 X49.285 Y204.515 F1000.000
G1 X49.275 Y205.530
G1 X49.390 Y205.760
G1 X49.690 Y205.845
G1 X49.843 Y205.803
G1 X49.900 Y205.450
G1 X50.215 Y205.738
G1 X50.545 Y205.825
G1 X50.799 Y205.769
G1 X51.002 Y205.600
G1 X51.136 Y205.340
G1 X51.180 Y205.010
G1 X51.095 Y204.495
G1 X50.860 Y204.040
G1 X51.035 Y204.010
G1 X51.350 Y204.130
G1 X51.735 Y204.530
G1 X51.870 Y204.600
G1 X51.973 Y204.540
G1 X52.010 Y204.375
G1 X51.915 Y204.065
G1 X51.453 Y203.630
G1 X50.890 Y203.460
G1 X50.650 Y203.507
G1 X50.460 Y203.650
G1 X49.865 Y203.460
G1 X49.759 Y202.574
G1 X49.570 Y201.847
G1 X49.286 Y201.362
G1 X49.104 Y201.240
G1 X48.660 Y201.249
G1 X48.495 Y201.395
G1 X48.398 Y201.627
G1 X48.421 Y202.466
G1 X48.590 Y203.077
G0 Z5.000 F500.000
G0 X48.810 Y202.020 F3000.000
G1 Z1.000 F500.000
G4 P100
G1 X48.848 Y201.775 F1000.000
G1 X48.935 Y201.690
G1 X49.059 Y201.837
G1 X49.160 Y202.278
G1 X49.275 Y203.740
G1 X48.935 Y202.785
G1 X48.810 Y202.020
G0 Z5.000 F500.000
G0 X49.890 Y203.940 F3000.000
G1 Z1.000 F500.000
G4 P100
G1 X50.223 Y204.137 F1000.000
G1 X50.465 Y204.528
G1 X50.555 Y205.015
G1 X50.495 Y205.243
G1 X50.335 Y205.320
G1 X50.136 Y205.225
G1 X49.900 Y204.940
G1 X49.890 Y203.940
G0 Z5.000 F500.000
G0 X51.540 Y204.275 F3000.000
G1 Z1.000 F500.000
G4 P100
G1 X51.586 Y204.664 F1000.000
G1 X51.941 Y205.355
G1 X52.534 Y205.771
G1 X52.870 Y205.825
G1 X53.017 Y205.782
G1 X53.080 Y205.630
G1 X53.484 Y205.606
G1 X53.545 Y205.475
G1 X53.355 Y204.175
G1 X53.392 Y204.055
G1 X53.490 Y204.010
G1 X53.720 Y204.132
G1 X54.220 Y204.600
G1 X54.323 Y204.540
G1 X54.360 Y204.375
G1 X54.265 Y204.065
G1 X53.830 Y203.635
G1 X53.385 Y203.460
G1 X53.083 Y203.572
G1 X52.875 Y203.880
G1 X52.581 Y203.565
G1 X52.220 Y203.460
G1 X51.941 Y203.516
G1 X51.725 Y203.685
G1 X51.586 Y203.945
G1 X51.540 Y204.275
G0 Z5.000 F500.000
G0 X52.227 Y204.040 F3000.000
G1 Z1.000 F500.000
G4 P100
G1 X52.400 Y203.965 F1000.000
G1 X52.610 Y204.095
G1 X52.755 Y204.440
G1 X52.940 Y205.360
G1 X52.553 Y205.202
G1 X52.270 Y204.800
G1 X52.165 Y204.270
G1 X52.227 Y204.040
G0 Z5.000 F500.000
G0 X53.720 Y204.115 F3000.000
G1 Z1.000 F500.000
G4 P100
G1 X53.835 Y204.532 F1000.000
G1 X54.160 Y204.700
G1 X54.310 Y204.666
G1 X54.360 Y204.565
G1 X54.315 Y204.185
G1 X54.390 Y204.015
G1 X54.530 Y204.118
G1 X55.045 Y205.515
G1 X55.193 Y205.743
G1 X55.455 Y205.815
G1 X55.688 Y205.760
G1 X55.780 Y205.580
G1 X55.815 Y204.475
G1 X56.375 Y205.615
G1 X56.568 Y205.767
G1 X56.785 Y205.820
G1 X57.030 Y205.743
G1 X57.095 Y205.455
G1 X57.100 Y204.085
G1 X57.250 Y203.985
G1 X57.476 Y204.116
G1 X57.890 Y204.600
G1 X57.993 Y204.540
G1 X58.030 Y204.375
G1 X57.935 Y204.060
G1 X57.488 Y203.625
G1 X57.010 Y203.460
G1 X56.783 Y203.510
G1 X56.630 Y203.660
G1 X56.515 Y204.240
G1 X56.595 Y205.065
G1 X55.890 Y203.512
G1 X55.710 Y203.460
G1 X55.550 Y203.520
G1 X55.460 Y203.710
G1 X55.370 Y204.970
G1 X55.115 Y204.173
G1 X54.790 Y203.662
G1 X54.558 Y203.514
G1 X54.036 Y203.511
G1 X53.863 Y203.650
G1 X53.720 Y204.115
G0 Z5.000 F500.000
G0 X57.625 Y204.185 F3000.000
G1 Z1.000 F500.000
G4 P100
G1 X57.675 Y204.873 F1000.000
G1 X57.840 Y205.535
G1 X57.980 Y205.750
G1 X58.265 Y205.815
G1 X58.418 Y205.780
G1 X58.460 Y205.675
G1 X58.255 Y204.678
G1 X58.251 Y204.227
G1 X58.330 Y204.180
G1 X58.518 Y204.330
G1 X59.128 Y205.750
G1 X59.375 Y205.815
G1 X59.535 Y205.785
G1 X59.580 Y205.685
G1 X59.320 Y204.020
G1 X60.070 Y204.550
G1 X60.185 Y204.590
G1 X60.288 Y204.528
G1 X60.325 Y204.370
G1 X60.180 Y204.075
G1 X59.220 Y203.430
G1 X59.001 Y202.506
G1 X58.723 Y201.803
G1 X58.373 Y201.358
G1 X57.940 Y201.210
G1 X57.709 Y201.249
G1 X57.405 Y201.549
G1 X57.365 Y201.780
G1 X57.473 Y202.260
G1 X57.873 Y202.822
G1 X58.700 Y203.550
G1 X58.795 Y204.195
G1 X58.515 Y203.648
G1 X58.135 Y203.460
G1 X57.931 Y203.512
G1 X57.768 Y203.667
G1 X57.625 Y204.185
G0 Z5.000 F500.000
G0 X58.585 Y202.950 F3000.000
G1 Z1.000 F500.000
G4 P100
G1 X58.028 Y202.357 F1000.000
G1 X57.855 Y201.890
G1 X57.888 Y201.750
G1 X57.995 Y201.695
G1 X58.128 Y201.767
G1 X58.275 Y201.985
G1 X58.585 Y202.950
G0 Z5.000 F500.000
G0 X60.283 Y203.580 F3000.000
G1 Z1.000 F500.000
G4 P100
G1 X60.170 Y203.895 F1000.000
G1 X60.298 Y204.255
G1 X60.655 Y204.390
G1 X60.988 Y204.282
G1 X61.100 Y203.965
G1 X60.970 Y203.597
G1 X60.615 Y203.460
G1 X60.283 Y203.580
G0 Z5.000 F500.000
G0 X62.795 Y203.860 F3000.000
G1 Z1.000 F500.000
G4 P100
G1 X62.685 Y204.270 F1000.000
G1 X62.765 Y204.518
G1 X62.990 Y204.610
G1 X63.148 Y204.562
G1 X63.378 Y204.137
G1 X63.630 Y204.040
G1 X63.817 Y204.121
G1 X63.998 Y204.365
G1 X64.368 Y205.410
G1 X64.785 Y207.320
G1 X64.950 Y207.632
G1 X65.320 Y207.725
G1 X65.620 Y207.616
G1 X65.700 Y207.290
G1 X65.675 Y206.520
G1 X65.795 Y204.620
G1 X66.210 Y205.920
G1 X66.795 Y207.325
G1 X67.070 Y207.692
G1 X67.280 Y207.725
G1 X67.603 Y207.623
G1 X67.695 Y207.330
G1 X67.570 Y205.365
G1 X67.665 Y204.403
G1 X67.791 Y204.142
G1 X67.980 Y204.055
G1 X68.298 Y204.157
G1 X68.810 Y204.600
G1 X68.913 Y204.540
G1 X68.950 Y204.375
G1 X68.855 Y204.065
G1 X68.345 Y203.602
G1 X67.805 Y203.460
G1 X67.418 Y203.569
G1 X67.138 Y203.898
G1 X66.967 Y204.433
G1 X66.910 Y205.165
G1 X67.025 Y206.525
G1 X65.930 Y203.480
G1 X65.715 Y203.420
G1 X65.518 Y203.480
G1 X65.405 Y203.660
G1 X65.210 Y204.618
G1 X65.160 Y206.320
G1 X64.798 Y204.757
G1 X64.606 Y204.242
G1 X64.345 Y203.820
G1 X64.004 Y203.539
G1 X63.570 Y203.445
G1 X63.108 Y203.558
G1 X62.795 Y203.860
G0 Z5.000 F500.000
G0 X68.545 Y204.185 F3000.000
G1 Z1.000 F500.000
G4 P100
G1 X68.595 Y204.873 F1000.000
G1 X68.760 Y205.535
G1 X68.900 Y205.750
G1 X69.185 Y205.815
G1 X69.338 Y205.780
G1 X69.380 Y205.675
G1 X69.170 Y204.222
G1 X69.250 Y204.180
G1 X69.438 Y204.330
G1 X70.048 Y205.750
G1 X70.295 Y205.815
G1 X70.455 Y205.787
G1 X70.500 Y205.685
G1 X70.235 Y204.210
G1 X70.275 Y204.062
G1 X70.380 Y204.010
G1 X70.618 Y204.132
G1 X71.120 Y204.600
G1 X71.222 Y204.540
G1 X71.260 Y204.375
G1 X71.165 Y204.065
G1 X70.703 Y203.630
G1 X70.140 Y203.460
G1 X69.932 Y203.506
G1 X69.788 Y203.645
G1 X69.675 Y204.165
G1 X69.420 Y203.642
G1 X69.055 Y203.460
G1 X68.851 Y203.512
G1 X68.581 Y203.901
G1 X68.545 Y204.185
G0 Z5.000 F500.000
G0 X70.245 Y203.077 F3000.000
G1 Z1.000 F500.000
G4 P100
G1 X70.940 Y204.515 F1000.000
G1 X70.930 Y205.530
G1 X71.045 Y205.760
G1 X71.345 Y205.845
G1 X71.498 Y205.803
G1 X71.555 Y205.450
G1 X71.870 Y205.738
G1 X72.200 Y205.825
G1 X72.454 Y205.769
G1 X72.657 Y205.600
G1 X72.791 Y205.340
G1 X72.835 Y205.010
G1 X72.750 Y204.495
G1 X72.515 Y204.040
G1 X72.690 Y204.010
G1 X73.005 Y204.130
G1 X73.390 Y204.530
G1 X73.525 Y204.600
G1 X73.628 Y204.540
G1 X73.665 Y204.375
G1 X73.570 Y204.065
G1 X73.108 Y203.630
G1 X72.545 Y203.460
G1 X72.305 Y203.507
G1 X72.115 Y203.650
G1 X71.520 Y203.460
G1 X71.414 Y202.574
G1 X71.225 Y201.847
G1 X70.941 Y201.362
G1 X70.759 Y201.240
G1 X70.315 Y201.249
G1 X70.150 Y201.395
G1 X70.053 Y201.627
G1 X70.076 Y202.466
G1 X70.245 Y203.077
G0 Z5.000 F500.000
G0 X70.465 Y202.020 F3000.000
G1 Z1.000 F500.000
G4 P100
G1 X70.503 Y201.775 F1000.000
G1 X70.590 Y201.690
G1 X70.714 Y201.837
G1 X70.815 Y202.278
G1 X70.930 Y203.740
G1 X70.590 Y202.785
G1 X70.465 Y202.020
G0 Z5.000 F500.000
G0 X71.545 Y203.940 F3000.000
G1 Z1.000 F500.000
G4 P100
G1 X71.878 Y204.137 F1000.000
G1 X72.120 Y204.528
G1 X72.210 Y205.015
G1 X72.150 Y205.243
G1 X71.990 Y205.320
G1 X71.791 Y205.225
G1 X71.555 Y204.940
G1 X71.545 Y203.940
G0 Z5.000 F500.000
G0 X73.475 Y203.870 F3000.000
G1 Z1.000 F500.000
G4 P100
G1 X73.593 Y204.255 F1000.000
G1 X73.895 Y204.390
G1 X74.168 Y204.292
G1 X74.260 Y204.030
G1 X74.155 Y203.565
G1 X73.743 Y202.755
G1 X73.590 Y202.695
G1 X73.415 Y202.745
G1 X73.350 Y202.905
G1 X73.475 Y203.870
G0 Z5.000 F500.000
G0 X76.156 Y203.901 F3000.000
G1 Z1.000 F500.000
G4 P100
G1 X76.170 Y204.873 F1000.000
G1 X76.335 Y205.535
G1 X76.475 Y205.750
G1 X76.760 Y205.815
G1 X76.913 Y205.780
G1 X76.955 Y205.675
G1 X76.720 Y204.370
G1 X76.825 Y204.180
G1 X76.988 Y204.273
G1 X77.148 Y204.553
G1 X77.595 Y205.738
G1 X77.815 Y205.790
G1 X77.995 Y205.748
G1 X78.045 Y205.600
G1 X77.900 Y204.222
G1 X77.980 Y204.180
G1 X78.168 Y204.330
G1 X78.778 Y205.750
G1 X79.025 Y205.815
G1 X79.185 Y205.787
G1 X79.230 Y205.685
G1 X78.965 Y204.210
G1 X79.005 Y204.062
G1 X79.110 Y204.010
G1 X79.348 Y204.132
G1 X79.850 Y204.600
G1 X79.953 Y204.540
G1 X79.990 Y204.375
G1 X79.895 Y204.065
G1 X79.423 Y203.630
G1 X78.870 Y203.460
G1 X78.661 Y203.507
G1 X78.515 Y203.648
G1 X78.405 Y204.165
G1 X78.150 Y203.642
G1 X77.785 Y203.460
G1 X77.444 Y203.595
G1 X77.345 Y204.200
G1 X77.025 Y203.650
G1 X76.841 Y203.507
G1 X76.426 Y203.512
G1 X76.156 Y203.901
G0 Z5.000 F500.000
G0 X78.975 Y203.077 F3000.000
G1 Z1.000 F500.000
G4 P100
G1 X79.670 Y204.515 F1000.000
G1 X79.660 Y205.530
G1 X79.775 Y205.760
G1 X80.075 Y205.845
G1 X80.228 Y205.803
G1 X80.285 Y205.450
G1 X80.600 Y205.738
G1 X80.930 Y205.825
G1 X81.184 Y205.769
G1 X81.388 Y205.600
G1 X81.521 Y205.340
G1 X81.565 Y205.010
G1 X81.480 Y204.495
G1 X81.245 Y204.040
G1 X81.420 Y204.010
G1 X81.735 Y204.130
G1 X82.120 Y204.530
G1 X82.255 Y204.600
G1 X82.358 Y204.540
G1 X82.395 Y204.375
G1 X82.300 Y204.065
G1 X81.838 Y203.630
G1 X81.275 Y203.460
G1 X81.035 Y203.507
G1 X80.845 Y203.650
G1 X80.250 Y203.460
G1 X80.144 Y202.574
G1 X79.955 Y201.847
G1 X79.671 Y201.362
G1 X79.489 Y201.240
G1 X79.045 Y201.249
G1 X78.880 Y201.395
G1 X78.783 Y201.627
G1 X78.806 Y202.466
G1 X78.975 Y203.077
G0 Z5.000 F500.000
G0 X79.195 Y202.020 F3000.000
G1 Z1.000 F500.000
G4 P100
G1 X79.233 Y201.775 F1000.000
G1 X79.320 Y201.690
G1 X79.444 Y201.837
G1 X79.545 Y202.278
G1 X79.660 Y203.740
G1 X79.320 Y202.785
G1 X79.195 Y202.020
G0 Z5.000 F500.000
G0 X80.275 Y203.940 F3000.000
G1 Z1.000 F500.000
G4 P100
G1 X80.608 Y204.137 F1000.000
G1 X80.850 Y204.528
G1 X80.940 Y205.015
G1 X80.880 Y205.243
G1 X80.720 Y205.320
G1 X80.521 Y205.225
G1 X80.285 Y204.940
G1 X80.275 Y203.940
G0 Z5.000 F500.000
G0 X81.990 Y204.185 F3000.000
G1 Z1.000 F500.000
G4 P100
G1 X82.040 Y204.873 F1000.000
G1 X82.205 Y205.535
G1 X82.345 Y205.750
G1 X82.630 Y205.815
G1 X82.783 Y205.780
G1 X82.825 Y205.675
G1 X82.615 Y204.222
G1 X82.695 Y204.180
G1 X82.883 Y204.330
G1 X83.493 Y205.750
G1 X83.740 Y205.815
G1 X83.900 Y205.787
G1 X83.945 Y205.685
G1 X83.680 Y204.210
G1 X83.720 Y204.062
G1 X83.825 Y204.010
G1 X84.063 Y204.132
G1 X84.565 Y204.600
G1 X84.668 Y204.540
G1 X84.705 Y204.375
G1 X84.610 Y204.065
G1 X84.148 Y203.630
G1 X83.585 Y203.460
G1 X83.377 Y203.506
G1 X83.233 Y203.645
G1 X83.120 Y204.165
G1 X82.865 Y203.642
G1 X82.500 Y203.460
G1 X82.296 Y203.512
G1 X82.026 Y203.901
G1 X81.990 Y204.185
G0 Z5.000 F500.000
G0 X84.235 Y204.275 F3000.000
G1 Z1.000 F500.000
G4 P100
G1 X84.281 Y204.664 F1000.000
G1 X84.636 Y205.355
G1 X85.229 Y205.771
G1 X85.695 Y205.800
G1 X85.935 Y207.045
G1 X86.068 Y207.325
G1 X86.300 Y207.405
G1 X86.508 Y207.360
G1 X86.570 Y207.210
G1 X86.160 Y205.370
G1 X86.465 Y205.711
G1 X86.810 Y205.825
G1 X87.086 Y205.769
G1 X87.295 Y205.602
G1 X87.426 Y205.343
G1 X87.470 Y205.010
G1 X87.388 Y204.498
G1 X87.155 Y204.040
G1 X87.335 Y204.010
G1 X87.650 Y204.130
G1 X88.170 Y204.600
G1 X88.273 Y204.540
G1 X88.310 Y204.375
G1 X88.215 Y204.065
G1 X87.743 Y203.630
G1 X87.483 Y203.502
G1 X86.946 Y203.507
G1 X86.755 Y203.650
G1 X86.456 Y203.507
G1 X86.025 Y203.485
G1 X86.005 Y202.085
G1 X85.931 Y201.879
G1 X85.710 Y201.810
G1 X85.498 Y201.875
G1 X85.420 Y202.075
G1 X85.545 Y203.915
G1 X85.233 Y203.565
G1 X84.915 Y203.460
G1 X84.636 Y203.516
G1 X84.420 Y203.685
G1 X84.281 Y203.945
G1 X84.235 Y204.275
G0 Z5.000 F500.000
G0 X84.923 Y204.040 F3000.000
G1 Z1.000 F500.000
G4 P100
G1 X85.095 Y203.965 F1000.000
G1 X85.315 Y204.107
G1 X85.465 Y204.505
G1 X85.625 Y205.360
G1 X85.245 Y205.202
G1 X84.965 Y204.800
G1 X84.860 Y204.270
G1 X84.923 Y204.040
G0 Z5.000 F500.000
G0 X86.080 Y203.925 F3000.000
G1 Z1.000 F500.000
G4 P100
G1 X86.460 Y204.083 F1000.000
G1 X86.740 Y204.485
G1 X86.845 Y205.015
G1 X86.783 Y205.245
G1 X86.610 Y205.320
G1 X86.390 Y205.178
G1 X86.240 Y204.780
G1 X86.080 Y203.925
G0 Z5.000 F500.000
G0 X87.961 Y204.934 F3000.000
G1 Z1.000 F500.000
G4 P100
G1 X88.100 Y205.535 F1000.000
G1 X88.248 Y205.748
G1 X88.535 Y205.815
G1 X88.675 Y205.790
G1 X88.715 Y205.695
G1 X88.510 Y204.620
G1 X88.833 Y205.280
G1 X89.218 Y205.683
G1 X89.590 Y205.815
G1 X89.838 Y205.735
G1 X89.910 Y205.490
G1 X89.760 Y204.640
G1 X90.024 Y205.171
G1 X90.315 Y205.535
G1 X90.610 Y205.745
G1 X90.885 Y205.815
G1 X91.129 Y205.734
G1 X91.210 Y205.490
G1 X91.005 Y204.210
G1 X91.041 Y204.060
G1 X91.150 Y204.010
G1 X91.388 Y204.132
G1 X91.890 Y204.600
G1 X91.993 Y204.540
G1 X92.030 Y204.375
G1 X91.935 Y204.065
G1 X91.473 Y203.630
G1 X91.208 Y203.502
G1 X90.686 Y203.497
G1 X90.428 Y203.788
G1 X90.395 Y204.035
G1 X90.530 Y204.970
G1 X90.475 Y205.050
G1 X90.290 Y204.882
G1 X90.050 Y204.440
G1 X89.728 Y203.540
G1 X89.495 Y203.460
G1 X89.248 Y203.618
G1 X89.165 Y204.000
G1 X89.255 Y204.970
G1 X89.200 Y205.050
G1 X89.010 Y204.870
G1 X88.788 Y204.410
G1 X88.488 Y203.542
G1 X88.260 Y203.460
G1 X88.098 Y203.510
G1 X87.993 Y203.660
G1 X87.915 Y204.300
G1 X87.961 Y204.934
G0 Z5.000 F500.000
G0 X91.840 Y203.870 F3000.000
G1 Z1.000 F500.000
G4 P100
G1 X91.958 Y204.255 F1000.000
G1 X92.260 Y204.390
G1 X92.533 Y204.292
G1 X92.625 Y204.030
G1 X92.520 Y203.565
G1 X92.108 Y202.755
G1 X91.955 Y202.695
G1 X91.780 Y202.745
G1 X91.715 Y202.905
G1 X91.840 Y203.870
G0 Z5.000 F500.000
G0 X94.286 Y203.859 F3000.000
G1 Z1.000 F500.000
G4 P100
G1 X94.250 Y204.115 F1000.000
G1 X94.365 Y204.520
G1 X94.504 Y204.636
G1 X94.833 Y204.635
G1 X94.853 Y204.060
G1 X94.920 Y204.015
G1 X95.033 Y204.090
G1 X95.870 Y205.727
G1 X96.170 Y205.805
G1 X96.450 Y205.730
G1 X96.540 Y205.485
G1 X96.564 Y204.116
G1 X96.725 Y203.985
G1 X96.903 Y204.070
G1 X97.435 Y204.600
G1 X97.538 Y204.540
G1 X97.575 Y204.375
G1 X97.480 Y204.065
G1 X97.193 Y203.752
G1 X96.893 Y203.548
G1 X96.490 Y203.460
G1 X96.238 Y203.518
G1 X96.070 Y203.692
G1 X95.976 Y203.984
G1 X95.965 Y204.850
G1 X95.734 Y204.261
G1 X95.463 Y203.825
G1 X95.149 Y203.555
G1 X94.795 Y203.465
G1 X94.568 Y203.511
G1 X94.286 Y203.859
G0 Z5.000 F500.000
G0 X97.266 Y203.901 F3000.000
G1 Z1.000 F500.000
G4 P100
G1 X97.280 Y204.873 F1000.000
G1 X97.445 Y205.535
G1 X97.585 Y205.750
G1 X97.870 Y205.815
G1 X98.023 Y205.780
G1 X98.065 Y205.675
G1 X97.855 Y204.222
G1 X97.935 Y204.180
G1 X98.123 Y204.330
G1 X98.733 Y205.750
G1 X98.980 Y205.815
G1 X99.140 Y205.787
G1 X99.185 Y205.685
G1 X98.920 Y204.210
G1 X98.960 Y204.062
G1 X99.065 Y204.010
G1 X99.303 Y204.132
G1 X99.805 Y204.600
G1 X99.908 Y204.540
G1 X99.945 Y204.375
G1 X99.850 Y204.065
G1 X99.388 Y203.630
G1 X99.123 Y203.502
G1 X98.617 Y203.506
G1 X98.473 Y203.645
G1 X98.360 Y204.165
G1 X98.105 Y203.642
G1 X97.740 Y203.460
G1 X97.536 Y203.512
G1 X97.266 Y203.901
G0 Z5.000 F500.000
G0 X99.628 Y203.660 F3000.000
G1 Z1.000 F500.000
G4 P100
G1 X99.550 Y204.300 F1000.000
G1 X99.596 Y204.934
G1 X99.735 Y205.535
G1 X99.880 Y205.748
G1 X100.170 Y205.815
G1 X100.310 Y205.790
G1 X100.350 Y205.695
G1 X100.200 Y204.935
G1 X100.840 Y204.935
G1 X101.108 Y205.750
G1 X101.515 Y205.787
G1 X101.560 Y205.685
G1 X101.295 Y204.210
G1 X101.335 Y204.062
G1 X101.440 Y204.010
G1 X101.678 Y204.132
G1 X102.180 Y204.600
G1 X102.283 Y204.540
G1 X102.320 Y204.375
G1 X102.225 Y204.065
G1 X101.753 Y203.630
G1 X101.200 Y203.460
G1 X100.979 Y203.500
G1 X100.835 Y203.620
G1 X100.730 Y204.100
G1 X100.755 Y204.425
G1 X100.145 Y204.435
G1 X100.060 Y203.517
G1 X99.895 Y203.460
G1 X99.733 Y203.510
G1 X99.628 Y203.660
G0 Z5.000 F500.000
G0 X101.951 Y203.901 F3000.000
G1 Z1.000 F500.000
G4 P100
G1 X101.965 Y204.873 F1000.000
G1 X102.130 Y205.535
G1 X102.270 Y205.750
G1 X102.555 Y205.815
G1 X102.708 Y205.780
G1 X102.750 Y205.675
G1 X102.540 Y204.222
G1 X102.620 Y204.180
G1 X102.808 Y204.330
G1 X103.418 Y205.750
G1 X103.665 Y205.815
G1 X103.825 Y205.787
G1 X103.870 Y205.685
G1 X103.605 Y204.210
G1 X103.645 Y204.062
G1 X103.750 Y204.010
G1 X103.988 Y204.132
G1 X104.490 Y204.600
G1 X104.593 Y204.540
G1 X104.630 Y204.375
G1 X104.535 Y204.065
G1 X104.073 Y203.630
G1 X103.808 Y203.502
G1 X103.302 Y203.506
G1 X103.158 Y203.645
G1 X103.045 Y204.165
G1 X102.790 Y203.642
G1 X102.425 Y203.460
G1 X102.221 Y203.512
G1 X101.951 Y203.901
G0 Z5.000 F500.000
G0 X103.990 Y204.115 F3000.000
G1 Z1.000 F500.000
G4 P100
G1 X104.108 Y204.525 F1000.000
G1 X104.430 Y204.675
G1 X104.565 Y204.639
G1 X104.610 Y204.530
G1 X104.660 Y204.075
G1 X104.850 Y203.970
G1 X105.165 Y204.067
G1 X105.480 Y204.345
G1 X105.146 Y204.393
G1 X104.938 Y204.535
G1 X104.804 Y204.757
G1 X104.760 Y205.045
G1 X104.814 Y205.373
G1 X104.975 Y205.618
G1 X105.233 Y205.769
G1 X105.575 Y205.820
G1 X106.130 Y205.735
G1 X106.360 Y205.810
G1 X106.518 Y205.762
G1 X106.565 Y205.635
G1 X106.360 Y204.640
G1 X106.358 Y204.062
G1 X106.465 Y204.010
G1 X106.695 Y204.125
G1 X107.205 Y204.600
G1 X107.308 Y204.540
G1 X107.345 Y204.375
G1 X107.250 Y204.065
G1 X106.750 Y203.610
G1 X106.275 Y203.460
G1 X105.960 Y203.605
G1 X105.850 Y204.020
G1 X105.880 Y204.335
G1 X105.344 Y203.679
G1 X105.030 Y203.515
G1 X104.685 Y203.460
G1 X104.404 Y203.505
G1 X104.183 Y203.640
G1 X104.038 Y203.849
G1 X103.990 Y204.115
G0 Z5.000 F500.000
G0 X105.368 Y204.815 F3000.000
G1 Z1.000 F500.000
G4 P100
G1 X105.745 Y204.730 F1000.000
G1 X106.015 Y205.360
G1 X105.695 Y205.415
G1 X105.385 Y205.320
G1 X105.275 Y205.050
G1 X105.368 Y204.815
G0 Z5.000 F500.000
G0 X107.218 Y204.255 F3000.000
G1 Z1.000 F500.000
G4 P100
G1 X107.575 Y204.390 F1000.000
G1 X107.908 Y204.282
G1 X108.020 Y203.965
G1 X107.890 Y203.597
G1 X107.535 Y203.460
G1 X107.203 Y203.580
G1 X107.090 Y203.895
G1 X107.218 Y204.255
G0 Z5.000 F500.000
G0 X83.678 Y16.423 F3000.000
G1 Z1.000 F500.000
G4 P100
G1 X84.215 Y16.542 F1000.000
G1 X84.284 Y16.434
G1 X84.041 Y14.765
G0 Z5.000 F500.000
M400
M84
; End
