; Generated by plotter-processor
; Page 15/20
; Motion profile: safe
; Draw feed: 1000.000 mm/min
; Travel feed: 3000.000 mm/min
; Z feed: 500.000 mm/min
; Pen Z: down=1.000 up=5.000
; Down settle: 100 ms
; Estimated ideal time: 499.565915 s
G21
G90
G0 Z5.000 F500.000
G0 X27.022 Y205.620 F3000.000
G1 Z1.000 F500.000
G4 P100
G1 X26.824 Y204.546 F1000.000
G1 X27.415 Y204.458
G1 X28.306 Y205.089
G1 X28.496 Y205.480
G1 X28.513 Y205.896
G1 X28.403 Y206.180
G1 X28.189 Y206.400
G1 X27.491 Y206.612
G1 X26.670 Y206.495
G1 X26.005 Y206.053
G1 X25.584 Y205.354
G1 X25.405 Y204.439
G1 X25.484 Y203.569
G1 X25.826 Y203.034
G1 X26.263 Y202.940
G1 X26.537 Y203.186
G1 X26.731 Y204.441
G1 X26.350 Y204.495
G1 X26.731 Y204.441
G1 X26.824 Y204.546
G1 X27.415 Y204.458
G1 X27.856 Y203.979
G1 X28.348 Y203.144
G1 X28.862 Y202.936
G1 X29.245 Y203.040
G1 X29.637 Y203.388
G1 X29.841 Y204.245
G1 X30.074 Y204.585
G1 X30.540 Y204.705
G1 X30.922 Y204.517
G1 X31.091 Y203.835
G1 X30.985 Y203.352
G1 X30.767 Y203.045
G1 X30.374 Y202.924
G1 X30.062 Y202.985
G1 X29.856 Y203.204
G1 X29.753 Y203.605
G0 Z5.000 F500.000
G0 X32.124 Y204.754 F3000.000
G1 Z1.000 F500.000
G4 P100
G1 X32.062 Y204.684 F1000.000
G1 X32.126 Y203.290
G1 X32.191 Y203.052
G1 X32.342 Y202.954
G1 X32.616 Y203.114
G1 X33.037 Y203.934
G1 X33.247 Y204.065
G1 X33.561 Y204.060
G1 X33.365 Y204.603
G1 X33.398 Y204.732
G1 X33.367 Y204.593
G1 X33.571 Y204.101
G1 X33.496 Y204.023
G1 X33.247 Y204.065
G1 X33.380 Y203.775
G1 X33.414 Y203.177
G1 X33.541 Y202.960
G1 X33.789 Y203.013
G1 X34.717 Y204.724
G0 Z5.000 F500.000
G0 X57.008 Y205.620 F3000.000
G1 Z1.000 F500.000
G4 P100
G1 X56.811 Y204.546 F1000.000
G1 X57.402 Y204.458
G1 X58.292 Y205.089
G1 X58.483 Y205.480
G1 X58.500 Y205.896
G1 X58.390 Y206.180
G1 X58.176 Y206.400
G1 X57.478 Y206.612
G1 X56.657 Y206.495
G1 X55.992 Y206.053
G1 X55.571 Y205.354
G1 X55.392 Y204.439
G1 X55.471 Y203.569
G1 X55.813 Y203.034
G1 X56.250 Y202.940
G1 X56.524 Y203.186
G1 X56.718 Y204.441
G1 X56.337 Y204.495
G1 X56.718 Y204.441
G1 X56.811 Y204.546
G1 X57.402 Y204.458
G1 X57.843 Y203.979
G1 X58.291 Y203.193
G1 X58.646 Y202.961
G1 X58.951 Y202.943
G1 X59.244 Y203.047
G1 X59.583 Y203.337
G1 X59.728 Y203.611
G0 Z5.000 F500.000
G0 X60.144 Y204.822 F3000.000
G1 Z1.000 F500.000
G4 P100
G1 X59.982 Y204.659 F1000.000
G1 X59.854 Y204.147
G1 X59.829 Y203.193
G1 X59.956 Y203.026
G1 X60.125 Y203.036
G1 X60.560 Y203.482
G1 X60.888 Y203.597
G1 X60.932 Y202.957
G1 X60.888 Y203.597
G1 X61.189 Y204.747
G1 X61.335 Y204.791
G1 X61.412 Y204.652
G1 X61.599 Y203.055
G1 X62.376 Y204.051
G1 X62.608 Y204.214
G1 X62.722 Y204.694
G1 X62.888 Y204.849
G1 X62.722 Y204.694
G1 X62.608 Y204.214
G1 X63.078 Y203.591
G1 X63.158 Y203.191
G1 X62.936 Y202.900
G1 X62.527 Y202.901
G0 Z5.000 F500.000
G0 X63.825 Y203.108 F3000.000
G1 Z1.000 F500.000
G4 P100
G1 X64.502 Y204.040 F1000.000
G1 X64.743 Y204.214
G1 X64.857 Y204.694
G1 X65.023 Y204.849
G1 X64.857 Y204.694
G1 X64.743 Y204.214
G1 X65.213 Y203.591
G1 X65.293 Y203.191
G1 X65.071 Y202.900
G1 X64.662 Y202.901
G0 Z5.000 F500.000
G0 X66.253 Y202.896 F3000.000
G1 Z1.000 F500.000
G4 P100
G1 X66.555 Y204.603 F1000.000
G1 X66.653 Y204.742
G0 Z5.000 F500.000
G0 X68.691 Y203.260 F3000.000
G1 Z1.000 F500.000
G4 P100
G1 X68.915 Y204.506 F1000.000
G1 X68.480 Y204.758
G1 X68.098 Y204.601
G1 X67.777 Y204.261
G1 X67.580 Y203.807
G1 X67.543 Y203.327
G1 X67.640 Y203.054
G1 X67.832 Y202.913
G1 X68.076 Y202.924
G1 X68.386 Y203.185
G1 X68.691 Y203.260
G1 X68.728 Y202.964
G0 Z5.000 F500.000
G0 X70.260 Y204.810 F3000.000
G1 Z1.000 F500.000
G4 P100
G1 X70.097 Y204.556 F1000.000
G1 X69.984 Y204.034
G1 X70.011 Y202.935
G1 X70.018 Y203.457
G1 X70.390 Y203.685
G1 X70.767 Y204.349
G1 X71.329 Y204.539
G1 X71.351 Y204.634
G1 X71.217 Y202.972
G0 Z5.000 F500.000
G0 X66.704 Y205.694 F3000.000
G1 Z1.000 F500.000
G4 P100
G1 X66.839 Y205.716 F1000.000
G0 Z5.000 F500.000
G0 X54.980 Y193.011 F3000.000
G1 Z1.000 F500.000
G4 P100
G1 X55.657 Y193.943 F1000.000
G1 X55.898 Y194.117
G1 X56.012 Y194.597
G1 X56.178 Y194.752
G1 X56.012 Y194.597
G1 X55.898 Y194.117
G1 X56.368 Y193.494
G1 X56.448 Y193.094
G1 X56.226 Y192.803
G1 X55.817 Y192.804
G0 Z5.000 F500.000
G0 X58.616 Y193.163 F3000.000
G1 Z1.000 F500.000
G4 P100
G1 X58.840 Y194.409 F1000.000
G1 X58.405 Y194.661
G1 X58.023 Y194.504
G1 X57.702 Y194.164
G1 X57.505 Y193.710
G1 X57.468 Y193.230
G1 X57.565 Y192.957
G1 X57.757 Y192.816
G1 X58.001 Y192.827
G1 X58.311 Y193.088
G1 X58.616 Y193.163
G1 X58.653 Y192.867
G0 Z5.000 F500.000
G0 X60.214 Y194.735 F3000.000
G1 Z1.000 F500.000
G4 P100
G1 X60.038 Y194.546 F1000.000
G1 X59.902 Y193.933
G1 X59.933 Y192.850
G1 X59.977 Y193.368
G1 X60.281 Y193.566
G1 X60.690 Y194.278
G1 X61.096 Y194.446
G1 X61.200 Y194.224
G1 X61.157 Y193.680
G1 X61.242 Y193.395
G1 X61.171 Y192.835
G1 X61.242 Y193.395
G1 X61.538 Y193.589
G1 X61.987 Y194.303
G1 X62.445 Y194.428
G1 X62.498 Y194.059
G1 X62.382 Y192.857
G0 Z5.000 F500.000
G0 X63.729 Y194.281 F3000.000
G1 Z1.000 F500.000
G4 P100
G1 X63.992 Y194.340 F1000.000
G1 X64.385 Y194.613
G1 X64.694 Y194.605
G1 X64.926 Y194.310
G1 X64.921 Y193.782
G1 X64.682 Y193.237
G1 X64.274 Y192.867
G1 X63.712 Y192.789
G1 X63.573 Y193.141
G1 X63.188 Y192.886
G1 X62.849 Y192.028
G1 X62.684 Y191.285
G1 X62.712 Y190.754
G1 X62.935 Y190.526
G1 X63.129 Y190.550
G1 X63.290 Y190.695
G1 X63.517 Y191.387
G1 X63.712 Y192.789
G1 X63.573 Y193.141
G1 X63.729 Y194.281
G1 X63.667 Y194.572
G1 X63.744 Y194.684
G0 Z5.000 F500.000
G0 X66.129 Y193.812 F3000.000
G1 Z1.000 F500.000
G4 P100
G1 X66.382 Y193.908 F1000.000
G1 X66.561 Y194.104
G1 X67.221 Y195.562
G1 X67.344 Y196.580
G1 X67.248 Y196.887
G1 X67.060 Y197.008
G1 X66.810 Y196.940
G1 X66.602 Y196.689
G1 X66.202 Y195.515
G1 X66.031 Y194.173
G1 X66.129 Y193.812
G1 X66.079 Y193.418
G1 X66.196 Y193.088
G1 X66.470 Y192.848
G1 X66.865 Y192.836
G1 X67.104 Y192.958
G1 X67.444 Y193.346
G1 X68.473 Y193.709
G1 X68.706 Y193.994
G1 X68.739 Y194.334
G1 X68.585 Y194.573
G1 X68.261 Y194.644
G1 X67.887 Y194.477
G1 X67.622 Y194.078
G1 X67.548 Y193.625
G1 X67.682 Y193.081
G1 X68.014 Y192.829
G1 X68.485 Y192.802
G1 X68.878 Y192.999
G1 X69.095 Y193.365
G0 Z5.000 F500.000
G0 X88.099 Y205.518 F3000.000
G1 Z1.000 F500.000
G4 P100
G1 X88.141 Y206.113 F1000.000
G1 X87.817 Y206.519
G1 X87.152 Y206.605
G1 X86.539 Y206.353
G1 X86.240 Y206.013
G1 X86.060 Y205.559
G1 X85.843 Y203.435
G1 X85.513 Y203.199
G1 X85.074 Y203.103
G1 X85.513 Y203.199
G1 X85.843 Y203.435
G1 X87.218 Y203.013
G1 X87.822 Y202.976
G1 X88.362 Y203.201
G1 X88.680 Y203.614
G0 Z5.000 F500.000
G0 X89.833 Y203.260 F3000.000
G1 Z1.000 F500.000
G4 P100
G1 X90.057 Y204.506 F1000.000
G1 X89.622 Y204.758
G1 X89.240 Y204.601
G1 X88.919 Y204.261
G1 X88.722 Y203.807
G1 X88.685 Y203.327
G1 X88.782 Y203.054
G1 X88.974 Y202.913
G1 X89.218 Y202.924
G1 X89.528 Y203.185
G1 X89.833 Y203.260
G1 X89.870 Y202.964
G0 Z5.000 F500.000
G0 X90.782 Y204.749 F3000.000
G1 Z1.000 F500.000
G4 P100
G1 X91.254 Y204.718 F1000.000
G1 X91.387 Y204.829
G1 X91.397 Y205.316
G1 X91.650 Y206.202
G1 X91.912 Y206.640
G1 X92.202 Y206.778
G1 X92.443 Y206.589
G1 X92.461 Y206.060
G1 X92.307 Y205.619
G1 X91.900 Y205.076
G1 X91.826 Y204.832
G1 X92.177 Y204.761
G1 X92.598 Y204.842
G1 X92.177 Y204.761
G1 X91.387 Y204.829
G1 X91.299 Y204.734
G1 X91.316 Y203.632
G1 X91.532 Y203.074
G1 X92.005 Y202.912
G1 X92.282 Y203.000
G1 X92.449 Y203.169
G1 X92.982 Y202.914
G1 X93.161 Y204.193
G1 X93.340 Y204.742
G0 Z5.000 F500.000
G0 X94.597 Y204.810 F3000.000
G1 Z1.000 F500.000
G4 P100
G1 X94.434 Y204.556 F1000.000
G1 X94.321 Y204.034
G1 X94.348 Y202.935
G1 X94.355 Y203.457
G1 X94.727 Y203.685
G1 X95.104 Y204.349
G1 X95.666 Y204.539
G1 X95.688 Y204.634
G1 X95.554 Y202.972
G0 Z5.000 F500.000
G0 X97.681 Y203.108 F3000.000
G1 Z1.000 F500.000
G4 P100
G1 X98.359 Y204.040 F1000.000
G1 X98.599 Y204.214
G1 X98.714 Y204.694
G1 X98.880 Y204.849
G1 X98.714 Y204.694
G1 X98.599 Y204.214
G1 X99.069 Y203.591
G1 X99.149 Y203.191
G1 X98.927 Y202.900
G1 X98.519 Y202.901
G0 Z5.000 F500.000
G0 X101.318 Y203.260 F3000.000
G1 Z1.000 F500.000
G4 P100
G1 X101.542 Y204.506 F1000.000
G1 X101.107 Y204.758
G1 X100.725 Y204.601
G1 X100.404 Y204.261
G1 X100.207 Y203.807
G1 X100.170 Y203.327
G1 X100.267 Y203.054
G1 X100.459 Y202.913
G1 X100.703 Y202.924
G1 X101.013 Y203.185
G1 X101.318 Y203.260
G1 X101.355 Y202.964
G0 Z5.000 F500.000
G0 X102.916 Y204.832 F3000.000
G1 Z1.000 F500.000
G4 P100
G1 X102.740 Y204.643 F1000.000
G1 X102.604 Y204.030
G1 X102.635 Y202.947
G1 X102.679 Y203.465
G1 X102.982 Y203.663
G1 X103.392 Y204.375
G1 X103.798 Y204.543
G1 X103.901 Y204.321
G1 X103.859 Y203.777
G1 X103.944 Y203.492
G1 X103.873 Y202.932
G1 X103.944 Y203.492
G1 X104.240 Y203.686
G1 X104.689 Y204.400
G1 X105.147 Y204.525
G1 X105.200 Y204.156
G1 X105.084 Y202.954
G0 Z5.000 F500.000
G0 X106.431 Y204.378 F3000.000
G1 Z1.000 F500.000
G4 P100
G1 X106.694 Y204.437 F1000.000
G1 X107.086 Y204.710
G1 X107.396 Y204.702
G1 X107.628 Y204.407
G1 X107.623 Y203.879
G1 X107.384 Y203.334
G1 X106.976 Y202.964
G1 X106.414 Y202.886
G1 X106.275 Y203.238
G1 X105.890 Y202.983
G1 X105.551 Y202.125
G1 X105.386 Y201.382
G1 X105.414 Y200.851
G1 X105.637 Y200.623
G1 X105.831 Y200.647
G1 X105.992 Y200.792
G1 X106.219 Y201.484
G1 X106.414 Y202.886
G1 X106.275 Y203.238
G1 X106.431 Y204.378
G1 X106.369 Y204.669
G1 X106.446 Y204.781
G0 Z5.000 F500.000
G0 X108.831 Y203.909 F3000.000
G1 Z1.000 F500.000
G4 P100
G1 X109.083 Y204.005 F1000.000
G1 X109.262 Y204.201
G1 X109.922 Y205.659
G1 X110.046 Y206.677
G1 X109.950 Y206.984
G1 X109.762 Y207.105
G1 X109.512 Y207.037
G1 X109.304 Y206.786
G1 X108.904 Y205.612
G1 X108.732 Y204.270
G1 X108.831 Y203.909
G1 X108.781 Y203.515
G1 X108.898 Y203.185
G1 X109.171 Y202.945
G1 X109.567 Y202.933
G1 X109.806 Y203.055
G1 X110.145 Y203.443
G1 X111.175 Y203.806
G1 X111.408 Y204.091
G1 X111.440 Y204.431
G1 X111.287 Y204.670
G1 X110.963 Y204.741
G1 X110.588 Y204.574
G1 X110.324 Y204.175
G1 X110.250 Y203.722
G1 X110.384 Y203.178
G1 X110.716 Y202.926
G1 X111.187 Y202.899
G1 X111.580 Y203.096
G1 X111.796 Y203.462
G0 Z5.000 F500.000
G0 X93.391 Y205.694 F3000.000
G1 Z1.000 F500.000
G4 P100
G1 X93.525 Y205.716 F1000.000
G0 Z5.000 F500.000
G0 X114.990 Y205.816 F3000.000
G1 Z1.000 F500.000
G4 P100
G1 X115.265 Y206.222 F1000.000
G1 X115.659 Y206.511
G1 X116.040 Y206.571
G1 X116.278 Y206.400
G1 X116.265 Y205.408
G1 X116.350 Y205.115
G1 X115.971 Y202.976
G1 X116.350 Y205.115
G1 X116.665 Y205.320
G1 X117.221 Y206.275
G1 X117.780 Y206.571
G1 X118.095 Y206.527
G1 X118.283 Y206.331
G1 X118.410 Y205.286
G1 X117.976 Y202.979
G1 X118.410 Y205.286
G1 X118.727 Y205.476
G1 X119.241 Y206.305
G1 X119.701 Y206.560
G1 X120.152 Y206.478
G1 X120.331 Y206.090
G1 X119.935 Y203.817
G1 X120.016 Y203.210
G1 X120.327 Y202.968
G1 X120.773 Y202.967
G1 X121.187 Y203.209
G1 X121.462 Y203.614
G0 Z5.000 F500.000
G0 X121.504 Y203.506 F3000.000
G1 Z1.000 F500.000
G4 P100
G1 X122.146 Y203.677 F1000.000
G1 X122.535 Y203.977
G1 X122.630 Y204.438
G1 X122.359 Y204.724
G1 X121.943 Y204.682
G1 X121.604 Y204.360
G1 X121.445 Y203.853
G1 X121.512 Y203.317
G1 X121.709 Y203.034
G1 X122.057 Y202.891
G1 X122.477 Y202.925
G1 X122.808 Y203.132
G1 X122.987 Y203.455
G1 X123.073 Y204.607
G1 X123.234 Y204.788
G1 X123.645 Y204.717
G1 X123.784 Y204.829
G1 X123.798 Y205.337
G1 X124.062 Y206.235
G1 X124.324 Y206.656
G1 X124.628 Y206.777
G1 X124.846 Y206.568
G1 X124.854 Y206.038
G1 X124.697 Y205.606
G1 X124.297 Y205.076
G1 X124.223 Y204.832
G1 X124.574 Y204.761
G1 X124.995 Y204.842
G1 X124.574 Y204.761
G1 X123.784 Y204.829
G1 X123.696 Y204.734
G1 X123.691 Y203.858
G1 X123.795 Y203.300
G1 X124.036 Y202.987
G1 X124.489 Y202.926
G1 X124.846 Y203.169
G0 Z5.000 F500.000
G0 X125.776 Y204.817 F3000.000
G1 Z1.000 F500.000
G4 P100
G1 X125.625 Y204.661 F1000.000
G1 X125.470 Y203.978
G1 X125.556 Y203.457
G1 X125.512 Y202.930
G1 X125.556 Y203.457
G1 X125.855 Y203.647
G1 X126.302 Y204.379
G1 X126.838 Y204.649
G1 X126.750 Y204.539
G1 X126.938 Y203.933
G1 X126.891 Y203.841
G1 X126.938 Y203.933
G1 X127.253 Y204.025
G1 X127.485 Y202.919
G1 X127.666 Y202.939
G1 X127.927 Y204.653
G1 X128.179 Y204.789
G1 X128.548 Y204.684
G1 X129.659 Y204.003
G1 X129.964 Y204.171
G1 X129.963 Y204.581
G1 X129.774 Y204.728
G1 X129.478 Y204.716
G1 X129.211 Y204.551
G1 X129.005 Y204.260
G1 X128.899 Y203.495
G1 X129.009 Y203.194
G1 X129.217 Y202.994
G1 X129.566 Y202.893
G1 X129.931 Y202.956
G1 X130.219 Y203.165
G1 X130.372 Y203.477
G0 Z5.000 F500.000
G0 X128.063 Y205.694 F3000.000
G1 Z1.000 F500.000
G4 P100
G1 X128.197 Y205.716 F1000.000
G0 Z5.000 F500.000
G0 X25.391 Y179.685 F3000.000
G1 Z1.000 F500.000
G4 P100
G1 X26.062 Y179.834 F1000.000
G1 X26.149 Y179.698
G1 X25.845 Y177.612
G0 Z5.000 F500.000
G0 X27.355 Y178.057 F3000.000
G1 Z1.000 F500.000
G4 P100
G1 X27.327 Y178.905 F1000.000
G1 X27.581 Y179.583
G1 X28.059 Y179.907
G1 X28.634 Y179.798
G1 X28.875 Y179.474
G1 X28.956 Y178.970
G1 X28.885 Y178.340
G1 X28.672 Y177.868
G1 X28.343 Y177.598
G1 X27.927 Y177.542
G1 X27.565 Y177.702
G1 X27.355 Y178.057
G0 Z5.000 F500.000
G0 X56.308 Y177.622 F3000.000
G1 Z1.000 F500.000
G4 P100
G1 X56.843 Y180.926 F1000.000
G1 X56.754 Y181.111
G1 X56.323 Y181.135
G1 X55.761 Y180.975
G1 X55.437 Y180.732
G1 X55.312 Y180.366
G1 X55.407 Y179.976
G1 X55.311 Y180.315
G1 X55.392 Y180.666
G1 X55.646 Y180.914
G1 X56.059 Y181.076
G1 X56.526 Y181.154
G1 X56.833 Y181.072
G1 X57.103 Y181.197
G1 X57.585 Y181.218
G1 X58.418 Y181.199
G1 X58.735 Y181.074
G1 X59.060 Y181.149
G1 X59.662 Y181.072
G1 X59.060 Y181.149
G1 X58.735 Y181.074
G1 X58.258 Y178.169
G1 X58.449 Y177.709
G1 X58.918 Y177.559
G1 X59.414 Y177.750
G1 X59.787 Y178.232
G0 Z5.000 F500.000
G0 X60.870 Y177.773 F3000.000
G1 Z1.000 F500.000
G4 P100
G1 X61.183 Y178.541 F1000.000
G1 X61.128 Y179.161
G1 X60.954 Y179.324
G1 X60.725 Y179.353
G1 X59.984 Y179.001
G1 X59.945 Y179.341
G1 X59.927 Y178.264
G1 X59.828 Y177.861
G1 X59.967 Y177.510
G1 X59.755 Y176.028
G1 X59.504 Y175.363
G1 X59.309 Y175.246
G1 X59.096 Y175.285
G1 X58.933 Y175.641
G1 X58.983 Y176.281
G1 X59.373 Y177.461
G1 X59.603 Y177.774
G1 X59.828 Y177.861
G1 X60.031 Y177.500
G1 X60.401 Y177.529
G1 X60.870 Y177.773
G1 X61.125 Y177.559
G1 X61.474 Y177.553
G1 X61.950 Y177.855
G1 X62.294 Y178.405
G1 X62.477 Y178.539
G1 X62.975 Y178.703
G1 X63.435 Y178.692
G1 X63.605 Y178.464
G1 X63.538 Y178.149
G1 X63.377 Y177.807
G1 X63.117 Y177.587
G1 X62.811 Y177.520
G1 X62.521 Y177.608
G1 X62.301 Y177.830
G1 X62.194 Y178.155
G1 X62.201 Y178.584
G1 X62.324 Y178.950
G1 X62.552 Y179.214
G1 X62.859 Y179.346
G1 X63.267 Y179.223
G1 X63.605 Y178.464
G1 X64.003 Y178.457
G1 X64.411 Y178.577
G0 Z5.000 F500.000
G0 X65.970 Y178.464 F3000.000
G1 Z1.000 F500.000
G4 P100
G1 X65.654 Y179.207 F1000.000
G1 X65.259 Y179.447
G1 X65.291 Y179.675
G1 X65.720 Y180.483
G1 X65.855 Y181.044
G1 X65.790 Y181.568
G1 X65.662 Y181.703
G1 X65.482 Y181.727
G1 X65.269 Y181.623
G1 X65.087 Y181.376
G1 X64.739 Y180.352
G1 X64.587 Y179.399
G1 X64.622 Y179.023
G1 X64.930 Y179.108
G1 X65.272 Y179.390
G1 X64.930 Y179.108
G1 X64.622 Y179.023
G1 X64.553 Y178.437
G1 X64.647 Y177.920
G1 X64.942 Y177.581
G1 X65.377 Y177.546
G1 X65.772 Y177.856
G1 X65.970 Y178.464
G1 X66.766 Y178.564
G0 Z5.000 F500.000
G0 X66.858 Y178.125 F3000.000
G1 Z1.000 F500.000
G4 P100
G1 X67.544 Y178.323 F1000.000
G1 X67.925 Y178.662
G1 X67.996 Y178.930
G1 X67.937 Y179.177
G1 X67.779 Y179.322
G1 X67.529 Y179.367
G1 X67.116 Y179.184
G1 X66.845 Y178.730
G1 X66.802 Y178.275
G1 X66.881 Y177.909
G1 X67.028 Y177.703
G1 X67.435 Y177.519
G1 X67.956 Y177.557
G1 X68.535 Y177.879
G1 X68.777 Y178.232
G0 Z5.000 F500.000
G0 X69.860 Y177.773 F3000.000
G1 Z1.000 F500.000
G4 P100
G1 X70.173 Y178.541 F1000.000
G1 X70.118 Y179.161
G1 X69.944 Y179.324
G1 X69.715 Y179.353
G1 X68.974 Y179.001
G1 X68.935 Y179.341
G1 X68.917 Y178.264
G1 X68.818 Y177.861
G1 X68.957 Y177.510
G1 X68.745 Y176.028
G1 X68.494 Y175.363
G1 X68.299 Y175.246
G1 X68.086 Y175.285
G1 X67.926 Y175.619
G1 X67.959 Y176.209
G1 X68.189 Y177.026
G1 X68.523 Y177.721
G1 X68.818 Y177.861
G1 X68.957 Y177.510
G1 X69.050 Y177.497
G1 X69.405 Y177.534
G1 X69.860 Y177.773
G1 X70.109 Y177.562
G1 X70.435 Y177.547
G1 X70.887 Y177.804
G1 X71.186 Y178.245
G0 Z5.000 F500.000
G0 X72.868 Y178.735 F3000.000
G1 Z1.000 F500.000
G4 P100
G1 X72.958 Y179.029 F1000.000
G1 X72.844 Y179.290
G1 X72.575 Y179.366
G1 X72.286 Y179.257
G1 X71.991 Y178.853
G1 X71.843 Y178.191
G1 X71.340 Y178.003
G1 X71.306 Y177.578
G1 X71.278 Y178.705
G1 X71.407 Y179.267
G1 X71.584 Y179.456
G1 X71.410 Y179.274
G1 X71.287 Y178.762
G1 X71.242 Y178.298
G1 X71.340 Y178.003
G1 X71.843 Y178.191
G1 X72.197 Y177.661
G1 X72.706 Y177.519
G1 X73.155 Y177.745
G1 X73.508 Y178.235
G0 Z5.000 F500.000
G0 X74.676 Y177.969 F3000.000
G1 Z1.000 F500.000
G4 P100
G1 X74.891 Y179.148 F1000.000
G1 X74.395 Y179.372
G1 X73.941 Y179.118
G1 X73.614 Y178.629
G1 X73.508 Y177.999
G1 X73.687 Y177.605
G1 X74.111 Y177.544
G1 X74.676 Y177.969
G1 X74.905 Y177.596
G1 X75.196 Y177.552
G1 X75.622 Y177.855
G1 X75.857 Y178.235
G0 Z5.000 F500.000
G0 X78.688 Y177.705 F3000.000
G1 Z1.000 F500.000
G4 P100
G1 X78.819 Y178.228 F1000.000
G1 X78.696 Y178.582
G1 X78.348 Y178.723
G1 X77.936 Y178.599
G1 X77.599 Y178.936
G1 X77.733 Y179.263
G1 X78.148 Y179.419
G1 X77.733 Y179.263
G1 X77.150 Y179.473
G1 X77.733 Y179.263
G1 X77.497 Y178.752
G1 X77.496 Y178.503
G1 X77.936 Y178.599
G1 X77.486 Y178.499
G1 X77.415 Y178.303
G1 X77.442 Y177.898
G1 X77.718 Y177.587
G1 X78.076 Y177.511
G1 X78.688 Y177.705
G1 X78.896 Y177.549
G1 X79.223 Y177.567
G1 X79.643 Y177.853
G1 X79.891 Y178.230
G0 Z5.000 F500.000
G0 X79.718 Y176.724 F3000.000
G1 Z1.000 F500.000
G4 P100
G1 X80.018 Y177.810 F1000.000
G0 Z5.000 F500.000
G0 X56.696 Y167.608 F3000.000
G1 Z1.000 F500.000
G4 P100
G1 X56.838 Y168.146 F1000.000
G1 X56.766 Y168.412
G1 X56.497 Y168.607
G1 X56.184 Y168.596
G1 X55.903 Y168.463
G1 X55.711 Y168.632
G1 X55.509 Y168.856
G1 X55.600 Y169.191
G1 X55.754 Y169.327
G1 X55.590 Y169.164
G1 X55.465 Y168.424
G1 X55.542 Y168.308
G1 X55.903 Y168.463
G1 X55.542 Y168.308
G1 X55.485 Y168.355
G1 X55.411 Y168.085
G1 X55.499 Y167.734
G1 X55.721 Y167.507
G1 X56.099 Y167.409
G1 X56.664 Y167.628
G1 X56.902 Y167.451
G1 X57.220 Y167.465
G1 X57.650 Y167.743
G1 X57.912 Y168.135
G0 Z5.000 F500.000
G0 X57.738 Y166.627 F3000.000
G1 Z1.000 F500.000
G4 P100
G1 X58.038 Y167.713 F1000.000
G0 Z5.000 F500.000
G0 X63.121 Y169.273 F3000.000
G1 Z1.000 F500.000
G4 P100
G1 X62.780 Y168.414 F1000.000
G1 X62.074 Y168.040
G1 X62.137 Y168.089
G1 X61.969 Y168.099
G1 X61.927 Y168.402
G1 X61.800 Y168.566
G1 X61.480 Y168.616
G1 X61.095 Y168.465
G1 X60.707 Y168.851
G1 X60.796 Y169.192
G1 X60.949 Y169.327
G1 X60.785 Y169.165
G1 X60.660 Y168.423
G1 X60.723 Y168.321
G1 X61.095 Y168.465
G1 X60.676 Y168.349
G1 X60.612 Y167.998
G1 X60.716 Y167.693
G1 X61.051 Y167.449
G1 X61.514 Y167.460
G1 X61.843 Y167.671
G1 X62.074 Y168.040
G1 X62.780 Y168.414
G1 X62.920 Y167.638
G1 X63.232 Y167.429
G1 X63.677 Y167.642
G1 X64.032 Y168.138
G0 Z5.000 F500.000
G0 X63.858 Y166.627 F3000.000
G1 Z1.000 F500.000
G4 P100
G1 X64.158 Y167.713 F1000.000
G0 Z5.000 F500.000
G0 X67.059 Y169.349 F3000.000
G1 Z1.000 F500.000
G4 P100
G1 X66.880 Y169.144 F1000.000
G1 X66.708 Y168.268
G1 X66.715 Y167.823
G1 X66.871 Y167.555
G1 X67.137 Y167.611
G1 X67.460 Y167.993
G1 X67.747 Y168.113
G1 X68.021 Y169.146
G1 X68.145 Y169.317
G1 X68.021 Y169.146
G1 X67.747 Y168.113
G1 X67.890 Y167.544
G1 X68.122 Y167.446
G1 X68.422 Y167.521
G1 X68.822 Y167.874
G1 X68.951 Y168.133
G0 Z5.000 F500.000
G0 X68.778 Y166.627 F3000.000
G1 Z1.000 F500.000
G4 P100
G1 X69.078 Y167.713 F1000.000
G0 Z5.000 F500.000
G0 X71.608 Y168.028 F3000.000
G1 Z1.000 F500.000
G4 P100
G1 X72.294 Y168.226 F1000.000
G1 X72.675 Y168.565
G1 X72.746 Y168.833
G1 X72.687 Y169.080
G1 X72.529 Y169.225
G1 X72.279 Y169.270
G1 X71.866 Y169.087
G1 X71.595 Y168.633
G1 X71.552 Y168.178
G1 X71.631 Y167.812
G1 X71.778 Y167.606
G1 X72.185 Y167.422
G1 X72.706 Y167.460
G1 X73.285 Y167.782
G1 X73.527 Y168.135
G0 Z5.000 F500.000
G0 X75.269 Y169.349 F3000.000
G1 Z1.000 F500.000
G4 P100
G1 X75.090 Y169.144 F1000.000
G1 X74.918 Y168.268
G1 X74.925 Y167.823
G1 X75.081 Y167.555
G1 X75.347 Y167.611
G1 X75.670 Y167.993
G1 X75.957 Y168.113
G1 X76.231 Y169.146
G1 X76.355 Y169.317
G1 X76.231 Y169.146
G1 X75.957 Y168.113
G1 X76.100 Y167.544
G1 X76.332 Y167.446
G1 X76.632 Y167.521
G1 X77.032 Y167.874
G1 X77.161 Y168.133
G0 Z5.000 F500.000
G0 X68.380 Y170.775 F3000.000
G1 Z1.000 F500.000
G4 P100
G1 X68.105 Y170.322 F1000.000
G1 X67.661 Y170.097
G1 X67.178 Y170.165
G1 X66.956 Y170.518
G0 Z5.000 F500.000
G0 X72.968 Y170.198 F3000.000
G1 Z1.000 F500.000
G4 P100
G1 X72.985 Y170.264 F1000.000
G0 Z5.000 F500.000
G0 X71.945 Y170.264 F3000.000
G1 Z1.000 F500.000
G4 P100
G1 X71.940 Y170.213 F1000.000
G0 Z5.000 F500.000
G0 X55.729 Y159.262 F3000.000
G1 Z1.000 F500.000
G4 P100
G1 X55.552 Y159.072 F1000.000
G1 X55.415 Y158.457
G1 X55.495 Y157.885
G1 X55.448 Y157.377
G1 X55.495 Y157.885
G1 X55.798 Y158.083
G1 X56.219 Y158.790
G1 X56.514 Y158.955
G1 X56.739 Y158.910
G1 X56.644 Y157.637
G1 X56.720 Y157.435
G1 X56.913 Y157.354
G1 X57.342 Y157.464
G1 X57.696 Y157.802
G1 X57.906 Y158.200
G1 X58.589 Y158.504
G1 X59.050 Y158.498
G1 X59.187 Y158.414
G1 X59.163 Y157.991
G1 X58.965 Y157.579
G1 X58.692 Y157.375
G1 X58.353 Y157.333
G1 X58.059 Y157.470
G1 X57.862 Y157.747
G1 X57.796 Y158.165
G1 X57.875 Y158.616
G1 X58.074 Y158.939
G1 X58.374 Y159.127
G1 X58.642 Y159.155
G1 X58.862 Y159.050
G1 X59.220 Y158.270
G1 X59.618 Y158.263
G1 X60.026 Y158.383
G0 Z5.000 F500.000
G0 X61.585 Y158.270 F3000.000
G1 Z1.000 F500.000
G4 P100
G1 X61.269 Y159.013 F1000.000
G1 X60.874 Y159.253
G1 X60.906 Y159.481
G1 X61.335 Y160.289
G1 X61.470 Y160.850
G1 X61.405 Y161.374
G1 X61.277 Y161.509
G1 X61.097 Y161.533
G1 X60.884 Y161.429
G1 X60.702 Y161.182
G1 X60.354 Y160.158
G1 X60.202 Y159.205
G1 X60.237 Y158.829
G1 X60.545 Y158.914
G1 X60.887 Y159.196
G1 X60.545 Y158.914
G1 X60.237 Y158.829
G1 X60.168 Y158.243
G1 X60.262 Y157.726
G1 X60.557 Y157.387
G1 X60.992 Y157.352
G1 X61.387 Y157.662
G1 X61.585 Y158.270
G1 X62.381 Y158.370
G0 Z5.000 F500.000
G0 X62.829 Y159.262 F3000.000
G1 Z1.000 F500.000
G4 P100
G1 X62.653 Y159.072 F1000.000
G1 X62.519 Y158.473
G1 X62.548 Y157.377
G1 X62.592 Y157.894
G1 X62.896 Y158.092
G1 X63.290 Y158.790
G1 X63.629 Y158.964
G1 X63.774 Y158.952
G1 X63.817 Y158.731
G1 X63.786 Y157.362
G1 X63.857 Y157.921
G1 X64.148 Y158.111
G1 X64.565 Y158.796
G1 X64.856 Y158.953
G1 X65.083 Y158.919
G1 X64.983 Y157.648
G1 X65.057 Y157.436
G1 X65.256 Y157.354
G1 X65.689 Y157.470
G1 X66.059 Y157.833
G1 X66.247 Y158.202
G1 X66.931 Y158.505
G1 X67.391 Y158.498
G1 X67.528 Y158.414
G1 X67.503 Y157.991
G1 X67.305 Y157.579
G1 X67.032 Y157.375
G1 X66.693 Y157.333
G1 X66.399 Y157.470
G1 X66.202 Y157.747
G1 X66.136 Y158.165
G1 X66.215 Y158.616
G1 X66.414 Y158.939
G1 X66.714 Y159.127
G1 X66.982 Y159.155
G1 X67.202 Y159.050
G1 X67.560 Y158.270
G1 X67.958 Y158.263
G1 X68.366 Y158.383
G0 Z5.000 F500.000
G0 X69.485 Y157.579 F3000.000
G1 Z1.000 F500.000
G4 P100
G1 X69.798 Y158.347 F1000.000
G1 X69.743 Y158.967
G1 X69.569 Y159.130
G1 X69.340 Y159.159
G1 X68.599 Y158.807
G1 X68.560 Y159.147
G1 X68.542 Y158.070
G1 X68.443 Y157.667
G1 X68.582 Y157.316
G1 X68.370 Y155.834
G1 X68.119 Y155.169
G1 X67.924 Y155.052
G1 X67.711 Y155.091
G1 X67.546 Y155.461
G1 X67.608 Y156.137
G1 X68.005 Y157.308
G1 X68.256 Y157.601
G1 X68.443 Y157.667
G1 X68.631 Y157.308
G1 X69.016 Y157.335
G1 X69.485 Y157.579
G1 X69.734 Y157.368
G1 X70.060 Y157.353
G1 X70.642 Y157.740
G1 X70.796 Y157.994
G1 X70.754 Y158.095
G1 X70.629 Y157.796
G1 X70.754 Y157.461
G1 X71.056 Y157.325
G1 X71.433 Y157.390
G1 X71.759 Y157.621
G1 X72.000 Y157.956
G1 X72.010 Y158.080
G1 X71.485 Y158.281
G1 X71.352 Y158.599
G1 X71.475 Y159.031
G1 X71.893 Y159.217
G1 X72.597 Y159.074
G1 X72.369 Y158.207
G1 X72.010 Y158.080
G1 X72.369 Y158.207
G1 X72.437 Y157.604
G1 X72.546 Y157.385
G1 X72.781 Y157.352
G1 X73.043 Y157.457
G1 X73.397 Y157.785
G1 X73.524 Y158.046
G0 Z5.000 F500.000
G0 X73.609 Y157.311 F3000.000
G1 Z1.000 F500.000
G4 P100
G1 X73.576 Y157.983 F1000.000
G1 X73.663 Y158.312
G1 X74.593 Y158.258
G1 X74.833 Y158.842
G1 X75.212 Y159.128
G1 X75.493 Y159.152
G1 X75.706 Y159.048
G1 X76.060 Y158.268
G1 X76.511 Y158.270
G1 X76.872 Y158.382
G1 X76.511 Y158.270
G1 X76.060 Y158.268
G1 X75.942 Y157.809
G1 X75.749 Y157.519
G1 X75.448 Y157.346
G1 X75.116 Y157.352
G1 X74.753 Y157.642
G1 X74.593 Y158.258
G1 X73.663 Y158.312
G1 X73.737 Y159.037
G1 X73.924 Y159.262
G0 Z5.000 F500.000
G0 X77.292 Y159.225 F3000.000
G1 Z1.000 F500.000
G4 P100
G1 X77.113 Y158.911 F1000.000
G1 X76.962 Y158.019
G1 X77.003 Y157.614
G1 X77.165 Y157.482
G1 X77.542 Y157.618
G1 X77.763 Y157.921
G1 X78.081 Y158.069
G1 X78.334 Y159.130
G1 X78.073 Y158.184
G1 X78.164 Y157.985
G1 X78.152 Y157.625
G1 X78.305 Y157.482
G1 X78.679 Y157.628
G1 X78.853 Y157.874
G1 X79.204 Y158.031
G1 X79.167 Y158.125
G1 X79.558 Y159.213
G1 X79.165 Y158.118
G1 X79.278 Y157.561
G1 X79.486 Y157.461
G1 X79.487 Y157.359
G1 X79.705 Y158.350
G1 X79.353 Y156.470
G1 X79.029 Y155.916
G1 X78.559 Y155.851
G1 X78.449 Y156.111
G1 X78.650 Y156.557
G1 X79.092 Y156.891
G1 X79.421 Y156.947
G1 X79.501 Y157.286
G1 X79.959 Y157.405
G1 X80.371 Y157.686
G1 X80.436 Y157.833
G0 Z5.000 F500.000
G0 X80.979 Y159.252 F3000.000
G1 Z1.000 F500.000
G4 P100
G1 X80.800 Y159.047 F1000.000
G1 X80.628 Y158.171
G1 X80.635 Y157.726
G1 X80.791 Y157.458
G1 X81.057 Y157.514
G1 X81.380 Y157.896
G1 X81.667 Y158.016
G1 X81.941 Y159.049
G1 X82.065 Y159.220
G1 X81.941 Y159.049
G1 X81.667 Y158.016
G1 X81.810 Y157.447
G1 X82.042 Y157.349
G1 X82.342 Y157.424
G1 X82.742 Y157.777
G1 X82.871 Y158.036
G0 Z5.000 F500.000
G0 X57.270 Y148.710 F3000.000
G1 Z1.000 F500.000
G4 P100
G1 X57.246 Y148.971 F1000.000
G1 X57.128 Y149.040
G1 X56.811 Y148.977
G1 X56.388 Y148.579
G1 X56.046 Y149.006
G1 X55.649 Y149.006
G1 X55.509 Y148.730
G1 X55.631 Y148.994
G1 X55.916 Y149.052
G1 X56.121 Y148.950
G1 X56.388 Y148.579
G1 X56.310 Y147.697
G1 X55.726 Y147.260
G1 X55.473 Y147.252
G1 X55.276 Y147.385
G1 X55.225 Y147.655
G1 X55.309 Y147.883
G1 X55.237 Y147.478
G1 X55.452 Y147.259
G1 X55.808 Y147.293
G1 X56.310 Y147.697
G1 X56.679 Y147.308
G1 X57.195 Y147.246
G1 X57.686 Y147.525
G1 X57.973 Y147.946
G0 Z5.000 F500.000
G0 X58.997 Y148.464 F3000.000
G1 Z1.000 F500.000
G4 P100
G1 X59.062 Y148.809 F1000.000
G1 X58.907 Y149.030
G1 X58.455 Y149.003
G1 X58.171 Y148.737
G1 X57.980 Y147.959
G1 X58.074 Y147.571
G1 X58.279 Y147.338
G1 X58.672 Y147.238
G1 X59.220 Y147.351
G1 X59.721 Y147.734
G1 X59.817 Y147.895
G1 X59.759 Y147.998
G1 X59.636 Y147.655
G1 X59.808 Y147.321
G1 X60.184 Y147.227
G1 X60.598 Y147.383
G1 X60.940 Y147.722
G1 X61.015 Y147.983
G1 X60.485 Y148.189
G1 X60.361 Y148.655
G1 X60.505 Y148.961
G1 X60.847 Y149.114
G1 X61.602 Y148.977
G1 X61.374 Y148.110
G1 X61.015 Y147.983
G1 X61.374 Y148.110
G1 X61.442 Y147.507
G1 X61.551 Y147.288
G1 X61.786 Y147.255
G1 X62.048 Y147.360
G1 X62.402 Y147.688
G1 X62.529 Y147.949
G0 Z5.000 F500.000
G0 X55.717 Y139.036 F3000.000
G1 Z1.000 F500.000
G4 P100
G1 X55.557 Y138.836 F1000.000
G1 X55.383 Y137.869
G1 X55.415 Y137.477
G1 X55.579 Y137.253
G1 X55.878 Y137.341
G1 X56.244 Y137.782
G1 X56.679 Y138.021
G1 X56.679 Y138.785
G1 X56.786 Y138.982
G1 X56.678 Y138.770
G1 X56.716 Y138.098
G1 X56.476 Y137.905
G1 X56.705 Y137.261
G1 X56.985 Y137.325
G1 X57.300 Y137.702
G1 X57.587 Y137.822
G1 X57.931 Y138.977
G1 X57.587 Y137.822
G1 X57.738 Y137.240
G1 X57.976 Y137.155
G1 X58.261 Y137.232
G1 X58.666 Y137.589
G1 X58.791 Y137.842
G0 Z5.000 F500.000
G0 X59.194 Y139.068 F3000.000
G1 Z1.000 F500.000
G4 P100
G1 X59.018 Y138.878 F1000.000
G1 X58.884 Y138.279
G1 X58.913 Y137.183
G1 X58.957 Y137.700
G1 X59.261 Y137.898
G1 X59.655 Y138.596
G1 X59.994 Y138.770
G1 X60.139 Y138.758
G1 X60.182 Y138.537
G1 X60.151 Y137.168
G1 X60.222 Y137.727
G1 X60.494 Y137.895
G1 X60.862 Y138.524
G1 X61.170 Y138.746
G1 X61.451 Y138.710
G1 X61.344 Y137.542
G1 X61.449 Y137.219
G1 X61.725 Y137.154
G1 X61.999 Y137.240
G1 X62.373 Y137.577
G1 X62.512 Y137.847
G0 Z5.000 F500.000
G0 X63.595 Y137.385 F3000.000
G1 Z1.000 F500.000
G4 P100
G1 X63.908 Y138.153 F1000.000
G1 X63.853 Y138.773
G1 X63.679 Y138.936
G1 X63.450 Y138.965
G1 X62.709 Y138.613
G1 X62.670 Y138.953
G1 X62.652 Y137.876
G1 X62.553 Y137.473
G1 X62.692 Y137.122
G1 X62.480 Y135.640
G1 X62.229 Y134.975
G1 X62.034 Y134.858
G1 X61.821 Y134.897
G1 X61.661 Y135.231
G1 X61.694 Y135.821
G1 X61.924 Y136.638
G1 X62.258 Y137.333
G1 X62.553 Y137.473
G1 X62.692 Y137.122
G1 X62.785 Y137.109
G1 X63.140 Y137.146
G1 X63.595 Y137.385
G1 X63.844 Y137.174
G1 X64.170 Y137.159
G1 X64.622 Y137.416
G1 X64.921 Y137.857
G0 Z5.000 F500.000
G0 X65.334 Y139.058 F3000.000
G1 Z1.000 F500.000
G4 P100
G1 X65.155 Y138.853 F1000.000
G1 X64.983 Y137.977
G1 X64.990 Y137.532
G1 X65.146 Y137.264
G1 X65.412 Y137.320
G1 X65.735 Y137.702
G1 X66.022 Y137.822
G1 X66.296 Y138.855
G1 X66.420 Y139.026
G1 X66.296 Y138.855
G1 X66.022 Y137.822
G1 X66.165 Y137.253
G1 X66.397 Y137.155
G1 X66.697 Y137.230
G1 X67.097 Y137.583
G1 X67.226 Y137.842
G0 Z5.000 F500.000
G0 X69.170 Y138.613 F3000.000
G1 Z1.000 F500.000
G4 P100
G1 X69.146 Y138.874 F1000.000
G1 X69.028 Y138.943
G1 X68.711 Y138.880
G1 X68.288 Y138.482
G1 X67.946 Y138.909
G1 X67.549 Y138.909
G1 X67.409 Y138.633
G1 X67.531 Y138.897
G1 X67.816 Y138.955
G1 X68.021 Y138.853
G1 X68.288 Y138.482
G1 X68.210 Y137.600
G1 X67.626 Y137.163
G1 X67.373 Y137.155
G1 X67.176 Y137.288
G1 X67.125 Y137.558
G1 X67.209 Y137.786
G1 X67.137 Y137.381
G1 X67.352 Y137.162
G1 X67.708 Y137.196
G1 X68.210 Y137.600
G1 X68.592 Y137.205
G1 X69.130 Y137.158
G1 X69.634 Y137.473
G1 X69.967 Y138.012
G1 X70.150 Y138.147
G1 X70.649 Y138.313
G1 X71.113 Y138.304
G1 X71.252 Y138.221
G1 X71.285 Y138.076
G1 X71.222 Y137.776
G1 X71.061 Y137.425
G1 X70.804 Y137.202
G1 X70.498 Y137.132
G1 X70.207 Y137.216
G1 X69.985 Y137.436
G1 X69.876 Y137.752
G1 X69.878 Y138.182
G1 X70.001 Y138.556
G1 X70.226 Y138.822
G1 X70.531 Y138.957
G1 X70.947 Y138.835
G1 X71.285 Y138.076
G1 X71.683 Y138.069
G1 X72.091 Y138.189
G0 Z5.000 F500.000
G0 X73.650 Y138.076 F3000.000
G1 Z1.000 F500.000
G4 P100
G1 X73.334 Y138.819 F1000.000
G1 X72.939 Y139.059
G1 X72.971 Y139.287
G1 X73.400 Y140.095
G1 X73.535 Y140.656
G1 X73.470 Y141.180
G1 X73.342 Y141.315
G1 X73.162 Y141.339
G1 X72.949 Y141.235
G1 X72.767 Y140.988
G1 X72.419 Y139.964
G1 X72.267 Y139.011
G1 X72.302 Y138.635
G1 X72.610 Y138.720
G1 X72.952 Y139.002
G1 X72.610 Y138.720
G1 X72.302 Y138.635
G1 X72.233 Y138.049
G1 X72.327 Y137.532
G1 X72.622 Y137.193
G1 X73.057 Y137.158
G1 X73.452 Y137.468
G1 X73.650 Y138.076
G1 X74.446 Y138.176
G0 Z5.000 F500.000
G0 X74.594 Y137.320 F3000.000
G1 Z1.000 F500.000
G4 P100
G1 X74.630 Y137.356 F1000.000
G0 Z5.000 F500.000
G0 X86.346 Y178.740 F3000.000
G1 Z1.000 F500.000
G4 P100
G1 X86.427 Y179.066 F1000.000
G1 X86.266 Y179.322
G1 X85.931 Y179.350
G1 X85.603 Y179.149
G1 X85.313 Y178.491
G1 X85.320 Y178.104
G1 X85.439 Y177.800
G1 X85.762 Y177.559
G1 X86.210 Y177.535
G1 X86.592 Y177.741
G1 X86.790 Y178.101
G0 Z5.000 F500.000
G0 X87.571 Y179.446 F3000.000
G1 Z1.000 F500.000
G4 P100
G1 X87.408 Y179.282 F1000.000
G1 X87.281 Y178.771
G1 X87.256 Y177.817
G1 X87.382 Y177.650
G1 X87.551 Y177.660
G1 X87.987 Y178.105
G1 X88.315 Y178.220
G1 X88.359 Y177.581
G1 X88.315 Y178.220
G1 X88.640 Y179.390
G0 Z5.000 F500.000
G0 X89.849 Y179.441 F3000.000
G1 Z1.000 F500.000
G4 P100
G1 X89.699 Y179.285 F1000.000
G1 X89.543 Y178.601
G1 X89.629 Y178.081
G1 X89.585 Y177.554
G1 X89.629 Y178.081
G1 X89.923 Y178.265
G1 X90.455 Y179.066
G1 X90.823 Y179.163
G1 X90.911 Y179.272
G1 X90.823 Y179.163
G1 X91.011 Y178.557
G1 X90.965 Y178.464
G1 X91.216 Y178.645
G0 Z5.000 F500.000
G0 X91.836 Y179.351 F3000.000
G1 Z1.000 F500.000
G4 P100
G1 X91.865 Y177.881 F1000.000
G1 X91.951 Y177.641
G1 X92.097 Y177.573
G1 X92.420 Y177.768
G1 X93.252 Y179.363
G1 X93.381 Y179.385
G1 X93.475 Y179.274
G1 X93.760 Y178.329
G1 X94.027 Y178.130
G1 X94.629 Y178.283
G1 X95.009 Y178.538
G1 X95.168 Y178.916
G1 X95.042 Y179.262
G1 X94.598 Y179.352
G1 X94.185 Y179.069
G1 X93.974 Y178.528
G1 X94.038 Y177.934
G1 X94.357 Y177.581
G1 X94.902 Y177.523
G1 X95.295 Y177.720
G1 X95.586 Y178.224
G1 X95.714 Y178.272
G1 X96.078 Y178.146
G1 X96.700 Y177.612
G1 X97.102 Y176.985
G1 X97.118 Y176.661
G1 X96.738 Y175.596
G1 X96.515 Y175.337
G1 X96.256 Y175.247
G1 X95.941 Y175.423
G1 X95.939 Y175.888
G1 X96.462 Y176.647
G1 X96.802 Y176.934
G1 X97.102 Y176.985
G1 X97.194 Y177.135
G1 X97.497 Y179.245
G1 X97.603 Y179.385
G0 Z5.000 F500.000
G0 X98.828 Y179.165 F3000.000
G1 Z1.000 F500.000
G4 P100
G1 X99.062 Y179.294 F1000.000
G1 X99.416 Y179.319
G1 X99.649 Y179.220
G1 X99.811 Y178.989
G1 X99.898 Y178.546
G1 X99.836 Y178.121
G1 X99.686 Y177.790
G1 X99.457 Y177.603
G1 X98.946 Y177.573
G1 X98.635 Y177.881
G1 X98.561 Y178.498
G1 X98.655 Y178.896
G1 X98.828 Y179.165
G0 Z5.000 F500.000
G0 X100.744 Y177.520 F3000.000
G1 Z1.000 F500.000
G4 P100
G1 X101.047 Y179.227 F1000.000
G1 X101.145 Y179.365
G0 Z5.000 F500.000
G0 X102.402 Y179.434 F3000.000
G1 Z1.000 F500.000
G4 P100
G1 X102.239 Y179.180 F1000.000
G1 X102.126 Y178.658
G1 X102.153 Y177.559
G1 X102.160 Y178.081
G1 X102.532 Y178.309
G1 X102.909 Y178.972
G1 X103.471 Y179.163
G1 X103.493 Y179.258
G1 X103.359 Y177.595
G0 Z5.000 F500.000
G0 X97.542 Y180.317 F3000.000
G1 Z1.000 F500.000
G4 P100
G1 X97.676 Y180.339 F1000.000
G0 Z5.000 F500.000
G0 X101.196 Y180.317 F3000.000
G1 Z1.000 F500.000
G4 P100
G1 X101.330 Y180.339 F1000.000
G0 Z5.000 F500.000
G0 X85.067 Y169.276 F3000.000
G1 Z1.000 F500.000
G4 P100
G1 X85.539 Y169.244 F1000.000
G1 X85.672 Y169.356
G1 X85.694 Y169.900
G1 X85.977 Y170.822
G1 X86.250 Y171.216
G1 X86.573 Y171.290
G1 X86.749 Y171.038
G1 X86.732 Y170.522
G1 X86.111 Y169.359
G1 X86.462 Y169.288
G1 X86.883 Y169.368
G1 X86.462 Y169.288
G1 X85.672 Y169.356
G1 X85.584 Y169.261
G1 X85.593 Y168.224
G1 X85.767 Y167.663
G1 X86.037 Y167.463
G1 X86.405 Y167.459
G1 X86.985 Y167.926
G1 X88.173 Y168.324
G1 X88.415 Y168.611
G1 X88.450 Y168.958
G1 X88.290 Y169.200
G1 X87.966 Y169.267
G1 X87.593 Y169.096
G1 X87.332 Y168.695
G1 X87.261 Y168.241
G1 X87.398 Y167.699
G1 X87.733 Y167.451
G1 X88.204 Y167.427
G1 X88.590 Y167.623
G1 X88.806 Y167.989
G0 Z5.000 F500.000
G0 X88.896 Y167.635 F3000.000
G1 Z1.000 F500.000
G4 P100
G1 X89.574 Y168.567 F1000.000
G1 X89.814 Y168.741
G1 X89.929 Y169.220
G1 X90.095 Y169.376
G1 X89.929 Y169.220
G1 X89.814 Y168.741
G1 X90.284 Y168.118
G1 X90.364 Y167.717
G1 X90.142 Y167.426
G1 X89.734 Y167.427
G0 Z5.000 F500.000
G0 X91.132 Y169.276 F3000.000
G1 Z1.000 F500.000
G4 P100
G1 X91.604 Y169.244 F1000.000
G1 X91.737 Y169.356
G1 X91.768 Y169.943
G1 X92.074 Y170.888
G1 X92.369 Y171.253
G1 X92.701 Y171.255
G1 X92.828 Y170.943
G1 X92.785 Y170.472
G1 X92.176 Y169.359
G1 X92.527 Y169.288
G1 X92.948 Y169.368
G1 X92.527 Y169.288
G1 X91.737 Y169.356
G1 X91.649 Y169.261
G1 X91.639 Y168.487
G1 X91.731 Y167.875
G1 X91.964 Y167.529
G1 X92.428 Y167.449
G1 X92.799 Y167.696
G0 Z5.000 F500.000
G0 X94.719 Y169.588 F3000.000
G1 Z1.000 F500.000
G4 P100
G1 X95.391 Y169.737 F1000.000
G1 X95.477 Y169.601
G1 X95.173 Y167.515
G0 Z5.000 F500.000
G0 X96.705 Y169.045 F3000.000
G1 Z1.000 F500.000
G4 P100
G1 X96.927 Y169.510 F1000.000
G1 X97.269 Y169.776
G1 X97.739 Y169.803
G1 X98.093 Y169.574
G1 X98.260 Y169.165
G1 X98.266 Y168.523
G1 X98.119 Y167.975
G1 X97.840 Y167.603
G1 X97.300 Y167.440
G1 X96.820 Y167.684
G1 X96.636 Y168.226
G1 X96.705 Y169.045
G0 Z5.000 F500.000
G0 X99.537 Y169.034 F3000.000
G1 Z1.000 F500.000
G4 P100
G1 X99.578 Y169.073 F1000.000
G0 Z5.000 F500.000
G0 X99.402 Y167.647 F3000.000
G1 Z1.000 F500.000
G4 P100
G1 X99.366 Y167.611 F1000.000
G0 Z5.000 F500.000
G0 X85.716 Y159.262 F3000.000
G1 Z1.000 F500.000
G4 P100
G1 X85.540 Y159.072 F1000.000
G1 X85.404 Y158.459
G1 X85.435 Y157.377
G1 X85.479 Y157.894
G1 X85.778 Y158.087
G1 X86.059 Y158.640
G1 X86.283 Y158.878
G1 X86.583 Y158.972
G1 X86.673 Y158.909
G1 X86.660 Y158.192
G1 X86.744 Y157.921
G1 X86.673 Y157.362
G1 X86.744 Y157.921
G1 X87.040 Y158.116
G1 X87.478 Y158.820
G1 X87.911 Y158.970
G1 X88.001 Y158.622
G1 X87.884 Y157.384
G1 X87.941 Y157.243
G1 X88.305 Y157.163
G1 X89.030 Y157.356
G1 X89.196 Y158.594
G1 X89.380 Y159.171
G0 Z5.000 F500.000
G0 X90.637 Y159.240 F3000.000
G1 Z1.000 F500.000
G4 P100
G1 X90.474 Y158.986 F1000.000
G1 X90.361 Y158.464
G1 X90.388 Y157.365
G1 X90.395 Y157.887
G1 X90.767 Y158.115
G1 X91.144 Y158.778
G1 X91.706 Y158.969
G1 X91.728 Y159.064
G1 X91.583 Y157.432
G1 X91.690 Y157.264
G1 X92.057 Y157.177
G1 X92.740 Y157.356
G1 X92.906 Y158.594
G1 X93.090 Y159.171
G0 Z5.000 F500.000
G0 X94.376 Y159.262 F3000.000
G1 Z1.000 F500.000
G4 P100
G1 X94.200 Y159.072 F1000.000
G1 X94.064 Y158.459
G1 X94.095 Y157.377
G1 X94.139 Y157.894
G1 X94.442 Y158.093
G1 X94.852 Y158.805
G1 X95.258 Y158.972
G1 X95.361 Y158.751
G1 X95.319 Y158.206
G1 X95.404 Y157.921
G1 X95.333 Y157.362
G1 X95.404 Y157.921
G1 X95.700 Y158.116
G1 X96.149 Y158.830
G1 X96.607 Y158.955
G1 X96.660 Y158.586
G1 X96.544 Y157.384
G0 Z5.000 F500.000
G0 X98.111 Y159.252 F3000.000
G1 Z1.000 F500.000
G4 P100
G1 X97.948 Y159.088 F1000.000
G1 X97.821 Y158.577
G1 X97.796 Y157.623
G1 X97.922 Y157.456
G1 X98.091 Y157.466
G1 X98.527 Y157.911
G1 X98.855 Y158.026
G1 X98.899 Y157.387
G1 X98.855 Y158.026
G1 X99.180 Y159.196
G0 Z5.000 F500.000
G0 X100.406 Y159.262 F3000.000
G1 Z1.000 F500.000
G4 P100
G1 X100.230 Y159.072 F1000.000
G1 X100.094 Y158.459
G1 X100.125 Y157.377
G1 X100.169 Y157.894
G1 X100.472 Y158.093
G1 X100.882 Y158.805
G1 X101.288 Y158.972
G1 X101.391 Y158.751
G1 X101.349 Y158.206
G1 X101.434 Y157.921
G1 X101.363 Y157.362
G1 X101.434 Y157.921
G1 X101.730 Y158.116
G1 X102.179 Y158.830
G1 X102.637 Y158.955
G1 X102.690 Y158.586
G1 X102.574 Y157.384
G0 Z5.000 F500.000
G0 X105.246 Y158.807 F3000.000
G1 Z1.000 F500.000
G4 P100
G1 X105.509 Y158.866 F1000.000
G1 X105.901 Y159.139
G1 X106.211 Y159.131
G1 X106.443 Y158.837
G1 X106.438 Y158.309
G1 X106.199 Y157.763
G1 X105.791 Y157.393
G1 X105.229 Y157.316
G1 X105.090 Y157.667
G1 X104.705 Y157.413
G1 X104.366 Y156.555
G1 X104.201 Y155.812
G1 X104.229 Y155.281
G1 X104.452 Y155.053
G1 X104.646 Y155.076
G1 X104.807 Y155.222
G1 X105.034 Y155.914
G1 X105.229 Y157.316
G1 X105.090 Y157.667
G1 X105.246 Y158.807
G1 X105.184 Y159.099
G1 X105.261 Y159.210
G0 Z5.000 F500.000
G0 X107.497 Y157.936 F3000.000
G1 Z1.000 F500.000
G4 P100
G1 X108.172 Y158.122 F1000.000
G1 X108.560 Y158.455
G1 X108.637 Y158.707
G1 X108.592 Y158.957
G1 X108.453 Y159.111
G1 X108.222 Y159.174
G1 X107.824 Y159.045
G1 X107.531 Y158.659
G1 X107.434 Y158.173
G1 X107.557 Y157.627
G1 X107.887 Y157.361
G1 X108.364 Y157.327
G1 X108.765 Y157.526
G1 X108.981 Y157.892
G0 Z5.000 F500.000
G0 X109.792 Y159.240 F3000.000
G1 Z1.000 F500.000
G4 P100
G1 X109.629 Y158.986 F1000.000
G1 X109.516 Y158.464
G1 X109.543 Y157.365
G1 X109.550 Y157.887
G1 X109.922 Y158.115
G1 X110.299 Y158.778
G1 X110.861 Y158.969
G1 X110.883 Y159.064
G1 X110.749 Y157.401
G0 Z5.000 F500.000
G0 X89.431 Y160.123 F3000.000
G1 Z1.000 F500.000
G4 P100
G1 X89.565 Y160.145 F1000.000
G0 Z5.000 F500.000
G0 X93.141 Y160.123 F3000.000
G1 Z1.000 F500.000
G4 P100
G1 X93.275 Y160.145 F1000.000
G0 Z5.000 F500.000
G0 X85.506 Y148.242 F3000.000
G1 Z1.000 F500.000
G4 P100
G1 X85.782 Y148.354 F1000.000
G1 X85.975 Y148.597
G1 X86.417 Y149.482
G1 X86.666 Y150.261
G1 X86.730 Y150.849
G1 X86.657 Y151.258
G1 X86.452 Y151.436
G1 X86.164 Y151.353
G1 X85.847 Y150.841
G1 X85.552 Y149.816
G1 X85.409 Y148.669
G1 X85.506 Y148.242
G1 X85.458 Y147.834
G1 X85.604 Y147.468
G1 X85.826 Y147.286
G1 X86.256 Y147.270
G1 X86.573 Y147.509
G1 X86.889 Y147.229
G1 X87.243 Y149.045
G1 X87.468 Y149.118
G1 X88.240 Y148.780
G1 X88.614 Y148.759
G1 X88.890 Y148.927
G1 X89.336 Y149.535
G1 X89.646 Y150.174
G1 X89.777 Y150.772
G1 X89.723 Y151.256
G1 X89.475 Y151.441
G1 X89.188 Y151.311
G1 X88.917 Y150.878
G1 X88.411 Y149.153
G1 X88.439 Y148.742
G1 X88.272 Y147.995
G1 X88.270 Y146.876
G1 X88.370 Y145.990
G1 X88.557 Y145.680
G1 X88.863 Y145.739
G1 X89.033 Y146.111
G1 X88.916 Y147.984
G1 X89.027 Y148.087
G1 X89.816 Y148.142
G0 Z5.000 F500.000
G0 X89.782 Y149.082 F3000.000
G1 Z1.000 F500.000
G4 P100
G1 X90.254 Y149.050 F1000.000
G1 X90.387 Y149.162
G1 X90.416 Y149.742
G1 X90.717 Y150.681
G1 X91.007 Y151.052
G1 X91.340 Y151.070
G1 X91.477 Y150.764
G1 X91.437 Y150.285
G1 X90.826 Y149.165
G1 X91.177 Y149.094
G1 X91.598 Y149.174
G1 X91.177 Y149.094
G1 X90.387 Y149.162
G1 X90.299 Y149.067
G1 X90.366 Y147.729
G1 X90.532 Y147.406
G1 X90.801 Y147.255
G1 X91.183 Y147.286
G1 X91.449 Y147.502
G1 X91.646 Y147.441
G1 X92.324 Y148.373
G1 X92.564 Y148.547
G1 X92.679 Y149.026
G1 X92.845 Y149.182
G1 X92.679 Y149.026
G1 X92.564 Y148.547
G1 X93.034 Y147.924
G1 X93.114 Y147.523
G1 X92.892 Y147.232
G1 X92.484 Y147.233
G0 Z5.000 F500.000
G0 X96.608 Y147.592 F3000.000
G1 Z1.000 F500.000
G4 P100
G1 X96.832 Y148.839 F1000.000
G1 X96.397 Y149.091
G1 X96.015 Y148.933
G1 X95.694 Y148.594
G1 X95.497 Y148.140
G1 X95.460 Y147.660
G1 X95.557 Y147.387
G1 X95.749 Y147.245
G1 X95.993 Y147.257
G1 X96.303 Y147.517
G1 X96.608 Y147.592
G1 X96.645 Y147.297
G0 Z5.000 F500.000
G0 X98.177 Y149.143 F3000.000
G1 Z1.000 F500.000
G4 P100
G1 X98.014 Y148.889 F1000.000
G1 X97.901 Y148.367
G1 X97.928 Y147.268
G1 X97.935 Y147.790
G1 X98.307 Y148.018
G1 X98.684 Y148.681
G1 X99.246 Y148.872
G1 X99.268 Y148.967
G1 X99.134 Y147.304
G0 Z5.000 F500.000
G0 X101.536 Y149.038 F3000.000
G1 Z1.000 F500.000
G4 P100
G1 X101.917 Y151.051 F1000.000
G1 X102.106 Y151.359
G1 X102.446 Y151.391
G1 X102.601 Y151.045
G1 X102.572 Y150.411
G1 X102.037 Y148.808
G1 X101.572 Y148.530
G1 X101.461 Y148.721
G1 X101.495 Y149.082
G1 X101.025 Y149.024
G1 X100.707 Y148.818
G1 X100.458 Y148.486
G1 X100.332 Y148.097
G1 X100.309 Y147.719
G1 X100.470 Y147.319
G1 X100.684 Y147.237
G1 X101.005 Y147.310
G1 X101.577 Y147.656
G1 X101.763 Y147.221
G1 X101.576 Y147.663
G1 X101.572 Y148.530
G0 Z5.000 F500.000
G0 X87.341 Y150.026 F3000.000
G1 Z1.000 F500.000
G4 P100
G1 X87.475 Y150.048 F1000.000
G0 Z5.000 F500.000
G0 X84.966 Y137.344 F3000.000
G1 Z1.000 F500.000
G4 P100
G1 X85.644 Y138.276 F1000.000
G1 X85.884 Y138.450
G1 X85.999 Y138.929
G1 X86.165 Y139.085
G1 X85.999 Y138.929
G1 X85.884 Y138.450
G1 X86.354 Y137.827
G1 X86.434 Y137.426
G1 X86.212 Y137.135
G1 X85.804 Y137.136
G0 Z5.000 F500.000
G0 X87.202 Y138.985 F3000.000
G1 Z1.000 F500.000
G4 P100
G1 X87.674 Y138.953 F1000.000
G1 X87.807 Y139.065
G1 X87.838 Y139.652
G1 X88.144 Y140.597
G1 X88.439 Y140.962
G1 X88.771 Y140.964
G1 X88.898 Y140.652
G1 X88.855 Y140.181
G1 X88.246 Y139.068
G1 X88.597 Y138.997
G1 X89.018 Y139.077
G1 X88.597 Y138.997
G1 X87.807 Y139.065
G1 X87.719 Y138.970
G1 X87.709 Y138.196
G1 X87.801 Y137.584
G1 X88.034 Y137.238
G1 X88.498 Y137.158
G1 X88.869 Y137.405
G0 Z5.000 F500.000
G0 X90.568 Y137.495 F3000.000
G1 Z1.000 F500.000
G4 P100
G1 X90.792 Y138.742 F1000.000
G1 X90.357 Y138.994
G1 X89.975 Y138.836
G1 X89.654 Y138.497
G1 X89.457 Y138.043
G1 X89.420 Y137.563
G1 X89.517 Y137.290
G1 X89.709 Y137.148
G1 X89.953 Y137.160
G1 X90.263 Y137.420
G1 X90.568 Y137.495
G1 X90.605 Y137.200
G0 Z5.000 F500.000
G0 X91.939 Y138.640 F3000.000
G1 Z1.000 F500.000
G4 P100
G1 X92.243 Y138.718 F1000.000
G1 X92.593 Y138.980
G1 X92.906 Y138.881
G1 X93.112 Y138.680
G1 X93.236 Y138.313
G1 X93.217 Y137.862
G1 X93.077 Y137.487
G1 X92.831 Y137.231
G1 X92.461 Y137.140
G1 X92.118 Y137.287
G1 X91.925 Y137.634
G1 X91.870 Y138.173
G1 X91.950 Y139.384
G1 X92.197 Y140.482
G1 X92.517 Y141.162
G1 X92.889 Y141.341
G1 X93.132 Y141.124
G1 X93.167 Y140.618
G1 X93.014 Y140.039
G1 X92.594 Y139.253
G1 X92.593 Y138.980
G0 Z5.000 F500.000
G0 X94.321 Y138.145 F3000.000
G1 Z1.000 F500.000
G4 P100
G1 X94.573 Y138.240 F1000.000
G1 X94.752 Y138.437
G1 X95.412 Y139.894
G1 X95.536 Y140.913
G1 X95.440 Y141.220
G1 X95.252 Y141.341
G1 X95.002 Y141.273
G1 X94.794 Y141.022
G1 X94.394 Y139.848
G1 X94.222 Y138.506
G1 X94.321 Y138.145
G1 X94.271 Y137.751
G1 X94.388 Y137.421
G1 X94.661 Y137.181
G1 X95.057 Y137.169
G1 X95.296 Y137.291
G1 X95.635 Y137.679
G1 X96.665 Y138.042
G1 X96.898 Y138.327
G1 X96.930 Y138.667
G1 X96.777 Y138.905
G1 X96.453 Y138.977
G1 X96.078 Y138.810
G1 X95.814 Y138.410
G1 X95.740 Y137.957
G1 X95.874 Y137.414
G1 X96.206 Y137.162
G1 X96.677 Y137.135
G1 X97.070 Y137.332
G1 X97.286 Y137.698
G0 Z5.000 F500.000
G0 X85.489 Y128.543 F3000.000
G1 Z1.000 F500.000
G4 P100
G1 X85.793 Y128.621 F1000.000
G1 X86.143 Y128.883
G1 X86.456 Y128.784
G1 X86.662 Y128.583
G1 X86.786 Y128.216
G1 X86.767 Y127.765
G1 X86.627 Y127.390
G1 X86.381 Y127.134
G1 X86.011 Y127.043
G1 X85.668 Y127.190
G1 X85.475 Y127.537
G1 X85.420 Y128.076
G1 X85.500 Y129.287
G1 X85.747 Y130.385
G1 X86.067 Y131.065
G1 X86.439 Y131.244
G1 X86.682 Y131.027
G1 X86.717 Y130.521
G1 X86.564 Y129.942
G1 X86.144 Y129.156
G1 X86.143 Y128.883
G0 Z5.000 F500.000
G0 X88.833 Y127.398 F3000.000
G1 Z1.000 F500.000
G4 P100
G1 X89.053 Y128.658 F1000.000
G1 X88.666 Y128.900
G1 X88.198 Y128.709
G1 X87.923 Y128.406
G1 X87.744 Y128.023
G1 X87.676 Y127.590
G1 X87.752 Y127.242
G1 X87.913 Y127.077
G1 X88.133 Y127.040
G1 X88.535 Y127.327
G1 X88.833 Y127.398
G1 X88.937 Y126.991
G1 X89.107 Y126.971
G1 X89.681 Y127.247
G1 X90.359 Y128.179
G1 X90.599 Y128.353
G1 X90.714 Y128.832
G1 X90.880 Y128.988
G1 X90.714 Y128.832
G1 X90.599 Y128.353
G1 X91.069 Y127.730
G1 X91.149 Y127.329
G1 X90.927 Y127.038
G1 X90.519 Y127.039
G0 Z5.000 F500.000
G0 X92.207 Y127.645 F3000.000
G1 Z1.000 F500.000
G4 P100
G1 X92.915 Y127.848 F1000.000
G1 X93.294 Y128.210
G1 X93.347 Y128.490
G1 X93.256 Y128.740
G1 X93.048 Y128.866
G1 X92.771 Y128.865
G1 X92.347 Y128.560
G1 X92.148 Y127.985
G1 X92.253 Y127.361
G1 X92.625 Y127.060
G1 X92.995 Y127.025
G1 X93.334 Y127.131
G1 X93.933 Y127.901
G1 X94.690 Y128.251
G1 X95.243 Y129.315
G1 X95.518 Y130.277
G1 X95.478 Y131.050
G1 X95.335 Y131.219
G1 X95.113 Y131.232
G1 X94.887 Y131.065
G1 X94.679 Y130.688
G1 X94.310 Y129.298
G1 X94.223 Y128.446
G1 X94.321 Y128.048
G1 X94.265 Y127.704
G1 X94.488 Y127.190
G1 X94.963 Y127.053
G1 X95.232 Y127.147
G1 X95.388 Y127.315
G1 X95.747 Y127.053
G1 X95.926 Y128.331
G1 X96.105 Y128.880
G0 Z5.000 F500.000
G0 X97.362 Y128.949 F3000.000
G1 Z1.000 F500.000
G4 P100
G1 X97.199 Y128.695 F1000.000
G1 X97.086 Y128.173
G1 X97.113 Y127.074
G1 X97.120 Y127.596
G1 X97.492 Y127.824
G1 X97.869 Y128.487
G1 X98.431 Y128.678
G1 X98.453 Y128.773
G1 X98.306 Y127.163
G1 X98.403 Y127.005
G1 X99.317 Y127.572
G1 X100.107 Y127.795
G1 X100.494 Y128.053
G1 X100.645 Y128.357
G1 X100.604 Y128.673
G1 X100.402 Y128.851
G1 X100.083 Y128.867
G1 X99.731 Y128.657
G1 X99.503 Y128.251
G1 X99.452 Y127.831
G1 X99.601 Y127.293
G1 X99.937 Y127.058
G1 X100.408 Y127.042
G1 X100.791 Y127.245
G1 X100.996 Y127.601
G0 Z5.000 F500.000
G0 X96.156 Y129.832 F3000.000
G1 Z1.000 F500.000
G4 P100
G1 X96.290 Y129.854 F1000.000
G0 Z5.000 F500.000
G0 X115.236 Y177.998 F3000.000
G1 Z1.000 F500.000
G4 P100
G1 X115.450 Y177.629 F1000.000
G1 X116.012 Y177.497
G1 X116.581 Y177.634
G1 X116.847 Y178.009
G1 X116.683 Y178.403
G1 X116.296 Y178.687
G1 X115.986 Y178.669
G1 X116.296 Y178.687
G1 X116.788 Y179.148
G1 X116.902 Y179.482
G1 X116.777 Y179.778
G1 X116.408 Y179.944
G1 X115.906 Y179.924
G1 X115.557 Y179.732
G1 X115.395 Y179.419
G0 Z5.000 F500.000
G0 X117.912 Y179.863 F3000.000
G1 Z1.000 F500.000
G4 P100
G1 X118.996 Y179.875 F1000.000
G1 X119.411 Y179.739
G1 X119.726 Y179.893
G1 X119.411 Y179.739
G1 X118.715 Y178.835
G1 X118.454 Y178.225
G1 X118.361 Y177.583
G0 Z5.000 F500.000
G0 X120.487 Y177.708 F3000.000
G1 Z1.000 F500.000
G4 P100
G1 X120.524 Y177.744 F1000.000
G0 Z5.000 F500.000
G0 X121.797 Y178.085 F3000.000
G1 Z1.000 F500.000
G4 P100
G1 X121.782 Y178.934 F1000.000
G1 X122.040 Y179.595
G1 X122.517 Y179.908
G1 X122.832 Y179.907
G1 X123.090 Y179.794
G1 X123.328 Y179.467
G1 X123.407 Y178.948
G1 X123.331 Y178.326
G1 X123.113 Y177.857
G1 X122.773 Y177.590
G1 X122.356 Y177.545
G1 X122.000 Y177.717
G1 X121.797 Y178.085
G0 Z5.000 F500.000
G0 X25.391 Y113.921 F3000.000
G1 Z1.000 F500.000
G4 P100
G1 X26.062 Y114.069 F1000.000
G1 X26.149 Y113.934
G1 X25.845 Y111.848
G0 Z5.000 F500.000
G0 X27.271 Y113.921 F3000.000
G1 Z1.000 F500.000
G4 P100
G1 X27.942 Y114.069 F1000.000
G1 X28.029 Y113.934
G1 X27.725 Y111.848
G0 Z5.000 F500.000
G0 X55.910 Y115.015 F3000.000
G1 Z1.000 F500.000
G4 P100
G1 X56.410 Y115.316 F1000.000
G1 X57.167 Y115.509
G1 X57.875 Y115.513
G1 X58.447 Y115.340
G1 X58.826 Y115.034
G1 X59.069 Y114.594
G1 X59.175 Y114.005
G1 X59.136 Y113.305
G1 X58.807 Y112.409
G1 X58.208 Y111.891
G1 X57.831 Y111.807
G1 X57.388 Y111.854
G1 X56.401 Y112.273
G1 X56.352 Y112.407
G1 X55.653 Y112.517
G1 X55.370 Y112.430
G1 X55.200 Y112.207
G1 X55.203 Y111.910
G1 X55.377 Y111.724
G1 X55.895 Y111.704
G1 X56.255 Y111.986
G1 X56.401 Y112.273
G1 X56.352 Y112.407
G1 X56.654 Y113.757
G1 X56.991 Y114.497
G0 Z5.000 F500.000
G0 X60.119 Y112.546 F3000.000
G1 Z1.000 F500.000
G4 P100
G1 X59.967 Y112.307 F1000.000
G1 X59.995 Y111.961
G1 X60.166 Y111.793
G1 X60.439 Y111.809
G1 X60.724 Y112.072
G1 X61.184 Y113.035
G1 X61.572 Y113.457
G1 X61.506 Y113.301
G1 X61.649 Y112.976
G1 X61.656 Y112.216
G1 X61.806 Y111.836
G1 X62.064 Y111.765
G1 X62.347 Y111.854
G1 X62.714 Y112.219
G1 X62.832 Y112.468
G0 Z5.000 F500.000
G0 X63.309 Y113.682 F3000.000
G1 Z1.000 F500.000
G4 P100
G1 X63.130 Y113.477 F1000.000
G1 X62.958 Y112.601
G1 X62.965 Y112.156
G1 X63.121 Y111.888
G1 X63.387 Y111.944
G1 X63.710 Y112.326
G1 X63.997 Y112.446
G1 X64.271 Y113.479
G1 X64.395 Y113.650
G1 X64.271 Y113.479
G1 X63.997 Y112.446
G1 X64.140 Y111.877
G1 X64.372 Y111.779
G1 X64.672 Y111.854
G1 X65.072 Y112.206
G1 X65.201 Y112.466
G0 Z5.000 F500.000
G0 X65.587 Y113.677 F3000.000
G1 Z1.000 F500.000
G4 P100
G1 X65.436 Y113.521 F1000.000
G1 X65.324 Y113.046
G1 X65.289 Y111.741
G1 X65.256 Y112.388
G1 X65.338 Y112.738
G1 X66.427 Y112.676
G1 X66.742 Y113.625
G1 X66.427 Y112.676
G1 X66.513 Y111.860
G1 X66.771 Y111.778
G1 X67.054 Y111.861
G1 X67.444 Y112.203
G1 X67.577 Y112.468
G0 Z5.000 F500.000
G0 X67.962 Y113.677 F3000.000
G1 Z1.000 F500.000
G4 P100
G1 X67.811 Y113.521 F1000.000
G1 X67.699 Y113.046
G1 X67.664 Y111.741
G1 X67.631 Y112.388
G1 X67.713 Y112.738
G1 X68.802 Y112.676
G1 X69.117 Y113.625
G1 X68.802 Y112.676
G1 X68.888 Y111.860
G1 X69.146 Y111.778
G1 X69.429 Y111.861
G1 X69.819 Y112.203
G1 X69.952 Y112.468
G0 Z5.000 F500.000
G0 X71.121 Y112.204 F3000.000
G1 Z1.000 F500.000
G4 P100
G1 X71.336 Y113.384 F1000.000
G1 X70.877 Y113.615
G1 X70.375 Y113.343
G1 X70.028 Y112.782
G1 X69.969 Y112.119
G1 X70.070 Y111.901
G1 X70.254 Y111.775
G1 X70.603 Y111.800
G1 X71.121 Y112.204
G1 X71.362 Y111.823
G1 X71.683 Y111.801
G1 X72.183 Y112.222
G1 X72.299 Y112.456
G1 X72.249 Y112.525
G1 X72.125 Y112.196
G1 X72.280 Y111.861
G1 X72.631 Y111.752
G1 X73.039 Y111.878
G1 X73.417 Y112.230
G1 X73.505 Y112.510
G1 X72.970 Y112.721
G1 X72.854 Y113.196
G1 X73.001 Y113.492
G1 X73.330 Y113.640
G1 X74.089 Y113.510
G1 X73.864 Y112.637
G1 X73.505 Y112.510
G1 X73.864 Y112.637
G1 X73.932 Y112.034
G1 X74.047 Y111.811
G1 X74.283 Y111.783
G1 X74.544 Y111.891
G1 X74.892 Y112.215
G1 X75.019 Y112.475
G0 Z5.000 F500.000
G0 X56.352 Y102.894 F3000.000
G1 Z1.000 F500.000
G4 P100
G1 X56.417 Y103.239 F1000.000
G1 X56.262 Y103.460
G1 X55.810 Y103.433
G1 X55.526 Y103.166
G1 X55.335 Y102.389
G1 X55.429 Y102.001
G1 X55.634 Y101.768
G1 X56.019 Y101.668
G1 X56.548 Y101.769
G1 X57.008 Y102.088
G1 X57.177 Y102.405
G0 Z5.000 F500.000
G0 X57.569 Y103.594 F3000.000
G1 Z1.000 F500.000
G4 P100
G1 X57.393 Y103.405 F1000.000
G1 X57.259 Y102.806
G1 X57.288 Y101.710
G1 X57.332 Y102.227
G1 X57.636 Y102.425
G1 X58.030 Y103.122
G1 X58.369 Y103.297
G1 X58.514 Y103.284
G1 X58.557 Y103.063
G1 X58.526 Y101.695
G1 X58.597 Y102.254
G1 X58.869 Y102.421
G1 X59.237 Y103.050
G1 X59.545 Y103.273
G1 X59.826 Y103.237
G1 X59.719 Y102.068
G1 X59.824 Y101.746
G1 X60.100 Y101.680
G1 X60.374 Y101.767
G1 X60.748 Y102.104
G1 X60.887 Y102.374
G0 Z5.000 F500.000
G0 X61.970 Y101.912 F3000.000
G1 Z1.000 F500.000
G4 P100
G1 X62.283 Y102.679 F1000.000
G1 X62.228 Y103.300
G1 X62.054 Y103.462
G1 X61.825 Y103.492
G1 X61.084 Y103.140
G1 X61.045 Y103.480
G1 X61.027 Y102.403
G1 X60.928 Y102.000
G1 X61.067 Y101.648
G1 X60.855 Y100.167
G1 X60.604 Y99.501
G1 X60.409 Y99.385
G1 X60.196 Y99.424
G1 X60.033 Y99.779
G1 X60.083 Y100.420
G1 X60.473 Y101.600
G1 X60.703 Y101.912
G1 X60.928 Y102.000
G1 X61.131 Y101.639
G1 X61.501 Y101.668
G1 X61.970 Y101.912
G1 X62.225 Y101.698
G1 X62.574 Y101.692
G1 X63.050 Y101.994
G1 X63.394 Y102.544
G1 X63.577 Y102.678
G1 X64.075 Y102.842
G1 X64.535 Y102.831
G1 X64.705 Y102.603
G1 X64.638 Y102.288
G1 X64.477 Y101.946
G1 X64.217 Y101.725
G1 X63.911 Y101.659
G1 X63.621 Y101.747
G1 X63.401 Y101.969
G1 X63.294 Y102.293
G1 X63.301 Y102.723
G1 X63.424 Y103.089
G1 X63.652 Y103.353
G1 X63.959 Y103.485
G1 X64.367 Y103.361
G1 X64.705 Y102.603
G1 X65.103 Y102.596
G1 X65.511 Y102.715
G0 Z5.000 F500.000
G0 X67.233 Y102.874 F3000.000
G1 Z1.000 F500.000
G4 P100
G1 X67.323 Y103.168 F1000.000
G1 X67.209 Y103.429
G1 X66.940 Y103.505
G1 X66.651 Y103.396
G1 X66.356 Y102.992
G1 X66.208 Y102.330
G1 X65.705 Y102.142
G1 X65.671 Y101.717
G1 X65.643 Y102.843
G1 X65.772 Y103.406
G1 X65.949 Y103.594
G1 X65.775 Y103.412
G1 X65.652 Y102.901
G1 X65.607 Y102.436
G1 X65.705 Y102.142
G1 X66.208 Y102.330
G1 X66.562 Y101.800
G1 X67.071 Y101.658
G1 X67.520 Y101.884
G1 X67.873 Y102.374
G0 Z5.000 F500.000
G0 X69.041 Y102.107 F3000.000
G1 Z1.000 F500.000
G4 P100
G1 X69.256 Y103.287 F1000.000
G1 X68.760 Y103.511
G1 X68.306 Y103.257
G1 X67.979 Y102.767
G1 X67.873 Y102.138
G1 X68.052 Y101.743
G1 X68.476 Y101.683
G1 X69.041 Y102.107
G1 X69.270 Y101.735
G1 X69.561 Y101.690
G1 X69.987 Y101.993
G1 X70.222 Y102.374
G0 Z5.000 F500.000
G0 X56.281 Y91.036 F3000.000
G1 Z1.000 F500.000
G4 P100
G1 X56.277 Y90.619 F1000.000
G1 X55.900 Y89.623
G1 X55.590 Y89.322
G1 X55.230 Y89.345
G1 X55.075 Y89.674
G1 X55.236 Y90.185
G1 X55.901 Y90.919
G1 X56.281 Y91.036
G1 X56.540 Y91.596
G1 X56.432 Y91.818
G1 X56.705 Y93.163
G1 X56.266 Y93.425
G1 X55.944 Y93.303
G1 X55.656 Y93.047
G1 X55.420 Y92.635
G1 X55.326 Y92.164
G1 X55.381 Y91.812
G1 X55.595 Y91.592
G1 X55.871 Y91.575
G1 X56.432 Y91.818
G1 X56.542 Y91.603
G1 X56.788 Y91.625
G1 X57.594 Y92.213
G0 Z5.000 F500.000
G0 X59.135 Y92.506 F3000.000
G1 Z1.000 F500.000
G4 P100
G1 X58.951 Y91.916 F1000.000
G1 X58.593 Y91.605
G1 X58.116 Y91.615
G1 X57.777 Y91.983
G1 X57.711 Y92.415
G1 X57.795 Y92.866
G1 X58.004 Y93.190
G1 X58.310 Y93.369
G1 X58.572 Y93.388
G1 X58.783 Y93.281
G1 X59.135 Y92.506
G1 X59.533 Y92.499
G1 X59.941 Y92.618
G0 Z5.000 F500.000
G0 X59.949 Y92.352 F3000.000
G1 Z1.000 F500.000
G4 P100
G1 X59.797 Y92.113 F1000.000
G1 X59.825 Y91.767
G1 X59.996 Y91.599
G1 X60.269 Y91.615
G1 X60.554 Y91.878
G1 X61.014 Y92.841
G1 X61.402 Y93.263
G1 X61.336 Y93.107
G1 X61.475 Y92.811
G1 X61.482 Y92.051
G1 X61.615 Y91.661
G1 X61.872 Y91.571
G1 X62.158 Y91.648
G1 X62.540 Y92.019
G1 X62.660 Y92.267
G1 X62.671 Y91.722
G1 X62.841 Y91.593
G1 X63.102 Y91.585
G1 X63.481 Y91.919
G1 X63.730 Y92.679
G1 X63.422 Y93.327
G1 X63.175 Y93.387
G1 X62.965 Y93.256
G1 X62.904 Y93.063
G1 X63.077 Y93.356
G1 X63.422 Y93.327
G1 X63.730 Y92.679
G1 X64.128 Y92.770
G1 X64.247 Y93.349
G1 X64.384 Y93.488
G1 X64.247 Y93.349
G1 X64.128 Y92.770
G1 X64.225 Y92.091
G1 X64.130 Y91.530
G1 X64.225 Y92.091
G1 X64.672 Y92.333
G1 X64.879 Y93.037
G1 X65.247 Y93.384
G1 X65.644 Y93.331
G1 X65.751 Y92.961
G1 X65.690 Y92.799
G1 X65.738 Y93.187
G1 X65.487 Y93.403
G1 X65.180 Y93.355
G1 X64.924 Y93.113
G1 X64.672 Y92.333
G1 X64.956 Y91.761
G1 X65.288 Y91.572
G1 X65.670 Y91.601
G1 X66.123 Y91.953
G1 X66.308 Y92.279
G0 Z5.000 F500.000
G0 X66.692 Y93.483 F3000.000
G1 Z1.000 F500.000
G4 P100
G1 X66.541 Y93.327 F1000.000
G1 X66.429 Y92.852
G1 X66.394 Y91.547
G1 X66.361 Y92.194
G1 X66.443 Y92.544
G1 X67.532 Y92.482
G1 X67.847 Y93.431
G1 X67.532 Y92.482
G1 X67.618 Y91.666
G1 X67.876 Y91.584
G1 X68.159 Y91.667
G1 X68.549 Y92.009
G1 X68.682 Y92.274
G0 Z5.000 F500.000
G0 X69.851 Y92.010 F3000.000
G1 Z1.000 F500.000
G4 P100
G1 X70.066 Y93.190 F1000.000
G1 X69.570 Y93.414
G1 X69.116 Y93.160
G1 X68.789 Y92.670
G1 X68.683 Y92.041
G1 X68.862 Y91.646
G1 X69.286 Y91.586
G1 X69.851 Y92.010
G1 X70.080 Y91.638
G1 X70.371 Y91.593
G1 X70.797 Y91.896
G1 X71.032 Y92.277
G0 Z5.000 F500.000
G0 X57.013 Y82.680 F3000.000
G1 Z1.000 F500.000
G4 P100
G1 X57.103 Y82.974 F1000.000
G1 X56.989 Y83.235
G1 X56.720 Y83.311
G1 X56.431 Y83.202
G1 X56.136 Y82.798
G1 X55.988 Y82.136
G1 X55.485 Y81.948
G1 X55.451 Y81.523
G1 X55.423 Y82.649
G1 X55.552 Y83.212
G1 X55.729 Y83.400
G1 X55.558 Y83.225
G1 X55.452 Y82.814
G1 X55.442 Y82.024
G1 X55.485 Y81.948
G1 X55.988 Y82.136
G1 X56.271 Y81.670
G1 X56.625 Y81.476
G1 X57.150 Y81.573
G1 X57.542 Y81.944
G1 X57.752 Y82.341
G1 X58.435 Y82.643
G1 X58.896 Y82.636
G1 X59.032 Y82.553
G1 X59.000 Y82.101
G1 X58.790 Y81.695
G1 X58.509 Y81.503
G1 X58.177 Y81.475
G1 X57.887 Y81.623
G1 X57.702 Y81.900
G1 X57.641 Y82.318
G1 X57.722 Y82.762
G1 X57.924 Y83.082
G1 X58.226 Y83.268
G1 X58.494 Y83.292
G1 X58.713 Y83.184
G1 X59.065 Y82.409
G1 X59.463 Y82.402
G1 X59.871 Y82.521
G0 Z5.000 F500.000
G0 X60.990 Y81.718 F3000.000
G1 Z1.000 F500.000
G4 P100
G1 X61.303 Y82.485 F1000.000
G1 X61.248 Y83.106
G1 X61.074 Y83.268
G1 X60.845 Y83.298
G1 X60.104 Y82.946
G1 X60.065 Y83.286
G1 X60.047 Y82.209
G1 X59.948 Y81.806
G1 X60.087 Y81.454
G1 X59.875 Y79.973
G1 X59.624 Y79.307
G1 X59.429 Y79.191
G1 X59.216 Y79.230
G1 X59.056 Y79.564
G1 X59.089 Y80.154
G1 X59.319 Y80.970
G1 X59.653 Y81.666
G1 X59.948 Y81.806
G1 X60.087 Y81.454
G1 X60.180 Y81.442
G1 X60.535 Y81.479
G1 X60.990 Y81.718
G1 X61.239 Y81.506
G1 X61.565 Y81.492
G1 X62.017 Y81.749
G1 X62.316 Y82.189
G0 Z5.000 F500.000
G0 X63.395 Y81.718 F3000.000
G1 Z1.000 F500.000
G4 P100
G1 X63.708 Y82.485 F1000.000
G1 X63.653 Y83.106
G1 X63.479 Y83.268
G1 X63.250 Y83.298
G1 X62.509 Y82.946
G1 X62.470 Y83.286
G1 X62.452 Y82.209
G1 X62.353 Y81.806
G1 X62.492 Y81.454
G1 X62.280 Y79.973
G1 X62.029 Y79.307
G1 X61.834 Y79.191
G1 X61.621 Y79.230
G1 X61.461 Y79.564
G1 X61.494 Y80.154
G1 X61.724 Y80.970
G1 X62.058 Y81.666
G1 X62.353 Y81.806
G1 X62.492 Y81.454
G1 X62.585 Y81.442
G1 X62.940 Y81.479
G1 X63.395 Y81.718
G1 X63.644 Y81.506
G1 X63.970 Y81.492
G1 X64.422 Y81.749
G1 X64.721 Y82.189
G0 Z5.000 F500.000
G0 X64.763 Y82.070 F3000.000
G1 Z1.000 F500.000
G4 P100
G1 X65.449 Y82.267 F1000.000
G1 X65.830 Y82.607
G1 X65.901 Y82.875
G1 X65.842 Y83.122
G1 X65.684 Y83.266
G1 X65.434 Y83.312
G1 X65.021 Y83.128
G1 X64.750 Y82.675
G1 X64.707 Y82.220
G1 X64.786 Y81.854
G1 X64.933 Y81.648
G1 X65.340 Y81.463
G1 X65.861 Y81.502
G1 X66.440 Y81.824
G1 X66.682 Y82.177
G0 Z5.000 F500.000
G0 X68.368 Y82.680 F3000.000
G1 Z1.000 F500.000
G4 P100
G1 X68.458 Y82.974 F1000.000
G1 X68.344 Y83.235
G1 X68.075 Y83.311
G1 X67.786 Y83.202
G1 X67.491 Y82.798
G1 X67.343 Y82.136
G1 X66.840 Y81.948
G1 X66.806 Y81.523
G1 X66.778 Y82.649
G1 X66.907 Y83.212
G1 X67.084 Y83.400
G1 X66.910 Y83.218
G1 X66.787 Y82.707
G1 X66.742 Y82.242
G1 X66.840 Y81.948
G1 X67.343 Y82.136
G1 X67.697 Y81.606
G1 X68.206 Y81.464
G1 X68.655 Y81.690
G1 X69.008 Y82.180
G0 Z5.000 F500.000
G0 X69.409 Y83.400 F3000.000
G1 Z1.000 F500.000
G4 P100
G1 X69.233 Y83.211 F1000.000
G1 X69.099 Y82.612
G1 X69.128 Y81.516
G1 X69.172 Y82.033
G1 X69.476 Y82.231
G1 X69.870 Y82.928
G1 X70.209 Y83.103
G1 X70.354 Y83.090
G1 X70.397 Y82.869
G1 X70.366 Y81.501
G1 X70.437 Y82.060
G1 X70.709 Y82.227
G1 X71.077 Y82.856
G1 X71.385 Y83.079
G1 X71.666 Y83.043
G1 X71.559 Y81.874
G1 X71.664 Y81.552
G1 X71.940 Y81.486
G1 X72.214 Y81.573
G1 X72.588 Y81.910
G1 X72.727 Y82.180
G0 Z5.000 F500.000
G0 X73.112 Y83.386 F3000.000
G1 Z1.000 F500.000
G4 P100
G1 X72.961 Y83.230 F1000.000
G1 X72.849 Y82.755
G1 X72.814 Y81.450
G1 X72.781 Y82.097
G1 X72.863 Y82.447
G1 X73.952 Y82.385
G1 X74.267 Y83.334
G1 X73.952 Y82.385
G1 X73.969 Y81.746
G1 X74.142 Y81.509
G1 X74.617 Y81.593
G1 X74.992 Y81.940
G1 X75.201 Y82.339
G1 X75.885 Y82.642
G1 X76.346 Y82.636
G1 X76.482 Y82.553
G1 X76.452 Y82.108
G1 X76.245 Y81.701
G1 X75.966 Y81.505
G1 X75.634 Y81.474
G1 X75.343 Y81.618
G1 X75.152 Y81.900
G1 X75.091 Y82.318
G1 X75.172 Y82.762
G1 X75.374 Y83.082
G1 X75.676 Y83.268
G1 X75.944 Y83.292
G1 X76.163 Y83.184
G1 X76.515 Y82.409
G1 X76.913 Y82.402
G1 X77.321 Y82.521
G0 Z5.000 F500.000
G0 X55.729 Y73.303 F3000.000
G1 Z1.000 F500.000
G4 P100
G1 X55.552 Y73.114 F1000.000
G1 X55.415 Y72.499
G1 X55.495 Y71.926
G1 X55.448 Y71.419
G1 X55.495 Y71.926
G1 X55.774 Y72.097
G1 X56.157 Y72.759
G1 X56.479 Y72.988
G1 X56.692 Y73.012
G1 X56.746 Y72.921
G1 X56.639 Y71.774
G1 X56.748 Y71.453
G1 X57.023 Y71.390
G1 X57.299 Y71.478
G1 X57.669 Y71.810
G1 X57.807 Y72.080
G0 Z5.000 F500.000
G0 X57.853 Y71.973 F3000.000
G1 Z1.000 F500.000
G4 P100
G1 X58.539 Y72.170 F1000.000
G1 X58.920 Y72.510
G1 X58.991 Y72.778
G1 X58.932 Y73.025
G1 X58.774 Y73.169
G1 X58.524 Y73.215
G1 X58.111 Y73.031
G1 X57.840 Y72.578
G1 X57.797 Y72.123
G1 X57.876 Y71.757
G1 X58.023 Y71.551
G1 X58.430 Y71.366
G1 X58.951 Y71.405
G1 X59.530 Y71.727
G1 X59.772 Y72.080
G0 Z5.000 F500.000
G0 X60.855 Y71.621 F3000.000
G1 Z1.000 F500.000
G4 P100
G1 X61.168 Y72.388 F1000.000
G1 X61.113 Y73.009
G1 X60.939 Y73.171
G1 X60.710 Y73.201
G1 X59.969 Y72.849
G1 X59.930 Y73.189
G1 X59.912 Y72.112
G1 X59.813 Y71.709
G1 X59.952 Y71.357
G1 X59.740 Y69.876
G1 X59.489 Y69.210
G1 X59.294 Y69.094
G1 X59.081 Y69.133
G1 X58.921 Y69.467
G1 X58.954 Y70.057
G1 X59.184 Y70.873
G1 X59.518 Y71.569
G1 X59.813 Y71.709
G1 X59.952 Y71.357
G1 X60.045 Y71.345
G1 X60.400 Y71.382
G1 X60.855 Y71.621
G1 X61.104 Y71.409
G1 X61.430 Y71.395
G1 X61.882 Y71.652
G1 X62.181 Y72.092
G0 Z5.000 F500.000
G0 X62.223 Y71.973 F3000.000
G1 Z1.000 F500.000
G4 P100
G1 X62.909 Y72.170 F1000.000
G1 X63.290 Y72.510
G1 X63.361 Y72.778
G1 X63.302 Y73.025
G1 X63.144 Y73.169
G1 X62.894 Y73.215
G1 X62.481 Y73.031
G1 X62.210 Y72.578
G1 X62.167 Y72.123
G1 X62.246 Y71.757
G1 X62.393 Y71.551
G1 X62.800 Y71.366
G1 X63.321 Y71.405
G1 X63.900 Y71.727
G1 X64.142 Y72.080
G0 Z5.000 F500.000
G0 X64.527 Y73.289 F3000.000
G1 Z1.000 F500.000
G4 P100
G1 X64.376 Y73.133 F1000.000
G1 X64.264 Y72.658
G1 X64.229 Y71.353
G1 X64.196 Y72.000
G1 X64.278 Y72.350
G1 X65.367 Y72.288
G1 X65.682 Y73.237
G1 X65.367 Y72.288
G1 X65.384 Y71.649
G1 X65.557 Y71.412
G1 X66.032 Y71.496
G1 X66.407 Y71.843
G1 X66.616 Y72.242
G1 X67.300 Y72.545
G1 X67.761 Y72.539
G1 X67.897 Y72.456
G1 X67.867 Y72.011
G1 X67.660 Y71.604
G1 X67.381 Y71.408
G1 X67.049 Y71.377
G1 X66.758 Y71.521
G1 X66.567 Y71.803
G1 X66.506 Y72.221
G1 X66.587 Y72.665
G1 X66.789 Y72.985
G1 X67.091 Y73.171
G1 X67.359 Y73.195
G1 X67.578 Y73.087
G1 X67.930 Y72.312
G1 X68.328 Y72.305
G1 X68.736 Y72.424
G0 Z5.000 F500.000
G0 X69.797 Y72.603 F3000.000
G1 Z1.000 F500.000
G4 P100
G1 X69.862 Y72.948 F1000.000
G1 X69.707 Y73.169
G1 X69.255 Y73.142
G1 X68.971 Y72.875
G1 X68.780 Y72.098
G1 X68.874 Y71.710
G1 X69.079 Y71.477
G1 X69.464 Y71.377
G1 X69.993 Y71.478
G1 X70.453 Y71.797
G1 X70.622 Y72.114
G0 Z5.000 F500.000
G0 X71.029 Y73.294 F3000.000
G1 Z1.000 F500.000
G4 P100
G1 X70.850 Y73.089 F1000.000
G1 X70.678 Y72.213
G1 X70.685 Y71.768
G1 X70.841 Y71.500
G1 X71.107 Y71.556
G1 X71.430 Y71.938
G1 X71.717 Y72.058
G1 X71.991 Y73.091
G1 X72.115 Y73.262
G1 X71.991 Y73.091
G1 X71.717 Y72.058
G1 X71.860 Y71.489
G1 X72.092 Y71.391
G1 X72.392 Y71.466
G1 X72.792 Y71.818
G1 X72.921 Y72.078
G0 Z5.000 F500.000
G0 X73.324 Y73.303 F3000.000
G1 Z1.000 F500.000
G4 P100
G1 X73.148 Y73.114 F1000.000
G1 X73.014 Y72.515
G1 X73.043 Y71.419
G1 X73.087 Y71.936
G1 X73.391 Y72.134
G1 X73.785 Y72.831
G1 X74.124 Y73.006
G1 X74.269 Y72.993
G1 X74.312 Y72.772
G1 X74.281 Y71.404
G1 X74.352 Y71.963
G1 X74.624 Y72.130
G1 X74.992 Y72.759
G1 X75.300 Y72.982
G1 X75.581 Y72.946
G1 X75.474 Y71.777
G1 X75.579 Y71.455
G1 X75.855 Y71.389
G1 X76.129 Y71.476
G1 X76.503 Y71.813
G1 X76.642 Y72.083
G0 Z5.000 F500.000
G0 X78.011 Y71.553 F3000.000
G1 Z1.000 F500.000
G4 P100
G1 X78.153 Y72.091 F1000.000
G1 X78.081 Y72.356
G1 X77.812 Y72.552
G1 X77.499 Y72.541
G1 X77.218 Y72.407
G1 X77.026 Y72.576
G1 X76.824 Y72.800
G1 X76.915 Y73.136
G1 X77.069 Y73.272
G1 X76.905 Y73.109
G1 X76.780 Y72.368
G1 X76.857 Y72.252
G1 X77.218 Y72.407
G1 X76.857 Y72.252
G1 X76.800 Y72.300
G1 X76.726 Y72.030
G1 X76.814 Y71.679
G1 X77.036 Y71.452
G1 X77.414 Y71.354
G1 X77.979 Y71.573
G1 X78.217 Y71.396
G1 X78.535 Y71.410
G1 X78.965 Y71.688
G1 X79.227 Y72.080
G0 Z5.000 F500.000
G0 X80.252 Y72.603 F3000.000
G1 Z1.000 F500.000
G4 P100
G1 X80.317 Y72.948 F1000.000
G1 X80.162 Y73.169
G1 X79.710 Y73.142
G1 X79.426 Y72.875
G1 X79.235 Y72.098
G1 X79.329 Y71.710
G1 X79.534 Y71.477
G1 X79.919 Y71.377
G1 X80.448 Y71.478
G1 X80.908 Y71.797
G1 X81.077 Y72.114
G0 Z5.000 F500.000
G0 X55.280 Y62.044 F3000.000
G1 Z1.000 F500.000
G4 P100
G1 X55.153 Y61.675 F1000.000
G1 X55.366 Y61.335
G1 X55.786 Y61.281
G1 X56.221 Y61.511
G1 X56.475 Y61.794
G1 X56.530 Y62.025
G1 X55.995 Y62.236
G1 X55.880 Y62.718
G1 X56.077 Y63.049
G1 X56.516 Y63.164
G1 X57.117 Y63.019
G1 X56.889 Y62.152
G1 X56.530 Y62.025
G1 X56.889 Y62.152
G1 X57.061 Y61.334
G1 X57.293 Y61.296
G1 X57.563 Y61.402
G1 X57.917 Y61.730
G1 X58.044 Y61.990
G0 Z5.000 F500.000
G0 X60.890 Y62.215 F3000.000
G1 Z1.000 F500.000
G4 P100
G1 X60.574 Y62.957 F1000.000
G1 X60.179 Y63.197
G1 X60.211 Y63.426
G1 X60.640 Y64.233
G1 X60.775 Y64.795
G1 X60.710 Y65.319
G1 X60.582 Y65.454
G1 X60.402 Y65.478
G1 X60.189 Y65.373
G1 X60.007 Y65.126
G1 X59.659 Y64.103
G1 X59.507 Y63.149
G1 X59.542 Y62.774
G1 X59.850 Y62.859
G1 X60.192 Y63.140
G1 X59.850 Y62.859
G1 X59.542 Y62.774
G1 X59.473 Y62.188
G1 X59.567 Y61.670
G1 X59.862 Y61.332
G1 X60.297 Y61.297
G1 X60.692 Y61.607
G1 X60.890 Y62.215
G1 X61.686 Y62.315
G0 Z5.000 F500.000
G0 X62.117 Y63.192 F3000.000
G1 Z1.000 F500.000
G4 P100
G1 X61.966 Y63.036 F1000.000
G1 X61.854 Y62.561
G1 X61.819 Y61.256
G1 X61.786 Y61.903
G1 X61.868 Y62.253
G1 X62.957 Y62.191
G1 X63.272 Y63.140
G1 X62.957 Y62.191
G1 X63.043 Y61.375
G1 X63.301 Y61.293
G1 X63.584 Y61.376
G1 X63.974 Y61.718
G1 X64.107 Y61.983
G0 Z5.000 F500.000
G0 X64.497 Y63.175 F3000.000
G1 Z1.000 F500.000
G4 P100
G1 X64.333 Y62.952 F1000.000
G1 X64.162 Y61.987
G1 X64.205 Y61.589
G1 X64.395 Y61.385
G1 X64.646 Y61.479
G1 X64.954 Y61.865
G1 X65.246 Y61.993
G1 X65.600 Y63.155
G1 X65.246 Y61.993
G1 X65.325 Y61.312
G1 X65.051 Y60.748
G1 X65.070 Y60.417
G1 X64.846 Y59.689
G1 X64.465 Y59.091
G1 X64.230 Y59.000
G1 X63.998 Y59.056
G1 X63.863 Y59.240
G1 X63.857 Y59.525
G1 X64.189 Y60.158
G1 X64.716 Y60.666
G1 X65.051 Y60.748
G1 X65.325 Y61.312
G1 X65.701 Y61.398
G1 X66.374 Y61.922
G0 Z5.000 F500.000
G0 X66.904 Y63.206 F3000.000
G1 Z1.000 F500.000
G4 P100
G1 X66.728 Y63.017 F1000.000
G1 X66.594 Y62.418
G1 X66.623 Y61.322
G1 X66.667 Y61.839
G1 X66.971 Y62.037
G1 X67.365 Y62.734
G1 X67.704 Y62.909
G1 X67.849 Y62.896
G1 X67.892 Y62.675
G1 X67.861 Y61.307
G1 X67.932 Y61.866
G1 X68.204 Y62.033
G1 X68.572 Y62.662
G1 X68.880 Y62.885
G1 X69.161 Y62.849
G1 X69.054 Y61.680
G1 X69.159 Y61.358
G1 X69.435 Y61.292
G1 X69.709 Y61.379
G1 X70.083 Y61.716
G1 X70.222 Y61.986
G0 Z5.000 F500.000
G0 X71.305 Y61.524 F3000.000
G1 Z1.000 F500.000
G4 P100
G1 X71.618 Y62.291 F1000.000
G1 X71.563 Y62.912
G1 X71.389 Y63.074
G1 X71.160 Y63.104
G1 X70.419 Y62.752
G1 X70.380 Y63.092
G1 X70.362 Y62.015
G1 X70.263 Y61.612
G1 X70.402 Y61.260
G1 X70.190 Y59.779
G1 X69.939 Y59.113
G1 X69.744 Y58.997
G1 X69.531 Y59.036
G1 X69.371 Y59.370
G1 X69.404 Y59.960
G1 X69.634 Y60.776
G1 X69.968 Y61.472
G1 X70.263 Y61.612
G1 X70.402 Y61.260
G1 X70.495 Y61.248
G1 X70.850 Y61.285
G1 X71.305 Y61.524
G1 X71.554 Y61.312
G1 X71.880 Y61.298
G1 X72.332 Y61.555
G1 X72.631 Y61.995
G0 Z5.000 F500.000
G0 X73.044 Y63.197 F3000.000
G1 Z1.000 F500.000
G4 P100
G1 X72.865 Y62.992 F1000.000
G1 X72.693 Y62.116
G1 X72.700 Y61.671
G1 X72.856 Y61.403
G1 X73.122 Y61.459
G1 X73.445 Y61.841
G1 X73.732 Y61.961
G1 X74.006 Y62.994
G1 X74.130 Y63.165
G1 X74.006 Y62.994
G1 X73.732 Y61.961
G1 X73.875 Y61.392
G1 X74.107 Y61.294
G1 X74.407 Y61.369
G1 X74.807 Y61.721
G1 X74.936 Y61.981
G0 Z5.000 F500.000
G0 X55.280 Y51.947 F3000.000
G1 Z1.000 F500.000
G4 P100
G1 X55.153 Y51.578 F1000.000
G1 X55.366 Y51.238
G1 X55.786 Y51.184
G1 X56.221 Y51.414
G1 X56.475 Y51.697
G1 X56.530 Y51.928
G1 X55.995 Y52.139
G1 X55.880 Y52.621
G1 X56.077 Y52.952
G1 X56.516 Y53.067
G1 X57.117 Y52.922
G1 X56.889 Y52.055
G1 X56.530 Y51.928
G1 X56.889 Y52.055
G1 X57.061 Y51.237
G1 X57.293 Y51.199
G1 X57.563 Y51.305
G1 X57.917 Y51.633
G1 X58.044 Y51.893
G0 Z5.000 F500.000
G0 X57.695 Y51.391 F3000.000
G1 Z1.000 F500.000
G4 P100
G1 X58.293 Y52.136 F1000.000
G1 X58.704 Y53.156
G1 X58.855 Y53.284
G1 X59.259 Y52.937
G1 X59.855 Y52.829
G1 X60.195 Y53.065
G1 X59.855 Y52.829
G1 X59.748 Y52.599
G1 X59.122 Y51.959
G1 X59.029 Y51.552
G1 X59.188 Y51.252
G1 X59.599 Y51.136
G1 X60.105 Y51.238
G1 X60.612 Y51.555
G1 X60.825 Y51.896
G0 Z5.000 F500.000
G0 X60.863 Y51.779 F3000.000
G1 Z1.000 F500.000
G4 P100
G1 X61.549 Y51.976 F1000.000
G1 X61.930 Y52.316
G1 X62.001 Y52.584
G1 X61.942 Y52.831
G1 X61.784 Y52.975
G1 X61.534 Y53.021
G1 X61.121 Y52.837
G1 X60.850 Y52.384
G1 X60.807 Y51.929
G1 X60.886 Y51.563
G1 X61.033 Y51.357
G1 X61.440 Y51.172
G1 X61.961 Y51.211
G1 X62.540 Y51.533
G1 X62.782 Y51.886
G0 Z5.000 F500.000
G0 X63.199 Y53.100 F3000.000
G1 Z1.000 F500.000
G4 P100
G1 X63.020 Y52.895 F1000.000
G1 X62.848 Y52.019
G1 X62.855 Y51.574
G1 X63.011 Y51.306
G1 X63.277 Y51.362
G1 X63.600 Y51.744
G1 X63.887 Y51.864
G1 X64.161 Y52.897
G1 X64.285 Y53.068
G1 X64.161 Y52.897
G1 X63.887 Y51.864
G1 X64.030 Y51.295
G1 X64.262 Y51.197
G1 X64.562 Y51.272
G1 X64.962 Y51.624
G1 X65.091 Y51.884
G0 Z5.000 F500.000
G0 X66.778 Y52.389 F3000.000
G1 Z1.000 F500.000
G4 P100
G1 X66.868 Y52.683 F1000.000
G1 X66.754 Y52.944
G1 X66.485 Y53.020
G1 X66.196 Y52.911
G1 X65.901 Y52.507
G1 X65.753 Y51.845
G1 X65.250 Y51.657
G1 X65.216 Y51.232
G1 X65.188 Y52.358
G1 X65.317 Y52.921
G1 X65.494 Y53.109
G1 X65.320 Y52.927
G1 X65.197 Y52.416
G1 X65.152 Y51.951
G1 X65.250 Y51.657
G1 X65.753 Y51.845
G1 X66.107 Y51.315
G1 X66.616 Y51.173
G1 X67.065 Y51.399
G1 X67.418 Y51.889
G0 Z5.000 F500.000
G0 X67.834 Y53.100 F3000.000
G1 Z1.000 F500.000
G4 P100
G1 X67.655 Y52.895 F1000.000
G1 X67.483 Y52.019
G1 X67.490 Y51.574
G1 X67.646 Y51.306
G1 X67.912 Y51.362
G1 X68.235 Y51.744
G1 X68.522 Y51.864
G1 X68.796 Y52.897
G1 X68.920 Y53.068
G1 X68.796 Y52.897
G1 X68.522 Y51.864
G1 X68.665 Y51.295
G1 X68.897 Y51.197
G1 X69.197 Y51.272
G1 X69.597 Y51.624
G1 X69.726 Y51.884
G0 Z5.000 F500.000
G0 X69.829 Y51.361 F3000.000
G1 Z1.000 F500.000
G4 P100
G1 X69.865 Y51.398 F1000.000
G0 Z5.000 F500.000
G0 X64.520 Y54.525 F3000.000
G1 Z1.000 F500.000
G4 P100
G1 X64.245 Y54.073 F1000.000
G1 X63.801 Y53.848
G1 X63.318 Y53.916
G1 X63.096 Y54.269
G0 Z5.000 F500.000
G0 X86.346 Y112.976 F3000.000
G1 Z1.000 F500.000
G4 P100
G1 X86.427 Y113.302 F1000.000
G1 X86.266 Y113.557
G1 X85.931 Y113.585
G1 X85.603 Y113.385
G1 X85.313 Y112.727
G1 X85.320 Y112.340
G1 X85.439 Y112.035
G1 X85.762 Y111.795
G1 X86.210 Y111.771
G1 X86.592 Y111.976
G1 X86.790 Y112.336
G0 Z5.000 F500.000
G0 X87.571 Y113.682 F3000.000
G1 Z1.000 F500.000
G4 P100
G1 X87.408 Y113.518 F1000.000
G1 X87.281 Y113.006
G1 X87.256 Y112.053
G1 X87.382 Y111.885
G1 X87.551 Y111.895
G1 X87.987 Y112.341
G1 X88.315 Y112.456
G1 X88.359 Y111.816
G1 X88.315 Y112.456
G1 X88.640 Y113.625
G0 Z5.000 F500.000
G0 X89.849 Y113.677 F3000.000
G1 Z1.000 F500.000
G4 P100
G1 X89.699 Y113.521 F1000.000
G1 X89.543 Y112.837
G1 X89.629 Y112.317
G1 X89.585 Y111.789
G1 X89.629 Y112.317
G1 X89.923 Y112.501
G1 X90.455 Y113.301
G1 X90.823 Y113.398
G1 X90.911 Y113.508
G1 X90.823 Y113.398
G1 X91.011 Y112.793
G1 X90.965 Y112.700
G1 X91.216 Y112.881
G0 Z5.000 F500.000
G0 X91.836 Y113.586 F3000.000
G1 Z1.000 F500.000
G4 P100
G1 X91.865 Y112.117 F1000.000
G1 X91.951 Y111.877
G1 X92.097 Y111.809
G1 X92.420 Y112.004
G1 X93.252 Y113.599
G1 X93.381 Y113.620
G1 X93.475 Y113.510
G1 X93.760 Y112.564
G1 X94.027 Y112.366
G1 X94.629 Y112.519
G1 X95.009 Y112.774
G1 X95.168 Y113.151
G1 X95.042 Y113.498
G1 X94.598 Y113.588
G1 X94.185 Y113.304
G1 X93.974 Y112.764
G1 X94.038 Y112.170
G1 X94.357 Y111.816
G1 X94.902 Y111.758
G1 X95.295 Y111.955
G1 X95.586 Y112.460
G1 X95.714 Y112.507
G1 X96.078 Y112.382
G1 X96.700 Y111.848
G1 X97.102 Y111.221
G1 X97.118 Y110.897
G1 X96.738 Y109.832
G1 X96.515 Y109.573
G1 X96.256 Y109.483
G1 X95.941 Y109.659
G1 X95.939 Y110.124
G1 X96.462 Y110.882
G1 X96.802 Y111.170
G1 X97.102 Y111.221
G1 X97.194 Y111.370
G1 X97.497 Y113.481
G1 X97.603 Y113.620
G0 Z5.000 F500.000
G0 X98.828 Y113.401 F3000.000
G1 Z1.000 F500.000
G4 P100
G1 X99.062 Y113.529 F1000.000
G1 X99.416 Y113.555
G1 X99.649 Y113.456
G1 X99.811 Y113.225
G1 X99.898 Y112.782
G1 X99.836 Y112.356
G1 X99.686 Y112.025
G1 X99.457 Y111.839
G1 X98.946 Y111.809
G1 X98.635 Y112.117
G1 X98.561 Y112.734
G1 X98.655 Y113.132
G1 X98.828 Y113.401
G0 Z5.000 F500.000
G0 X100.744 Y111.755 F3000.000
G1 Z1.000 F500.000
G4 P100
G1 X101.047 Y113.463 F1000.000
G1 X101.145 Y113.601
G0 Z5.000 F500.000
G0 X102.402 Y113.669 F3000.000
G1 Z1.000 F500.000
G4 P100
G1 X102.239 Y113.415 F1000.000
G1 X102.126 Y112.894
G1 X102.153 Y111.794
G1 X102.160 Y112.317
G1 X102.532 Y112.544
G1 X102.909 Y113.208
G1 X103.471 Y113.398
G1 X103.493 Y113.494
G1 X103.359 Y111.831
G0 Z5.000 F500.000
G0 X97.542 Y114.553 F3000.000
G1 Z1.000 F500.000
G4 P100
G1 X97.676 Y114.575 F1000.000
G0 Z5.000 F500.000
G0 X101.196 Y114.553 F3000.000
G1 Z1.000 F500.000
G4 P100
G1 X101.330 Y114.575 F1000.000
G0 Z5.000 F500.000
G0 X85.067 Y103.511 F3000.000
G1 Z1.000 F500.000
G4 P100
G1 X85.539 Y103.480 F1000.000
G1 X85.672 Y103.592
G1 X85.694 Y104.136
G1 X85.977 Y105.058
G1 X86.250 Y105.452
G1 X86.573 Y105.526
G1 X86.749 Y105.273
G1 X86.732 Y104.758
G1 X86.111 Y103.594
G1 X86.462 Y103.524
G1 X86.883 Y103.604
G1 X86.462 Y103.524
G1 X85.672 Y103.592
G1 X85.584 Y103.497
G1 X85.593 Y102.460
G1 X85.767 Y101.899
G1 X86.037 Y101.698
G1 X86.405 Y101.695
G1 X86.985 Y102.161
G1 X88.173 Y102.560
G1 X88.415 Y102.847
G1 X88.450 Y103.193
G1 X88.290 Y103.436
G1 X87.966 Y103.503
G1 X87.593 Y103.331
G1 X87.332 Y102.930
G1 X87.261 Y102.477
G1 X87.398 Y101.935
G1 X87.733 Y101.686
G1 X88.204 Y101.663
G1 X88.590 Y101.858
G1 X88.806 Y102.225
G0 Z5.000 F500.000
G0 X88.896 Y101.871 F3000.000
G1 Z1.000 F500.000
G4 P100
G1 X89.574 Y102.803 F1000.000
G1 X89.814 Y102.977
G1 X89.929 Y103.456
G1 X90.095 Y103.611
G1 X89.929 Y103.456
G1 X89.814 Y102.977
G1 X90.284 Y102.353
G1 X90.364 Y101.953
G1 X90.142 Y101.662
G1 X89.734 Y101.663
G0 Z5.000 F500.000
G0 X91.132 Y103.511 F3000.000
G1 Z1.000 F500.000
G4 P100
G1 X91.604 Y103.480 F1000.000
G1 X91.737 Y103.592
G1 X91.768 Y104.179
G1 X92.074 Y105.124
G1 X92.369 Y105.489
G1 X92.701 Y105.491
G1 X92.828 Y105.179
G1 X92.785 Y104.708
G1 X92.176 Y103.594
G1 X92.527 Y103.524
G1 X92.948 Y103.604
G1 X92.527 Y103.524
G1 X91.737 Y103.592
G1 X91.649 Y103.497
G1 X91.639 Y102.722
G1 X91.731 Y102.111
G1 X91.964 Y101.765
G1 X92.428 Y101.685
G1 X92.799 Y101.932
G0 Z5.000 F500.000
G0 X94.719 Y103.824 F3000.000
G1 Z1.000 F500.000
G4 P100
G1 X95.391 Y103.972 F1000.000
G1 X95.477 Y103.837
G1 X95.173 Y101.751
G0 Z5.000 F500.000
G0 X96.599 Y103.824 F3000.000
G1 Z1.000 F500.000
G4 P100
G1 X97.271 Y103.972 F1000.000
G1 X97.357 Y103.837
G1 X97.053 Y101.751
G0 Z5.000 F500.000
G0 X98.702 Y103.270 F3000.000
G1 Z1.000 F500.000
G4 P100
G1 X98.743 Y103.309 F1000.000
G0 Z5.000 F500.000
G0 X98.531 Y101.846 F3000.000
G1 Z1.000 F500.000
G4 P100
G1 X98.567 Y101.883 F1000.000
G0 Z5.000 F500.000
G0 X85.716 Y93.497 F3000.000
G1 Z1.000 F500.000
G4 P100
G1 X85.540 Y93.308 F1000.000
G1 X85.404 Y92.695
G1 X85.435 Y91.613
G1 X85.479 Y92.130
G1 X85.778 Y92.323
G1 X86.059 Y92.875
G1 X86.283 Y93.114
G1 X86.583 Y93.207
G1 X86.673 Y93.145
G1 X86.660 Y92.428
G1 X86.744 Y92.157
G1 X86.673 Y91.598
G1 X86.744 Y92.157
G1 X87.040 Y92.352
G1 X87.478 Y93.056
G1 X87.911 Y93.205
G1 X88.001 Y92.858
G1 X87.884 Y91.620
G1 X87.941 Y91.478
G1 X88.305 Y91.398
G1 X89.030 Y91.591
G1 X89.196 Y92.829
G1 X89.380 Y93.407
G0 Z5.000 F500.000
G0 X90.637 Y93.475 F3000.000
G1 Z1.000 F500.000
G4 P100
G1 X90.474 Y93.221 F1000.000
G1 X90.361 Y92.700
G1 X90.388 Y91.600
G1 X90.395 Y92.123
G1 X90.767 Y92.350
G1 X91.144 Y93.014
G1 X91.706 Y93.204
G1 X91.728 Y93.300
G1 X91.583 Y91.668
G1 X91.690 Y91.500
G1 X92.057 Y91.413
G1 X92.740 Y91.591
G1 X92.906 Y92.829
G1 X93.090 Y93.407
G0 Z5.000 F500.000
G0 X94.376 Y93.497 F3000.000
G1 Z1.000 F500.000
G4 P100
G1 X94.200 Y93.308 F1000.000
G1 X94.064 Y92.695
G1 X94.095 Y91.613
G1 X94.139 Y92.130
G1 X94.442 Y92.328
G1 X94.852 Y93.041
G1 X95.258 Y93.208
G1 X95.361 Y92.987
G1 X95.319 Y92.442
G1 X95.404 Y92.157
G1 X95.333 Y91.598
G1 X95.404 Y92.157
G1 X95.700 Y92.352
G1 X96.149 Y93.066
G1 X96.607 Y93.190
G1 X96.660 Y92.821
G1 X96.544 Y91.620
G0 Z5.000 F500.000
G0 X98.111 Y93.488 F3000.000
G1 Z1.000 F500.000
G4 P100
G1 X97.948 Y93.324 F1000.000
G1 X97.821 Y92.812
G1 X97.796 Y91.859
G1 X97.922 Y91.691
G1 X98.091 Y91.701
G1 X98.527 Y92.147
G1 X98.855 Y92.262
G1 X98.899 Y91.622
G1 X98.855 Y92.262
G1 X99.180 Y93.431
G0 Z5.000 F500.000
G0 X100.406 Y93.497 F3000.000
G1 Z1.000 F500.000
G4 P100
G1 X100.230 Y93.308 F1000.000
G1 X100.094 Y92.695
G1 X100.125 Y91.613
G1 X100.169 Y92.130
G1 X100.472 Y92.328
G1 X100.882 Y93.041
G1 X101.288 Y93.208
G1 X101.391 Y92.987
G1 X101.349 Y92.442
G1 X101.434 Y92.157
G1 X101.363 Y91.598
G1 X101.434 Y92.157
G1 X101.730 Y92.352
G1 X102.179 Y93.066
G1 X102.637 Y93.190
G1 X102.690 Y92.821
G1 X102.574 Y91.620
G0 Z5.000 F500.000
G0 X105.246 Y93.043 F3000.000
G1 Z1.000 F500.000
G4 P100
G1 X105.509 Y93.102 F1000.000
G1 X105.901 Y93.375
G1 X106.211 Y93.367
G1 X106.443 Y93.073
G1 X106.438 Y92.544
G1 X106.199 Y91.999
G1 X105.791 Y91.629
G1 X105.229 Y91.551
G1 X105.090 Y91.903
G1 X104.705 Y91.648
G1 X104.366 Y90.790
G1 X104.201 Y90.048
G1 X104.229 Y89.517
G1 X104.452 Y89.288
G1 X104.646 Y89.312
G1 X104.807 Y89.457
G1 X105.034 Y90.149
G1 X105.229 Y91.551
G1 X105.090 Y91.903
G1 X105.246 Y93.043
G1 X105.184 Y93.335
G1 X105.261 Y93.446
G0 Z5.000 F500.000
G0 X107.497 Y92.172 F3000.000
G1 Z1.000 F500.000
G4 P100
G1 X108.172 Y92.358 F1000.000
G1 X108.560 Y92.691
G1 X108.637 Y92.942
G1 X108.592 Y93.193
G1 X108.453 Y93.347
G1 X108.222 Y93.409
G1 X107.824 Y93.280
G1 X107.531 Y92.895
G1 X107.434 Y92.409
G1 X107.557 Y91.863
G1 X107.887 Y91.597
G1 X108.364 Y91.563
G1 X108.765 Y91.761
G1 X108.981 Y92.128
G0 Z5.000 F500.000
G0 X109.792 Y93.475 F3000.000
G1 Z1.000 F500.000
G4 P100
G1 X109.629 Y93.221 F1000.000
G1 X109.516 Y92.700
G1 X109.543 Y91.600
G1 X109.550 Y92.123
G1 X109.922 Y92.350
G1 X110.299 Y93.014
G1 X110.861 Y93.204
G1 X110.883 Y93.300
G1 X110.749 Y91.637
G0 Z5.000 F500.000
G0 X89.431 Y94.359 F3000.000
G1 Z1.000 F500.000
G4 P100
G1 X89.565 Y94.381 F1000.000
G0 Z5.000 F500.000
G0 X93.141 Y94.359 F3000.000
G1 Z1.000 F500.000
G4 P100
G1 X93.275 Y94.381 F1000.000
G0 Z5.000 F500.000
G0 X85.506 Y82.477 F3000.000
G1 Z1.000 F500.000
G4 P100
G1 X85.782 Y82.590 F1000.000
G1 X85.975 Y82.833
G1 X86.417 Y83.718
G1 X86.666 Y84.497
G1 X86.730 Y85.085
G1 X86.657 Y85.494
G1 X86.452 Y85.671
G1 X86.164 Y85.588
G1 X85.847 Y85.077
G1 X85.552 Y84.052
G1 X85.409 Y82.904
G1 X85.506 Y82.477
G1 X85.458 Y82.069
G1 X85.604 Y81.704
G1 X85.826 Y81.522
G1 X86.256 Y81.506
G1 X86.573 Y81.745
G1 X86.889 Y81.464
G1 X87.243 Y83.280
G1 X87.468 Y83.353
G1 X88.240 Y83.016
G1 X88.614 Y82.995
G1 X88.890 Y83.162
G1 X89.336 Y83.771
G1 X89.646 Y84.410
G1 X89.777 Y85.008
G1 X89.723 Y85.492
G1 X89.475 Y85.676
G1 X89.188 Y85.546
G1 X88.917 Y85.114
G1 X88.411 Y83.388
G1 X88.439 Y82.978
G1 X88.272 Y82.230
G1 X88.270 Y81.112
G1 X88.370 Y80.226
G1 X88.557 Y79.915
G1 X88.863 Y79.974
G1 X89.033 Y80.347
G1 X88.916 Y82.219
G1 X89.027 Y82.323
G1 X89.816 Y82.377
G0 Z5.000 F500.000
G0 X89.782 Y83.317 F3000.000
G1 Z1.000 F500.000
G4 P100
G1 X90.254 Y83.286 F1000.000
G1 X90.387 Y83.398
G1 X90.416 Y83.977
G1 X90.717 Y84.917
G1 X91.007 Y85.287
G1 X91.340 Y85.306
G1 X91.477 Y84.999
G1 X91.437 Y84.521
G1 X90.826 Y83.400
G1 X91.177 Y83.330
G1 X91.598 Y83.410
G1 X91.177 Y83.330
G1 X90.387 Y83.398
G1 X90.299 Y83.303
G1 X90.366 Y81.965
G1 X90.532 Y81.642
G1 X90.801 Y81.491
G1 X91.183 Y81.521
G1 X91.449 Y81.738
G1 X91.646 Y81.677
G1 X92.324 Y82.609
G1 X92.564 Y82.783
G1 X92.679 Y83.262
G1 X92.845 Y83.417
G1 X92.679 Y83.262
G1 X92.564 Y82.783
G1 X93.034 Y82.159
G1 X93.114 Y81.759
G1 X92.892 Y81.468
G1 X92.484 Y81.469
G0 Z5.000 F500.000
G0 X96.608 Y81.828 F3000.000
G1 Z1.000 F500.000
G4 P100
G1 X96.832 Y83.074 F1000.000
G1 X96.397 Y83.327
G1 X96.015 Y83.169
G1 X95.694 Y82.829
G1 X95.497 Y82.375
G1 X95.460 Y81.896
G1 X95.557 Y81.622
G1 X95.749 Y81.481
G1 X95.993 Y81.492
G1 X96.303 Y81.753
G1 X96.608 Y81.828
G1 X96.645 Y81.533
G0 Z5.000 F500.000
G0 X98.177 Y83.378 F3000.000
G1 Z1.000 F500.000
G4 P100
G1 X98.014 Y83.124 F1000.000
G1 X97.901 Y82.603
G1 X97.928 Y81.503
G1 X97.935 Y82.026
G1 X98.307 Y82.253
G1 X98.684 Y82.917
G1 X99.246 Y83.107
G1 X99.268 Y83.203
G1 X99.134 Y81.540
G0 Z5.000 F500.000
G0 X101.536 Y83.273 F3000.000
G1 Z1.000 F500.000
G4 P100
G1 X101.917 Y85.287 F1000.000
G1 X102.106 Y85.595
G1 X102.446 Y85.626
G1 X102.601 Y85.281
G1 X102.572 Y84.647
G1 X102.037 Y83.044
G1 X101.572 Y82.766
G1 X101.461 Y82.957
G1 X101.495 Y83.317
G1 X101.025 Y83.260
G1 X100.707 Y83.054
G1 X100.458 Y82.721
G1 X100.332 Y82.333
G1 X100.309 Y81.955
G1 X100.470 Y81.555
G1 X100.684 Y81.473
G1 X101.005 Y81.546
G1 X101.577 Y81.891
G1 X101.763 Y81.457
G1 X101.576 Y81.899
G1 X101.572 Y82.766
G0 Z5.000 F500.000
G0 X87.341 Y84.262 F3000.000
G1 Z1.000 F500.000
G4 P100
G1 X87.475 Y84.284 F1000.000
G0 Z5.000 F500.000
G0 X84.966 Y71.580 F3000.000
G1 Z1.000 F500.000
G4 P100
G1 X85.644 Y72.512 F1000.000
G1 X85.884 Y72.686
G1 X85.999 Y73.165
G1 X86.165 Y73.320
G1 X85.999 Y73.165
G1 X85.884 Y72.686
G1 X86.354 Y72.062
G1 X86.434 Y71.662
G1 X86.212 Y71.371
G1 X85.804 Y71.372
G0 Z5.000 F500.000
G0 X87.202 Y73.220 F3000.000
G1 Z1.000 F500.000
G4 P100
G1 X87.674 Y73.189 F1000.000
G1 X87.807 Y73.301
G1 X87.838 Y73.888
G1 X88.144 Y74.833
G1 X88.439 Y75.198
G1 X88.771 Y75.200
G1 X88.898 Y74.888
G1 X88.855 Y74.417
G1 X88.246 Y73.303
G1 X88.597 Y73.233
G1 X89.018 Y73.313
G1 X88.597 Y73.233
G1 X87.807 Y73.301
G1 X87.719 Y73.206
G1 X87.709 Y72.431
G1 X87.801 Y71.820
G1 X88.034 Y71.474
G1 X88.498 Y71.394
G1 X88.869 Y71.641
G0 Z5.000 F500.000
G0 X90.568 Y71.731 F3000.000
G1 Z1.000 F500.000
G4 P100
G1 X90.792 Y72.977 F1000.000
G1 X90.357 Y73.230
G1 X89.975 Y73.072
G1 X89.654 Y72.732
G1 X89.457 Y72.278
G1 X89.420 Y71.799
G1 X89.517 Y71.525
G1 X89.709 Y71.384
G1 X89.953 Y71.395
G1 X90.263 Y71.656
G1 X90.568 Y71.731
G1 X90.605 Y71.436
G0 Z5.000 F500.000
G0 X91.939 Y72.876 F3000.000
G1 Z1.000 F500.000
G4 P100
G1 X92.243 Y72.954 F1000.000
G1 X92.593 Y73.215
G1 X92.906 Y73.117
G1 X93.112 Y72.916
G1 X93.236 Y72.549
G1 X93.217 Y72.098
G1 X93.077 Y71.723
G1 X92.831 Y71.466
G1 X92.461 Y71.375
G1 X92.118 Y71.523
G1 X91.925 Y71.870
G1 X91.870 Y72.409
G1 X91.950 Y73.620
G1 X92.197 Y74.718
G1 X92.517 Y75.398
G1 X92.889 Y75.577
G1 X93.132 Y75.360
G1 X93.167 Y74.853
G1 X93.014 Y74.275
G1 X92.594 Y73.489
G1 X92.593 Y73.215
G0 Z5.000 F500.000
G0 X94.321 Y72.380 F3000.000
G1 Z1.000 F500.000
G4 P100
G1 X94.573 Y72.476 F1000.000
G1 X94.752 Y72.673
G1 X95.412 Y74.130
G1 X95.536 Y75.149
G1 X95.440 Y75.456
G1 X95.252 Y75.577
G1 X95.002 Y75.509
G1 X94.794 Y75.257
G1 X94.394 Y74.084
G1 X94.222 Y72.742
G1 X94.321 Y72.380
G1 X94.271 Y71.987
G1 X94.388 Y71.656
G1 X94.661 Y71.416
G1 X95.057 Y71.405
G1 X95.296 Y71.527
G1 X95.635 Y71.915
G1 X96.665 Y72.278
G1 X96.898 Y72.562
G1 X96.930 Y72.902
G1 X96.777 Y73.141
G1 X96.453 Y73.213
G1 X96.078 Y73.045
G1 X95.814 Y72.646
G1 X95.740 Y72.193
G1 X95.874 Y71.650
G1 X96.206 Y71.398
G1 X96.677 Y71.370
G1 X97.070 Y71.567
G1 X97.286 Y71.934
G0 Z5.000 F500.000
G0 X85.489 Y62.779 F3000.000
G1 Z1.000 F500.000
G4 P100
G1 X85.793 Y62.857 F1000.000
G1 X86.143 Y63.118
G1 X86.456 Y63.020
G1 X86.662 Y62.819
G1 X86.786 Y62.452
G1 X86.767 Y62.001
G1 X86.627 Y61.626
G1 X86.381 Y61.369
G1 X86.011 Y61.278
G1 X85.668 Y61.426
G1 X85.475 Y61.773
G1 X85.420 Y62.312
G1 X85.500 Y63.523
G1 X85.747 Y64.621
G1 X86.067 Y65.301
G1 X86.439 Y65.480
G1 X86.682 Y65.263
G1 X86.717 Y64.756
G1 X86.564 Y64.178
G1 X86.144 Y63.392
G1 X86.143 Y63.118
G0 Z5.000 F500.000
G0 X88.833 Y61.634 F3000.000
G1 Z1.000 F500.000
G4 P100
G1 X89.053 Y62.893 F1000.000
G1 X88.666 Y63.136
G1 X88.198 Y62.944
G1 X87.923 Y62.641
G1 X87.744 Y62.259
G1 X87.676 Y61.825
G1 X87.752 Y61.478
G1 X87.913 Y61.313
G1 X88.133 Y61.275
G1 X88.535 Y61.562
G1 X88.833 Y61.634
G1 X88.937 Y61.227
G1 X89.107 Y61.207
G1 X89.681 Y61.483
G1 X90.359 Y62.415
G1 X90.599 Y62.589
G1 X90.714 Y63.068
G1 X90.880 Y63.223
G1 X90.714 Y63.068
G1 X90.599 Y62.589
G1 X91.069 Y61.965
G1 X91.149 Y61.565
G1 X90.927 Y61.274
G1 X90.519 Y61.275
G0 Z5.000 F500.000
G0 X92.207 Y61.881 F3000.000
G1 Z1.000 F500.000
G4 P100
G1 X92.915 Y62.083 F1000.000
G1 X93.294 Y62.445
G1 X93.347 Y62.725
G1 X93.256 Y62.976
G1 X93.048 Y63.102
G1 X92.771 Y63.101
G1 X92.347 Y62.796
G1 X92.148 Y62.220
G1 X92.253 Y61.597
G1 X92.625 Y61.296
G1 X92.995 Y61.260
G1 X93.334 Y61.367
G1 X93.933 Y62.137
G1 X94.690 Y62.487
G1 X95.243 Y63.551
G1 X95.518 Y64.512
G1 X95.478 Y65.286
G1 X95.335 Y65.455
G1 X95.113 Y65.467
G1 X94.887 Y65.301
G1 X94.679 Y64.923
G1 X94.310 Y63.533
G1 X94.223 Y62.681
G1 X94.321 Y62.283
G1 X94.265 Y61.940
G1 X94.488 Y61.426
G1 X94.963 Y61.289
G1 X95.232 Y61.382
G1 X95.388 Y61.551
G1 X95.747 Y61.289
G1 X95.926 Y62.567
G1 X96.105 Y63.116
G0 Z5.000 F500.000
G0 X97.362 Y63.184 F3000.000
G1 Z1.000 F500.000
G4 P100
G1 X97.199 Y62.930 F1000.000
G1 X97.086 Y62.409
G1 X97.113 Y61.309
G1 X97.120 Y61.832
G1 X97.492 Y62.059
G1 X97.869 Y62.723
G1 X98.431 Y62.913
G1 X98.453 Y63.009
G1 X98.306 Y61.399
G1 X98.403 Y61.241
G1 X99.317 Y61.808
G1 X100.107 Y62.031
G1 X100.494 Y62.289
G1 X100.645 Y62.593
G1 X100.604 Y62.908
G1 X100.402 Y63.087
G1 X100.083 Y63.103
G1 X99.731 Y62.892
G1 X99.503 Y62.487
G1 X99.452 Y62.067
G1 X99.601 Y61.529
G1 X99.937 Y61.294
G1 X100.408 Y61.278
G1 X100.791 Y61.480
G1 X100.996 Y61.837
G0 Z5.000 F500.000
G0 X96.156 Y64.068 F3000.000
G1 Z1.000 F500.000
G4 P100
G1 X96.290 Y64.090 F1000.000
G0 Z5.000 F500.000
G0 X116.242 Y114.221 F3000.000
G1 Z1.000 F500.000
G4 P100
G1 X116.068 Y114.070 F1000.000
G1 X115.631 Y113.208
G1 X115.422 Y112.678
G1 X115.436 Y112.449
G1 X116.740 Y112.334
G1 X116.711 Y111.753
G1 X116.740 Y112.334
G1 X116.814 Y112.410
G1 X117.307 Y112.378
G1 X116.814 Y112.410
G1 X116.929 Y113.330
G1 X117.045 Y113.596
G0 Z5.000 F500.000
G0 X118.374 Y113.483 F3000.000
G1 Z1.000 F500.000
G4 P100
G1 X118.621 Y113.910 F1000.000
G1 X118.975 Y114.131
G1 X119.439 Y114.117
G1 X119.764 Y113.859
G1 X119.908 Y113.411
G1 X119.887 Y112.747
G1 X119.716 Y112.228
G1 X119.424 Y111.897
G1 X118.878 Y111.780
G1 X118.427 Y112.059
G1 X118.267 Y112.661
G1 X118.374 Y113.483
G0 Z5.000 F500.000
G0 X121.002 Y111.943 F3000.000
G1 Z1.000 F500.000
G4 P100
G1 X121.039 Y111.980 F1000.000
G0 Z5.000 F500.000
G0 X122.197 Y114.099 F3000.000
G1 Z1.000 F500.000
G4 P100
G1 X123.281 Y114.111 F1000.000
G1 X123.696 Y113.974
G1 X124.011 Y114.128
G1 X123.696 Y113.974
G1 X123.000 Y113.070
G1 X122.739 Y112.461
G1 X122.646 Y111.819
G0 Z5.000 F500.000
G0 X85.505 Y16.597 F3000.000
G1 Z1.000 F500.000
G4 P100
G1 X84.212 Y16.571 F1000.000
G1 X84.429 Y16.532
G1 X84.340 Y15.798
G1 X85.011 Y15.629
G1 X85.304 Y15.405
G1 X85.358 Y15.122
G1 X85.238 Y14.861
G1 X84.945 Y14.686
G1 X84.543 Y14.679
G1 X84.227 Y14.832
G1 X84.126 Y15.073
G0 Z5.000 F500.000
G0 X83.005 Y14.765 F3000.000
G1 Z1.000 F500.000
G4 P100
G1 X83.248 Y16.434 F1000.000
G1 X83.179 Y16.542
G1 X82.642 Y16.423
G0 Z5.000 F500.000
G0 X84.000 Y42.998 F3000.000
G1 Z1.000 F500.000
G4 P100
G1 X113.987 Y42.998 F1000.000
G0 Z5.000 F500.000
G0 X113.987 Y42.998 F3000.000
G1 Z1.000 F500.000
G4 P100
G1 X143.974 Y42.998 F1000.000
G0 Z5.000 F500.000
G0 X143.974 Y118.859 F3000.000
G1 Z1.000 F500.000
G4 P100
G1 X143.974 Y42.998 F1000.000
G0 Z5.000 F500.000
G0 X113.987 Y118.859 F3000.000
G1 Z1.000 F500.000
G4 P100
G1 X113.987 Y42.998 F1000.000
G0 Z5.000 F500.000
G0 X54.013 Y42.998 F3000.000
G1 Z1.000 F500.000
G4 P100
G1 X84.000 Y42.998 F1000.000
G0 Z5.000 F500.000
G0 X24.026 Y42.998 F3000.000
G1 Z1.000 F500.000
G4 P100
G1 X54.013 Y42.998 F1000.000
G0 Z5.000 F500.000
G0 X54.013 Y118.859 F3000.000
G1 Z1.000 F500.000
G4 P100
G1 X54.013 Y42.998 F1000.000
G0 Z5.000 F500.000
G0 X54.013 Y118.859 F3000.000
G1 Z1.000 F500.000
G4 P100
G1 X84.000 Y118.859 F1000.000
G0 Z5.000 F500.000
G0 X84.000 Y118.859 F3000.000
G1 Z1.000 F500.000
G4 P100
G1 X84.000 Y42.998 F1000.000
G0 Z5.000 F500.000
G0 X84.000 Y118.859 F3000.000
G1 Z1.000 F500.000
G4 P100
G1 X113.987 Y118.859 F1000.000
G0 Z5.000 F500.000
G0 X113.987 Y118.859 F3000.000
G1 Z1.000 F500.000
G4 P100
G1 X143.974 Y118.859 F1000.000
G0 Z5.000 F500.000
G0 X143.974 Y184.624 F3000.000
G1 Z1.000 F500.000
G4 P100
G1 X143.974 Y118.859 F1000.000
G0 Z5.000 F500.000
G0 X113.987 Y184.624 F3000.000
G1 Z1.000 F500.000
G4 P100
G1 X113.987 Y118.859 F1000.000
G0 Z5.000 F500.000
G0 X113.987 Y184.624 F3000.000
G1 Z1.000 F500.000
G4 P100
G1 X143.974 Y184.624 F1000.000
G0 Z5.000 F500.000
G0 X143.974 Y210.000 F3000.000
G1 Z1.000 F500.000
G4 P100
G1 X143.974 Y184.624 F1000.000
G0 Z5.000 F500.000
G0 X113.987 Y210.000 F3000.000
G1 Z1.000 F500.000
G4 P100
G1 X113.987 Y184.624 F1000.000
G0 Z5.000 F500.000
G0 X113.987 Y210.000 F3000.000
G1 Z1.000 F500.000
G4 P100
G1 X143.974 Y210.000 F1000.000
G0 Z5.000 F500.000
G0 X84.000 Y210.000 F3000.000
G1 Z1.000 F500.000
G4 P100
G1 X84.000 Y184.624 F1000.000
G0 Z5.000 F500.000
G0 X84.000 Y184.624 F3000.000
G1 Z1.000 F500.000
G4 P100
G1 X84.000 Y118.859 F1000.000
G0 Z5.000 F500.000
G0 X24.026 Y118.859 F3000.000
G1 Z1.000 F500.000
G4 P100
G1 X24.026 Y42.998 F1000.000
G0 Z5.000 F500.000
G0 X24.026 Y118.859 F3000.000
G1 Z1.000 F500.000
G4 P100
G1 X54.013 Y118.859 F1000.000
G0 Z5.000 F500.000
G0 X54.013 Y184.624 F3000.000
G1 Z1.000 F500.000
G4 P100
G1 X54.013 Y118.859 F1000.000
G0 Z5.000 F500.000
G0 X54.013 Y184.624 F3000.000
G1 Z1.000 F500.000
G4 P100
G1 X84.000 Y184.624 F1000.000
G0 Z5.000 F500.000
G0 X84.000 Y184.624 F3000.000
G1 Z1.000 F500.000
G4 P100
G1 X113.987 Y184.624 F1000.000
G0 Z5.000 F500.000
G0 X84.000 Y210.000 F3000.000
G1 Z1.000 F500.000
G4 P100
G1 X113.987 Y210.000 F1000.000
G0 Z5.000 F500.000
G0 X54.013 Y210.000 F3000.000
G1 Z1.000 F500.000
G4 P100
G1 X54.013 Y184.624 F1000.000
G0 Z5.000 F500.000
G0 X54.013 Y210.000 F3000.000
G1 Z1.000 F500.000
G4 P100
G1 X84.000 Y210.000 F1000.000
G0 Z5.000 F500.000
G0 X24.026 Y210.000 F3000.000
G1 Z1.000 F500.000
G4 P100
G1 X24.026 Y184.624 F1000.000
G0 Z5.000 F500.000
G0 X24.026 Y184.624 F3000.000
G1 Z1.000 F500.000
G4 P100
G1 X24.026 Y118.859 F1000.000
G0 Z5.000 F500.000
G0 X24.026 Y184.624 F3000.000
G1 Z1.000 F500.000
G4 P100
G1 X54.013 Y184.624 F1000.000
G0 Z5.000 F500.000
G0 X24.026 Y210.000 F3000.000
G1 Z1.000 F500.000
G4 P100
G1 X54.013 Y210.000 F1000.000
G0 Z5.000 F500.000
M400
M84
; End
